zip_code,zip_city,municipal_code,municipal_number
0001,OSLO,0301,OSLO
0010,OSLO,0301,OSLO
0015,OSLO,0301,OSLO
0018,OSLO,0301,OSLO
0021,OSLO,0301,OSLO
0024,OSLO,0301,OSLO
0026,OSLO,0301,OSLO
0028,OSLO,0301,OSLO
0030,OSLO,0301,OSLO
0031,OSLO,0301,OSLO
0032,OSLO,0301,OSLO
0033,OSLO,0301,OSLO
0034,OSLO,0301,OSLO
0037,OSLO,0301,OSLO
0040,OSLO,0301,OSLO
0045,OSLO,0301,OSLO
0046,OSLO,0301,OSLO
0047,OSLO,0301,OSLO
0048,OSLO,0301,OSLO
0050,OSLO,0301,OSLO
0055,OSLO,0301,OSLO
0060,OSLO,0301,OSLO
0081,OSLO,0301,OSLO
0101,OSLO,0301,OSLO
0102,OSLO,0301,OSLO
0103,OSLO,0301,OSLO
0104,OSLO,0301,OSLO
0105,OSLO,0301,OSLO
0106,OSLO,0301,OSLO
0107,OSLO,0301,OSLO
0109,OSLO,0301,OSLO
0110,OSLO,0301,OSLO
0111,OSLO,0301,OSLO
0112,OSLO,0301,OSLO
0113,OSLO,0301,OSLO
0114,OSLO,0301,OSLO
0115,OSLO,0301,OSLO
0116,OSLO,0301,OSLO
0117,OSLO,0301,OSLO
0118,OSLO,0301,OSLO
0119,OSLO,0301,OSLO
0120,OSLO,0301,OSLO
0121,OSLO,0301,OSLO
0122,OSLO,0301,OSLO
0123,OSLO,0301,OSLO
0124,OSLO,0301,OSLO
0125,OSLO,0301,OSLO
0128,OSLO,0301,OSLO
0129,OSLO,0301,OSLO
0130,OSLO,0301,OSLO
0131,OSLO,0301,OSLO
0132,OSLO,0301,OSLO
0133,OSLO,0301,OSLO
0134,OSLO,0301,OSLO
0135,OSLO,0301,OSLO
0136,OSLO,0301,OSLO
0138,OSLO,0301,OSLO
0139,OSLO,0301,OSLO
0140,OSLO,0301,OSLO
0150,OSLO,0301,OSLO
0151,OSLO,0301,OSLO
0152,OSLO,0301,OSLO
0153,OSLO,0301,OSLO
0154,OSLO,0301,OSLO
0155,OSLO,0301,OSLO
0157,OSLO,0301,OSLO
0158,OSLO,0301,OSLO
0159,OSLO,0301,OSLO
0160,OSLO,0301,OSLO
0161,OSLO,0301,OSLO
0162,OSLO,0301,OSLO
0164,OSLO,0301,OSLO
0165,OSLO,0301,OSLO
0166,OSLO,0301,OSLO
0167,OSLO,0301,OSLO
0168,OSLO,0301,OSLO
0169,OSLO,0301,OSLO
0170,OSLO,0301,OSLO
0171,OSLO,0301,OSLO
0172,OSLO,0301,OSLO
0173,OSLO,0301,OSLO
0174,OSLO,0301,OSLO
0175,OSLO,0301,OSLO
0176,OSLO,0301,OSLO
0177,OSLO,0301,OSLO
0178,OSLO,0301,OSLO
0179,OSLO,0301,OSLO
0180,OSLO,0301,OSLO
0181,OSLO,0301,OSLO
0182,OSLO,0301,OSLO
0183,OSLO,0301,OSLO
0184,OSLO,0301,OSLO
0185,OSLO,0301,OSLO
0186,OSLO,0301,OSLO
0187,OSLO,0301,OSLO
0188,OSLO,0301,OSLO
0190,OSLO,0301,OSLO
0191,OSLO,0301,OSLO
0192,OSLO,0301,OSLO
0193,OSLO,0301,OSLO
0194,OSLO,0301,OSLO
0195,OSLO,0301,OSLO
0196,OSLO,0301,OSLO
0198,OSLO,0301,OSLO
0201,OSLO,0301,OSLO
0202,OSLO,0301,OSLO
0203,OSLO,0301,OSLO
0204,OSLO,0301,OSLO
0207,OSLO,0301,OSLO
0208,OSLO,0301,OSLO
0211,OSLO,0301,OSLO
0212,OSLO,0301,OSLO
0213,OSLO,0301,OSLO
0214,OSLO,0301,OSLO
0215,OSLO,0301,OSLO
0216,OSLO,0301,OSLO
0217,OSLO,0301,OSLO
0218,OSLO,0301,OSLO
0230,OSLO,0301,OSLO
0240,OSLO,0301,OSLO
0244,OSLO,0301,OSLO
0247,OSLO,0301,OSLO
0250,OSLO,0301,OSLO
0251,OSLO,0301,OSLO
0252,OSLO,0301,OSLO
0253,OSLO,0301,OSLO
0254,OSLO,0301,OSLO
0255,OSLO,0301,OSLO
0256,OSLO,0301,OSLO
0257,OSLO,0301,OSLO
0258,OSLO,0301,OSLO
0259,OSLO,0301,OSLO
0260,OSLO,0301,OSLO
0262,OSLO,0301,OSLO
0263,OSLO,0301,OSLO
0264,OSLO,0301,OSLO
0265,OSLO,0301,OSLO
0266,OSLO,0301,OSLO
0267,OSLO,0301,OSLO
0268,OSLO,0301,OSLO
0270,OSLO,0301,OSLO
0271,OSLO,0301,OSLO
0272,OSLO,0301,OSLO
0273,OSLO,0301,OSLO
0274,OSLO,0301,OSLO
0275,OSLO,0301,OSLO
0276,OSLO,0301,OSLO
0277,OSLO,0301,OSLO
0278,OSLO,0301,OSLO
0279,OSLO,0301,OSLO
0280,OSLO,0301,OSLO
0281,OSLO,0301,OSLO
0282,OSLO,0301,OSLO
0283,OSLO,0301,OSLO
0284,OSLO,0301,OSLO
0286,OSLO,0301,OSLO
0287,OSLO,0301,OSLO
0301,OSLO,0301,OSLO
0302,OSLO,0301,OSLO
0303,OSLO,0301,OSLO
0304,OSLO,0301,OSLO
0305,OSLO,0301,OSLO
0306,OSLO,0301,OSLO
0307,OSLO,0301,OSLO
0308,OSLO,0301,OSLO
0309,OSLO,0301,OSLO
0311,OSLO,0301,OSLO
0313,OSLO,0301,OSLO
0314,OSLO,0301,OSLO
0315,OSLO,0301,OSLO
0316,OSLO,0301,OSLO
0317,OSLO,0301,OSLO
0318,OSLO,0301,OSLO
0319,OSLO,0301,OSLO
0323,OSLO,0301,OSLO
0330,OSLO,0301,OSLO
0340,OSLO,0301,OSLO
0349,OSLO,0301,OSLO
0350,OSLO,0301,OSLO
0351,OSLO,0301,OSLO
0352,OSLO,0301,OSLO
0353,OSLO,0301,OSLO
0354,OSLO,0301,OSLO
0355,OSLO,0301,OSLO
0356,OSLO,0301,OSLO
0357,OSLO,0301,OSLO
0358,OSLO,0301,OSLO
0359,OSLO,0301,OSLO
0360,OSLO,0301,OSLO
0361,OSLO,0301,OSLO
0362,OSLO,0301,OSLO
0363,OSLO,0301,OSLO
0364,OSLO,0301,OSLO
0365,OSLO,0301,OSLO
0366,OSLO,0301,OSLO
0367,OSLO,0301,OSLO
0368,OSLO,0301,OSLO
0369,OSLO,0301,OSLO
0370,OSLO,0301,OSLO
0371,OSLO,0301,OSLO
0372,OSLO,0301,OSLO
0373,OSLO,0301,OSLO
0374,OSLO,0301,OSLO
0375,OSLO,0301,OSLO
0376,OSLO,0301,OSLO
0377,OSLO,0301,OSLO
0378,OSLO,0301,OSLO
0379,OSLO,0301,OSLO
0380,OSLO,0301,OSLO
0381,OSLO,0301,OSLO
0382,OSLO,0301,OSLO
0383,OSLO,0301,OSLO
0401,OSLO,0301,OSLO
0402,OSLO,0301,OSLO
0403,OSLO,0301,OSLO
0404,OSLO,0301,OSLO
0405,OSLO,0301,OSLO
0406,OSLO,0301,OSLO
0409,OSLO,0301,OSLO
0410,OSLO,0301,OSLO
0411,OSLO,0301,OSLO
0412,OSLO,0301,OSLO
0413,OSLO,0301,OSLO
0415,OSLO,0301,OSLO
0421,OSLO,0301,OSLO
0422,OSLO,0301,OSLO
0423,OSLO,0301,OSLO
0424,OSLO,0301,OSLO
0440,OSLO,0301,OSLO
0441,OSLO,0301,OSLO
0442,OSLO,0301,OSLO
0445,OSLO,0301,OSLO
0450,OSLO,0301,OSLO
0451,OSLO,0301,OSLO
0452,OSLO,0301,OSLO
0454,OSLO,0301,OSLO
0455,OSLO,0301,OSLO
0456,OSLO,0301,OSLO
0457,OSLO,0301,OSLO
0458,OSLO,0301,OSLO
0459,OSLO,0301,OSLO
0460,OSLO,0301,OSLO
0461,OSLO,0301,OSLO
0462,OSLO,0301,OSLO
0463,OSLO,0301,OSLO
0464,OSLO,0301,OSLO
0465,OSLO,0301,OSLO
0467,OSLO,0301,OSLO
0468,OSLO,0301,OSLO
0469,OSLO,0301,OSLO
0470,OSLO,0301,OSLO
0472,OSLO,0301,OSLO
0473,OSLO,0301,OSLO
0474,OSLO,0301,OSLO
0475,OSLO,0301,OSLO
0476,OSLO,0301,OSLO
0477,OSLO,0301,OSLO
0478,OSLO,0301,OSLO
0479,OSLO,0301,OSLO
0480,OSLO,0301,OSLO
0481,OSLO,0301,OSLO
0482,OSLO,0301,OSLO
0483,OSLO,0301,OSLO
0484,OSLO,0301,OSLO
0485,OSLO,0301,OSLO
0486,OSLO,0301,OSLO
0487,OSLO,0301,OSLO
0488,OSLO,0301,OSLO
0489,OSLO,0301,OSLO
0490,OSLO,0301,OSLO
0491,OSLO,0301,OSLO
0492,OSLO,0301,OSLO
0493,OSLO,0301,OSLO
0494,OSLO,0301,OSLO
0495,OSLO,0301,OSLO
0496,OSLO,0301,OSLO
0501,OSLO,0301,OSLO
0502,OSLO,0301,OSLO
0503,OSLO,0301,OSLO
0504,OSLO,0301,OSLO
0505,OSLO,0301,OSLO
0506,OSLO,0301,OSLO
0507,OSLO,0301,OSLO
0508,OSLO,0301,OSLO
0509,OSLO,0301,OSLO
0510,OSLO,0301,OSLO
0511,OSLO,0301,OSLO
0512,OSLO,0301,OSLO
0513,OSLO,0301,OSLO
0515,OSLO,0301,OSLO
0516,OSLO,0301,OSLO
0517,OSLO,0301,OSLO
0518,OSLO,0301,OSLO
0520,OSLO,0301,OSLO
0540,OSLO,0301,OSLO
0550,OSLO,0301,OSLO
0551,OSLO,0301,OSLO
0552,OSLO,0301,OSLO
0553,OSLO,0301,OSLO
0554,OSLO,0301,OSLO
0555,OSLO,0301,OSLO
0556,OSLO,0301,OSLO
0557,OSLO,0301,OSLO
0558,OSLO,0301,OSLO
0559,OSLO,0301,OSLO
0560,OSLO,0301,OSLO
0561,OSLO,0301,OSLO
0562,OSLO,0301,OSLO
0563,OSLO,0301,OSLO
0564,OSLO,0301,OSLO
0565,OSLO,0301,OSLO
0566,OSLO,0301,OSLO
0567,OSLO,0301,OSLO
0568,OSLO,0301,OSLO
0569,OSLO,0301,OSLO
0570,OSLO,0301,OSLO
0571,OSLO,0301,OSLO
0572,OSLO,0301,OSLO
0573,OSLO,0301,OSLO
0574,OSLO,0301,OSLO
0575,OSLO,0301,OSLO
0576,OSLO,0301,OSLO
0577,OSLO,0301,OSLO
0578,OSLO,0301,OSLO
0579,OSLO,0301,OSLO
0580,OSLO,0301,OSLO
0581,OSLO,0301,OSLO
0582,OSLO,0301,OSLO
0583,OSLO,0301,OSLO
0584,OSLO,0301,OSLO
0585,OSLO,0301,OSLO
0586,OSLO,0301,OSLO
0587,OSLO,0301,OSLO
0588,OSLO,0301,OSLO
0589,OSLO,0301,OSLO
0590,OSLO,0301,OSLO
0591,OSLO,0301,OSLO
0592,OSLO,0301,OSLO
0593,OSLO,0301,OSLO
0594,OSLO,0301,OSLO
0595,OSLO,0301,OSLO
0596,OSLO,0301,OSLO
0597,OSLO,0301,OSLO
0598,OSLO,0301,OSLO
0601,OSLO,0301,OSLO
0602,OSLO,0301,OSLO
0603,OSLO,0301,OSLO
0604,OSLO,0301,OSLO
0605,OSLO,0301,OSLO
0606,OSLO,0301,OSLO
0607,OSLO,0301,OSLO
0608,OSLO,0301,OSLO
0609,OSLO,0301,OSLO
0611,OSLO,0301,OSLO
0612,OSLO,0301,OSLO
0613,OSLO,0301,OSLO
0614,OSLO,0301,OSLO
0615,OSLO,0301,OSLO
0616,OSLO,0301,OSLO
0617,OSLO,0301,OSLO
0618,OSLO,0301,OSLO
0619,OSLO,0301,OSLO
0620,OSLO,0301,OSLO
0621,OSLO,0301,OSLO
0622,OSLO,0301,OSLO
0623,OSLO,0301,OSLO
0624,OSLO,0301,OSLO
0626,OSLO,0301,OSLO
0650,OSLO,0301,OSLO
0651,OSLO,0301,OSLO
0652,OSLO,0301,OSLO
0653,OSLO,0301,OSLO
0654,OSLO,0301,OSLO
0655,OSLO,0301,OSLO
0656,OSLO,0301,OSLO
0657,OSLO,0301,OSLO
0658,OSLO,0301,OSLO
0659,OSLO,0301,OSLO
0660,OSLO,0301,OSLO
0661,OSLO,0301,OSLO
0662,OSLO,0301,OSLO
0663,OSLO,0301,OSLO
0664,OSLO,0301,OSLO
0665,OSLO,0301,OSLO
0666,OSLO,0301,OSLO
0667,OSLO,0301,OSLO
0668,OSLO,0301,OSLO
0669,OSLO,0301,OSLO
0670,OSLO,0301,OSLO
0671,OSLO,0301,OSLO
0672,OSLO,0301,OSLO
0673,OSLO,0301,OSLO
0674,OSLO,0301,OSLO
0675,OSLO,0301,OSLO
0676,OSLO,0301,OSLO
0677,OSLO,0301,OSLO
0678,OSLO,0301,OSLO
0679,OSLO,0301,OSLO
0680,OSLO,0301,OSLO
0681,OSLO,0301,OSLO
0682,OSLO,0301,OSLO
0683,OSLO,0301,OSLO
0684,OSLO,0301,OSLO
0685,OSLO,0301,OSLO
0686,OSLO,0301,OSLO
0687,OSLO,0301,OSLO
0688,OSLO,0301,OSLO
0689,OSLO,0301,OSLO
0690,OSLO,0301,OSLO
0691,OSLO,0301,OSLO
0692,OSLO,0301,OSLO
0693,OSLO,0301,OSLO
0694,OSLO,0301,OSLO
0701,OSLO,0301,OSLO
0702,OSLO,0301,OSLO
0705,OSLO,0301,OSLO
0710,OSLO,0301,OSLO
0712,OSLO,0301,OSLO
0750,OSLO,0301,OSLO
0751,OSLO,0301,OSLO
0752,OSLO,0301,OSLO
0753,OSLO,0301,OSLO
0754,OSLO,0301,OSLO
0755,OSLO,0301,OSLO
0756,OSLO,0301,OSLO
0757,OSLO,0301,OSLO
0758,OSLO,0301,OSLO
0760,OSLO,0301,OSLO
0763,OSLO,0301,OSLO
0764,OSLO,0301,OSLO
0765,OSLO,0301,OSLO
0766,OSLO,0301,OSLO
0767,OSLO,0301,OSLO
0768,OSLO,0301,OSLO
0770,OSLO,0301,OSLO
0771,OSLO,0301,OSLO
0772,OSLO,0301,OSLO
0773,OSLO,0301,OSLO
0774,OSLO,0301,OSLO
0775,OSLO,0301,OSLO
0776,OSLO,0301,OSLO
0777,OSLO,0301,OSLO
0778,OSLO,0301,OSLO
0779,OSLO,0301,OSLO
0781,OSLO,0301,OSLO
0782,OSLO,0301,OSLO
0783,OSLO,0301,OSLO
0784,OSLO,0301,OSLO
0785,OSLO,0301,OSLO
0786,OSLO,0301,OSLO
0787,OSLO,0301,OSLO
0788,OSLO,0301,OSLO
0789,OSLO,0301,OSLO
0790,OSLO,0301,OSLO
0791,OSLO,0301,OSLO
0801,OSLO,0301,OSLO
0805,OSLO,0301,OSLO
0806,OSLO,0301,OSLO
0807,OSLO,0301,OSLO
0840,OSLO,0301,OSLO
0850,OSLO,0301,OSLO
0851,OSLO,0301,OSLO
0852,OSLO,0301,OSLO
0853,OSLO,0301,OSLO
0854,OSLO,0301,OSLO
0855,OSLO,0301,OSLO
0856,OSLO,0301,OSLO
0857,OSLO,0301,OSLO
0858,OSLO,0301,OSLO
0860,OSLO,0301,OSLO
0861,OSLO,0301,OSLO
0862,OSLO,0301,OSLO
0863,OSLO,0301,OSLO
0864,OSLO,0301,OSLO
0870,OSLO,0301,OSLO
0871,OSLO,0301,OSLO
0872,OSLO,0301,OSLO
0873,OSLO,0301,OSLO
0874,OSLO,0301,OSLO
0875,OSLO,0301,OSLO
0876,OSLO,0301,OSLO
0877,OSLO,0301,OSLO
0880,OSLO,0301,OSLO
0881,OSLO,0301,OSLO
0882,OSLO,0301,OSLO
0883,OSLO,0301,OSLO
0884,OSLO,0301,OSLO
0890,OSLO,0301,OSLO
0891,OSLO,0301,OSLO
0901,OSLO,0301,OSLO
0902,OSLO,0301,OSLO
0903,OSLO,0301,OSLO
0904,OSLO,0301,OSLO
0905,OSLO,0301,OSLO
0907,OSLO,0301,OSLO
0908,OSLO,0301,OSLO
0913,OSLO,0301,OSLO
0914,OSLO,0301,OSLO
0915,OSLO,0301,OSLO
0950,OSLO,0301,OSLO
0951,OSLO,0301,OSLO
0952,OSLO,0301,OSLO
0953,OSLO,0301,OSLO
0954,OSLO,0301,OSLO
0955,OSLO,0301,OSLO
0956,OSLO,0301,OSLO
0957,OSLO,0301,OSLO
0958,OSLO,0301,OSLO
0959,OSLO,0301,OSLO
0960,OSLO,0301,OSLO
0962,OSLO,0301,OSLO
0963,OSLO,0301,OSLO
0964,OSLO,0301,OSLO
0968,OSLO,0301,OSLO
0969,OSLO,0301,OSLO
0970,OSLO,0301,OSLO
0971,OSLO,0301,OSLO
0972,OSLO,0301,OSLO
0973,OSLO,0301,OSLO
0975,OSLO,0301,OSLO
0976,OSLO,0301,OSLO
0977,OSLO,0301,OSLO
0978,OSLO,0301,OSLO
0979,OSLO,0301,OSLO
0980,OSLO,0301,OSLO
0981,OSLO,0301,OSLO
0982,OSLO,0301,OSLO
0983,OSLO,0301,OSLO
0984,OSLO,0301,OSLO
0985,OSLO,0301,OSLO
0986,OSLO,0301,OSLO
0987,OSLO,0301,OSLO
0988,OSLO,0301,OSLO
1001,OSLO,0301,OSLO
1003,OSLO,0301,OSLO
1005,OSLO,0301,OSLO
1006,OSLO,0301,OSLO
1007,OSLO,0301,OSLO
1008,OSLO,0301,OSLO
1009,OSLO,0301,OSLO
1011,OSLO,0301,OSLO
1051,OSLO,0301,OSLO
1052,OSLO,0301,OSLO
1053,OSLO,0301,OSLO
1054,OSLO,0301,OSLO
1055,OSLO,0301,OSLO
1056,OSLO,0301,OSLO
1061,OSLO,0301,OSLO
1062,OSLO,0301,OSLO
1063,OSLO,0301,OSLO
1064,OSLO,0301,OSLO
1065,OSLO,0301,OSLO
1067,OSLO,0301,OSLO
1068,OSLO,0301,OSLO
1069,OSLO,0301,OSLO
1071,OSLO,0301,OSLO
1081,OSLO,0301,OSLO
1083,OSLO,0301,OSLO
1084,OSLO,0301,OSLO
1086,OSLO,0301,OSLO
1087,OSLO,0301,OSLO
1088,OSLO,0301,OSLO
1089,OSLO,0301,OSLO
1101,OSLO,0301,OSLO
1102,OSLO,0301,OSLO
1108,OSLO,0301,OSLO
1109,OSLO,0301,OSLO
1112,OSLO,0301,OSLO
1150,OSLO,0301,OSLO
1151,OSLO,0301,OSLO
1152,OSLO,0301,OSLO
1153,OSLO,0301,OSLO
1154,OSLO,0301,OSLO
1155,OSLO,0301,OSLO
1156,OSLO,0301,OSLO
1157,OSLO,0301,OSLO
1158,OSLO,0301,OSLO
1160,OSLO,0301,OSLO
1161,OSLO,0301,OSLO
1162,OSLO,0301,OSLO
1163,OSLO,0301,OSLO
1164,OSLO,0301,OSLO
1165,OSLO,0301,OSLO
1166,OSLO,0301,OSLO
1167,OSLO,0301,OSLO
1168,OSLO,0301,OSLO
1169,OSLO,0301,OSLO
1170,OSLO,0301,OSLO
1172,OSLO,0301,OSLO
1176,OSLO,0301,OSLO
1177,OSLO,0301,OSLO
1178,OSLO,0301,OSLO
1179,OSLO,0301,OSLO
1181,OSLO,0301,OSLO
1182,OSLO,0301,OSLO
1184,OSLO,0301,OSLO
1185,OSLO,0301,OSLO
1187,OSLO,0301,OSLO
1188,OSLO,0301,OSLO
1189,OSLO,0301,OSLO
1201,OSLO,0301,OSLO
1203,OSLO,0301,OSLO
1204,OSLO,0301,OSLO
1205,OSLO,0301,OSLO
1207,OSLO,0301,OSLO
1214,OSLO,0301,OSLO
1215,OSLO,0301,OSLO
1250,OSLO,0301,OSLO
1251,OSLO,0301,OSLO
1252,OSLO,0301,OSLO
1253,OSLO,0301,OSLO
1254,OSLO,0301,OSLO
1255,OSLO,0301,OSLO
1256,OSLO,0301,OSLO
1257,OSLO,0301,OSLO
1258,OSLO,0301,OSLO
1259,OSLO,0301,OSLO
1262,OSLO,0301,OSLO
1263,OSLO,0301,OSLO
1266,OSLO,0301,OSLO
1270,OSLO,0301,OSLO
1271,OSLO,0301,OSLO
1272,OSLO,0301,OSLO
1273,OSLO,0301,OSLO
1274,OSLO,0301,OSLO
1275,OSLO,0301,OSLO
1278,OSLO,0301,OSLO
1279,OSLO,0301,OSLO
1281,OSLO,0301,OSLO
1283,OSLO,0301,OSLO
1284,OSLO,0301,OSLO
1285,OSLO,0301,OSLO
1286,OSLO,0301,OSLO
1290,OSLO,0301,OSLO
1291,OSLO,0301,OSLO
1294,OSLO,0301,OSLO
1295,OSLO,0301,OSLO
1300,SANDVIKA,3024,BÆRUM
1301,SANDVIKA,3024,BÆRUM
1302,SANDVIKA,3024,BÆRUM
1303,SANDVIKA,3024,BÆRUM
1304,SANDVIKA,3024,BÆRUM
1305,HASLUM,3024,BÆRUM
1306,SANDVIKA,3024,BÆRUM
1307,FORNEBU,3024,BÆRUM
1308,JAR,3024,BÆRUM
1309,RUD,3024,BÆRUM
1311,HØVIKODDEN,3024,BÆRUM
1312,SLEPENDEN,3024,BÆRUM
1313,VØYENENGA,3024,BÆRUM
1314,VØYENENGA,3024,BÆRUM
1316,EIKSMARKA,3024,BÆRUM
1317,BÆRUMS VERK,3024,BÆRUM
1318,BEKKESTUA,3024,BÆRUM
1319,BEKKESTUA,3024,BÆRUM
1321,STABEKK,3024,BÆRUM
1322,HØVIK,3024,BÆRUM
1323,HØVIK,3024,BÆRUM
1324,LYSAKER,3024,BÆRUM
1325,LYSAKER,3024,BÆRUM
1326,LYSAKER,3024,BÆRUM
1327,LYSAKER,3024,BÆRUM
1328,HØVIK,3024,BÆRUM
1329,LOMMEDALEN,3024,BÆRUM
1330,FORNEBU,3024,BÆRUM
1331,FORNEBU,3024,BÆRUM
1332,ØSTERÅS,3024,BÆRUM
1333,KOLSÅS,3024,BÆRUM
1334,RYKKINN,3024,BÆRUM
1335,SNARØYA,3024,BÆRUM
1336,SANDVIKA,3024,BÆRUM
1337,SANDVIKA,3024,BÆRUM
1338,SANDVIKA,3024,BÆRUM
1339,VØYENENGA,3024,BÆRUM
1340,SKUI,3024,BÆRUM
1341,SLEPENDEN,3024,BÆRUM
1342,GJETTUM,3024,BÆRUM
1344,HASLUM,3024,BÆRUM
1346,GJETTUM,3024,BÆRUM
1348,RYKKINN,3024,BÆRUM
1349,RYKKINN,3024,BÆRUM
1350,LOMMEDALEN,3024,BÆRUM
1351,RUD,3024,BÆRUM
1352,KOLSÅS,3024,BÆRUM
1353,BÆRUMS VERK,3024,BÆRUM
1354,BÆRUMS VERK,3024,BÆRUM
1356,BEKKESTUA,3024,BÆRUM
1357,BEKKESTUA,3024,BÆRUM
1358,JAR,3024,BÆRUM
1359,EIKSMARKA,3024,BÆRUM
1360,FORNEBU,3024,BÆRUM
1361,ØSTERÅS,3024,BÆRUM
1362,HOSLE,3024,BÆRUM
1363,HØVIK,3024,BÆRUM
1364,FORNEBU,3024,BÆRUM
1365,BLOMMENHOLM,3024,BÆRUM
1366,LYSAKER,3024,BÆRUM
1367,SNARØYA,3024,BÆRUM
1368,STABEKK,3024,BÆRUM
1369,STABEKK,3024,BÆRUM
1371,ASKER,3025,ASKER
1372,ASKER,3025,ASKER
1373,ASKER,3025,ASKER
1375,BILLINGSTAD,3025,ASKER
1376,BILLINGSTAD,3025,ASKER
1377,BILLINGSTAD,3025,ASKER
1378,NESBRU,3025,ASKER
1379,NESBRU,3025,ASKER
1380,HEGGEDAL,3025,ASKER
1381,VETTRE,3025,ASKER
1383,ASKER,3025,ASKER
1384,ASKER,3025,ASKER
1385,ASKER,3025,ASKER
1386,ASKER,3025,ASKER
1387,ASKER,3025,ASKER
1388,BORGEN,3025,ASKER
1389,HEGGEDAL,3025,ASKER
1390,VOLLEN,3025,ASKER
1391,VOLLEN,3025,ASKER
1392,VETTRE,3025,ASKER
1393,VOLLEN,3025,ASKER
1394,NESBRU,3025,ASKER
1395,HVALSTAD,3025,ASKER
1396,BILLINGSTAD,3025,ASKER
1397,NESØYA,3025,ASKER
1399,ASKER,3025,ASKER
1400,SKI,3020,NORDRE FOLLO
1401,SKI,3020,NORDRE FOLLO
1402,SKI,3020,NORDRE FOLLO
1403,LANGHUS,3020,NORDRE FOLLO
1404,SIGGERUD,3020,NORDRE FOLLO
1405,LANGHUS,3020,NORDRE FOLLO
1406,SKI,3020,NORDRE FOLLO
1407,VINTERBRO,3021,ÅS
1408,KRÅKSTAD,3020,NORDRE FOLLO
1409,SKOTBU,3020,NORDRE FOLLO
1410,KOLBOTN,3020,NORDRE FOLLO
1411,KOLBOTN,3020,NORDRE FOLLO
1412,SOFIEMYR,3020,NORDRE FOLLO
1413,TÅRNÅSEN,3020,NORDRE FOLLO
1414,TROLLÅSEN,3020,NORDRE FOLLO
1415,OPPEGÅRD,3020,NORDRE FOLLO
1416,OPPEGÅRD,3020,NORDRE FOLLO
1417,SOFIEMYR,3020,NORDRE FOLLO
1418,KOLBOTN,3020,NORDRE FOLLO
1419,OPPEGÅRD,3020,NORDRE FOLLO
1420,SVARTSKOG,3020,NORDRE FOLLO
1421,TROLLÅSEN,3020,NORDRE FOLLO
1422,SIGGERUD,3020,NORDRE FOLLO
1423,SKI,3020,NORDRE FOLLO
1424,SKI,3020,NORDRE FOLLO
1425,SKI,3020,NORDRE FOLLO
1429,VINTERBRO,3021,ÅS
1430,ÅS,3021,ÅS
1431,ÅS,3021,ÅS
1432,ÅS,3021,ÅS
1433,ÅS,3021,ÅS
1434,ÅS,3021,ÅS
1435,ÅS,3021,ÅS
1440,DRØBAK,3022,FROGN
1441,DRØBAK,3022,FROGN
1442,DRØBAK,3022,FROGN
1443,DRØBAK,3022,FROGN
1444,DRØBAK,3022,FROGN
1445,DRØBAK,3022,FROGN
1446,DRØBAK,3022,FROGN
1447,DRØBAK,3022,FROGN
1448,DRØBAK,3022,FROGN
1449,DRØBAK,3022,FROGN
1450,NESODDTANGEN,3023,NESODDEN
1451,NESODDTANGEN,3023,NESODDEN
1452,NESODDTANGEN,3023,NESODDEN
1453,BJØRNEMYR,3023,NESODDEN
1454,FAGERSTRAND,3023,NESODDEN
1455,NORDRE FROGN,3022,FROGN
1456,NESODDTANGEN,3023,NESODDEN
1457,FAGERSTRAND,3023,NESODDEN
1458,FJELLSTRAND,3023,NESODDEN
1459,NESODDEN,3023,NESODDEN
1461,LØRENSKOG,3029,LØRENSKOG
1462,FJELLHAMAR,3029,LØRENSKOG
1463,FJELLHAMAR,3029,LØRENSKOG
1464,FJELLHAMAR,3029,LØRENSKOG
1465,STRØMMEN,3030,LILLESTRØM
1466,STRØMMEN,3030,LILLESTRØM
1467,STRØMMEN,3030,LILLESTRØM
1468,FINSTADJORDET,3029,LØRENSKOG
1469,RASTA,3029,LØRENSKOG
1470,LØRENSKOG,3029,LØRENSKOG
1471,LØRENSKOG,3029,LØRENSKOG
1472,FJELLHAMAR,3029,LØRENSKOG
1473,LØRENSKOG,3029,LØRENSKOG
1474,LØRENSKOG,3029,LØRENSKOG
1475,FINSTADJORDET,3029,LØRENSKOG
1476,RASTA,3029,LØRENSKOG
1477,FJELLHAMAR,3029,LØRENSKOG
1478,LØRENSKOG,3029,LØRENSKOG
1479,KURLAND,3029,LØRENSKOG
1480,SLATTUM,3031,NITTEDAL
1481,HAGAN,3031,NITTEDAL
1482,NITTEDAL,3031,NITTEDAL
1483,HAGAN,3031,NITTEDAL
1484,HAKADAL,3031,NITTEDAL
1485,HAKADAL,3031,NITTEDAL
1486,NITTEDAL,3031,NITTEDAL
1487,HAKADAL,3031,NITTEDAL
1488,HAKADAL,3031,NITTEDAL
1501,MOSS,3002,MOSS
1502,MOSS,3002,MOSS
1503,MOSS,3002,MOSS
1504,MOSS,3002,MOSS
1506,MOSS,3002,MOSS
1508,MOSS,3002,MOSS
1509,MOSS,3002,MOSS
1510,MOSS,3002,MOSS
1511,MOSS,3002,MOSS
1512,MOSS,3002,MOSS
1513,MOSS,3002,MOSS
1514,MOSS,3002,MOSS
1515,MOSS,3002,MOSS
1516,MOSS,3002,MOSS
1517,MOSS,3002,MOSS
1518,MOSS,3002,MOSS
1519,MOSS,3002,MOSS
1520,MOSS,3002,MOSS
1521,MOSS,3002,MOSS
1522,MOSS,3002,MOSS
1523,MOSS,3002,MOSS
1524,MOSS,3002,MOSS
1525,MOSS,3002,MOSS
1526,MOSS,3002,MOSS
1528,MOSS,3002,MOSS
1529,MOSS,3002,MOSS
1530,MOSS,3002,MOSS
1531,MOSS,3002,MOSS
1532,MOSS,3002,MOSS
1533,MOSS,3002,MOSS
1534,MOSS,3002,MOSS
1535,MOSS,3002,MOSS
1536,MOSS,3002,MOSS
1537,MOSS,3002,MOSS
1538,MOSS,3002,MOSS
1539,MOSS,3002,MOSS
1540,VESTBY,3019,VESTBY
1541,VESTBY,3019,VESTBY
1542,VESTBY,3019,VESTBY
1543,VESTBY,3019,VESTBY
1544,VESTBY,3019,VESTBY
1545,HVITSTEN,3019,VESTBY
1550,HØLEN,3019,VESTBY
1555,SON,3019,VESTBY
1556,SON,3019,VESTBY
1560,LARKOLLEN,3002,MOSS
1561,LARKOLLEN,3002,MOSS
1570,DILLING,3002,MOSS
1580,RYGGE,3002,MOSS
1581,RYGGE,3002,MOSS
1590,RYGGE,3002,MOSS
1591,SPERREBOTN,3018,VÅLER (VIKEN)
1592,VÅLER I ØSTFOLD,3018,VÅLER (VIKEN)
1593,SVINNDAL,3018,VÅLER (VIKEN)
1594,VÅLER I ØSTFOLD,3018,VÅLER (VIKEN)
1596,MOSS,3002,MOSS
1597,MOSS,3002,MOSS
1598,MOSS,3002,MOSS
1599,MOSS,3002,MOSS
1601,FREDRIKSTAD,3004,FREDRIKSTAD
1602,FREDRIKSTAD,3004,FREDRIKSTAD
1604,FREDRIKSTAD,3004,FREDRIKSTAD
1605,FREDRIKSTAD,3004,FREDRIKSTAD
1606,FREDRIKSTAD,3004,FREDRIKSTAD
1607,FREDRIKSTAD,3004,FREDRIKSTAD
1608,FREDRIKSTAD,3004,FREDRIKSTAD
1609,FREDRIKSTAD,3004,FREDRIKSTAD
1610,FREDRIKSTAD,3004,FREDRIKSTAD
1612,FREDRIKSTAD,3004,FREDRIKSTAD
1613,FREDRIKSTAD,3004,FREDRIKSTAD
1614,FREDRIKSTAD,3004,FREDRIKSTAD
1615,FREDRIKSTAD,3004,FREDRIKSTAD
1616,FREDRIKSTAD,3004,FREDRIKSTAD
1617,FREDRIKSTAD,3004,FREDRIKSTAD
1618,FREDRIKSTAD,3004,FREDRIKSTAD
1619,FREDRIKSTAD,3004,FREDRIKSTAD
1620,GRESSVIK,3004,FREDRIKSTAD
1621,GRESSVIK,3004,FREDRIKSTAD
1622,GRESSVIK,3004,FREDRIKSTAD
1623,GRESSVIK,3004,FREDRIKSTAD
1624,GRESSVIK,3004,FREDRIKSTAD
1625,MANSTAD,3004,FREDRIKSTAD
1626,MANSTAD,3004,FREDRIKSTAD
1628,ENGELSVIKEN,3004,FREDRIKSTAD
1629,GAMLE FREDRIKSTAD,3004,FREDRIKSTAD
1630,GAMLE FREDRIKSTAD,3004,FREDRIKSTAD
1632,GAMLE FREDRIKSTAD,3004,FREDRIKSTAD
1633,GAMLE FREDRIKSTAD,3004,FREDRIKSTAD
1634,GAMLE FREDRIKSTAD,3004,FREDRIKSTAD
1636,GAMLE FREDRIKSTAD,3004,FREDRIKSTAD
1637,GAMLE FREDRIKSTAD,3004,FREDRIKSTAD
1638,GAMLE FREDRIKSTAD,3004,FREDRIKSTAD
1639,GAMLE FREDRIKSTAD,3004,FREDRIKSTAD
1640,RÅDE,3017,RÅDE
1641,RÅDE,3017,RÅDE
1642,SALTNES,3017,RÅDE
1643,RÅDE,3017,RÅDE
1650,SELLEBAKK,3004,FREDRIKSTAD
1651,SELLEBAKK,3004,FREDRIKSTAD
1653,SELLEBAKK,3004,FREDRIKSTAD
1654,SELLEBAKK,3004,FREDRIKSTAD
1655,SELLEBAKK,3004,FREDRIKSTAD
1657,TORP,3004,FREDRIKSTAD
1658,TORP,3004,FREDRIKSTAD
1659,TORP,3004,FREDRIKSTAD
1661,ROLVSØY,3004,FREDRIKSTAD
1662,ROLVSØY,3004,FREDRIKSTAD
1663,ROLVSØY,3004,FREDRIKSTAD
1664,ROLVSØY,3004,FREDRIKSTAD
1665,ROLVSØY,3004,FREDRIKSTAD
1666,ROLVSØY,3004,FREDRIKSTAD
1667,ROLVSØY,3004,FREDRIKSTAD
1670,KRÅKERØY,3004,FREDRIKSTAD
1671,KRÅKERØY,3004,FREDRIKSTAD
1672,KRÅKERØY,3004,FREDRIKSTAD
1673,KRÅKERØY,3004,FREDRIKSTAD
1675,KRÅKERØY,3004,FREDRIKSTAD
1676,KRÅKERØY,3004,FREDRIKSTAD
1678,KRÅKERØY,3004,FREDRIKSTAD
1679,KRÅKERØY,3004,FREDRIKSTAD
1680,SKJÆRHALDEN,3011,HVALER
1682,SKJÆRHALDEN,3011,HVALER
1683,VESTERØY,3011,HVALER
1684,VESTERØY,3011,HVALER
1690,HERFØL,3011,HVALER
1692,NEDGÅRDEN,3011,HVALER
1701,SARPSBORG,3003,SARPSBORG
1702,SARPSBORG,3003,SARPSBORG
1703,SARPSBORG,3003,SARPSBORG
1704,SARPSBORG,3003,SARPSBORG
1705,SARPSBORG,3003,SARPSBORG
1706,SARPSBORG,3003,SARPSBORG
1707,SARPSBORG,3003,SARPSBORG
1708,SARPSBORG,3003,SARPSBORG
1709,SARPSBORG,3003,SARPSBORG
1710,SARPSBORG,3003,SARPSBORG
1711,SARPSBORG,3003,SARPSBORG
1712,GRÅLUM,3003,SARPSBORG
1713,GRÅLUM,3003,SARPSBORG
1714,GRÅLUM,3003,SARPSBORG
1715,YVEN,3003,SARPSBORG
1718,GREÅKER,3003,SARPSBORG
1719,GREÅKER,3003,SARPSBORG
1720,GREÅKER,3003,SARPSBORG
1721,SARPSBORG,3003,SARPSBORG
1722,SARPSBORG,3003,SARPSBORG
1723,SARPSBORG,3003,SARPSBORG
1724,SARPSBORG,3003,SARPSBORG
1725,SARPSBORG,3003,SARPSBORG
1726,SARPSBORG,3003,SARPSBORG
1727,SARPSBORG,3003,SARPSBORG
1730,ISE,3003,SARPSBORG
1733,HAFSLUNDSØY,3003,SARPSBORG
1734,HAFSLUNDSØY,3003,SARPSBORG
1735,VARTEIG,3003,SARPSBORG
1738,BORGENHAUGEN,3003,SARPSBORG
1739,BORGENHAUGEN,3003,SARPSBORG
1740,BORGENHAUGEN,3003,SARPSBORG
1742,KLAVESTADHAUGEN,3003,SARPSBORG
1743,KLAVESTADHAUGEN,3003,SARPSBORG
1745,SKJEBERG,3003,SARPSBORG
1746,SKJEBERG,3003,SARPSBORG
1747,SKJEBERG,3003,SARPSBORG
1751,HALDEN,3001,HALDEN
1752,HALDEN,3001,HALDEN
1753,HALDEN,3001,HALDEN
1754,HALDEN,3001,HALDEN
1757,HALDEN,3001,HALDEN
1759,HALDEN,3001,HALDEN
1760,HALDEN,3001,HALDEN
1761,HALDEN,3001,HALDEN
1762,HALDEN,3001,HALDEN
1763,HALDEN,3001,HALDEN
1764,HALDEN,3001,HALDEN
1765,HALDEN,3001,HALDEN
1766,HALDEN,3001,HALDEN
1767,HALDEN,3001,HALDEN
1768,HALDEN,3001,HALDEN
1769,HALDEN,3001,HALDEN
1771,HALDEN,3001,HALDEN
1772,HALDEN,3001,HALDEN
1776,HALDEN,3001,HALDEN
1777,HALDEN,3001,HALDEN
1778,HALDEN,3001,HALDEN
1779,HALDEN,3001,HALDEN
1781,HALDEN,3001,HALDEN
1782,HALDEN,3001,HALDEN
1783,HALDEN,3001,HALDEN
1784,HALDEN,3001,HALDEN
1785,HALDEN,3001,HALDEN
1786,HALDEN,3001,HALDEN
1787,HALDEN,3001,HALDEN
1788,HALDEN,3001,HALDEN
1789,BERG I ØSTFOLD,3001,HALDEN
1790,TISTEDAL,3001,HALDEN
1791,TISTEDAL,3001,HALDEN
1792,TISTEDAL,3001,HALDEN
1793,TISTEDAL,3001,HALDEN
1794,SPONVIKA,3001,HALDEN
1796,KORNSJØ,3001,HALDEN
1798,AREMARK,3012,AREMARK
1799,AREMARK,3012,AREMARK
1801,ASKIM,3014,INDRE ØSTFOLD
1802,ASKIM,3014,INDRE ØSTFOLD
1803,ASKIM,3014,INDRE ØSTFOLD
1804,SPYDEBERG,3014,INDRE ØSTFOLD
1805,TOMTER,3014,INDRE ØSTFOLD
1806,SKIPTVET,3015,SKIPTVET
1807,ASKIM,3014,INDRE ØSTFOLD
1808,ASKIM,3014,INDRE ØSTFOLD
1809,ASKIM,3014,INDRE ØSTFOLD
1811,ASKIM,3014,INDRE ØSTFOLD
1812,ASKIM,3014,INDRE ØSTFOLD
1813,ASKIM,3014,INDRE ØSTFOLD
1814,ASKIM,3014,INDRE ØSTFOLD
1815,ASKIM,3014,INDRE ØSTFOLD
1816,SKIPTVET,3015,SKIPTVET
1820,SPYDEBERG,3014,INDRE ØSTFOLD
1821,SPYDEBERG,3014,INDRE ØSTFOLD
1823,KNAPSTAD,3014,INDRE ØSTFOLD
1825,TOMTER,3014,INDRE ØSTFOLD
1827,HOBØL,3014,INDRE ØSTFOLD
1828,HOBØL,3014,INDRE ØSTFOLD
1830,ASKIM,3014,INDRE ØSTFOLD
1831,ASKIM,3014,INDRE ØSTFOLD
1832,ASKIM,3014,INDRE ØSTFOLD
1833,ASKIM,3014,INDRE ØSTFOLD
1850,MYSEN,3014,INDRE ØSTFOLD
1851,MYSEN,3014,INDRE ØSTFOLD
1852,MYSEN,3014,INDRE ØSTFOLD
1859,SLITU,3014,INDRE ØSTFOLD
1860,TRØGSTAD,3014,INDRE ØSTFOLD
1861,TRØGSTAD,3014,INDRE ØSTFOLD
1866,BÅSTAD,3014,INDRE ØSTFOLD
1867,BÅSTAD,3014,INDRE ØSTFOLD
1870,ØRJE,3013,MARKER
1871,ØRJE,3013,MARKER
1875,OTTEID,3013,MARKER
1878,HÆRLAND,3014,INDRE ØSTFOLD
1880,EIDSBERG,3014,INDRE ØSTFOLD
1890,RAKKESTAD,3016,RAKKESTAD
1891,RAKKESTAD,3016,RAKKESTAD
1892,DEGERNES,3016,RAKKESTAD
1893,DEGERNES,3016,RAKKESTAD
1894,RAKKESTAD,3016,RAKKESTAD
1900,FETSUND,3030,LILLESTRØM
1901,FETSUND,3030,LILLESTRØM
1903,GAN,3030,LILLESTRØM
1910,ENEBAKKNESET,3030,LILLESTRØM
1911,FLATEBY,3028,ENEBAKK
1912,ENEBAKK,3028,ENEBAKK
1914,YTRE ENEBAKK,3028,ENEBAKK
1916,FLATEBY,3028,ENEBAKK
1917,YTRE ENEBAKK,3028,ENEBAKK
1920,SØRUMSAND,3030,LILLESTRØM
1921,SØRUMSAND,3030,LILLESTRØM
1923,SØRUM,3030,LILLESTRØM
1924,SØRUM,3030,LILLESTRØM
1925,BLAKER,3030,LILLESTRØM
1926,BLAKER,3030,LILLESTRØM
1927,RÅNÅSFOSS,3034,NES
1928,AULI,3034,NES
1929,AULI,3034,NES
1930,AURSKOG,3026,AURSKOG-HØLAND
1931,AURSKOG,3026,AURSKOG-HØLAND
1940,BJØRKELANGEN,3026,AURSKOG-HØLAND
1941,BJØRKELANGEN,3026,AURSKOG-HØLAND
1950,RØMSKOG,3026,AURSKOG-HØLAND
1954,SETSKOG,3026,AURSKOG-HØLAND
1960,LØKEN,3026,AURSKOG-HØLAND
1961,LØKEN,3026,AURSKOG-HØLAND
1963,FOSSER,3026,AURSKOG-HØLAND
1970,HEMNES,3026,AURSKOG-HØLAND
1971,HEMNES,3026,AURSKOG-HØLAND
2000,LILLESTRØM,3030,LILLESTRØM
2001,LILLESTRØM,3030,LILLESTRØM
2003,LILLESTRØM,3030,LILLESTRØM
2004,LILLESTRØM,3030,LILLESTRØM
2005,RÆLINGEN,3027,RÆLINGEN
2006,LØVENSTAD,3027,RÆLINGEN
2007,KJELLER,3030,LILLESTRØM
2008,FJERDINGBY,3027,RÆLINGEN
2009,NORDBY,3027,RÆLINGEN
2010,STRØMMEN,3030,LILLESTRØM
2011,STRØMMEN,3030,LILLESTRØM
2012,LILLESTRØM,3030,LILLESTRØM
2013,SKJETTEN,3030,LILLESTRØM
2014,BLYSTADLIA,3027,RÆLINGEN
2015,LEIRSUND,3030,LILLESTRØM
2016,FROGNER,3030,LILLESTRØM
2017,FROGNER,3030,LILLESTRØM
2018,LØVENSTAD,3027,RÆLINGEN
2019,SKEDSMOKORSET,3030,LILLESTRØM
2020,SKEDSMOKORSET,3030,LILLESTRØM
2021,SKEDSMOKORSET,3030,LILLESTRØM
2022,GJERDRUM,3032,GJERDRUM
2023,SKEDSMOKORSET,3030,LILLESTRØM
2024,GJERDRUM,3032,GJERDRUM
2025,FJERDINGBY,3027,RÆLINGEN
2026,SKJETTEN,3030,LILLESTRØM
2027,KJELLER,3030,LILLESTRØM
2028,LILLESTRØM,3030,LILLESTRØM
2029,RÆLINGEN,3027,RÆLINGEN
2030,NANNESTAD,3036,NANNESTAD
2031,NANNESTAD,3036,NANNESTAD
2032,MAURA,3036,NANNESTAD
2033,ÅSGREINA,3036,NANNESTAD
2034,HOLTER,3036,NANNESTAD
2035,HOLTER,3036,NANNESTAD
2036,MAURA,3036,NANNESTAD
2040,KLØFTA,3033,ULLENSAKER
2041,KLØFTA,3033,ULLENSAKER
2050,JESSHEIM,3033,ULLENSAKER
2051,JESSHEIM,3033,ULLENSAKER
2052,JESSHEIM,3033,ULLENSAKER
2053,JESSHEIM,3033,ULLENSAKER
2054,MOGREINA,3033,ULLENSAKER
2055,NORDKISA,3033,ULLENSAKER
2056,ALGARHEIM,3033,ULLENSAKER
2057,JESSHEIM,3033,ULLENSAKER
2058,SESSVOLLMOEN,3033,ULLENSAKER
2060,GARDERMOEN,3033,ULLENSAKER
2061,GARDERMOEN,3033,ULLENSAKER
2062,JESSHEIM,3033,ULLENSAKER
2063,JESSHEIM,3033,ULLENSAKER
2066,JESSHEIM,3033,ULLENSAKER
2067,JESSHEIM,3033,ULLENSAKER
2068,JESSHEIM,3033,ULLENSAKER
2069,JESSHEIM,3033,ULLENSAKER
2070,RÅHOLT,3035,EIDSVOLL
2071,RÅHOLT,3035,EIDSVOLL
2072,DAL,3035,EIDSVOLL
2073,BØN,3035,EIDSVOLL
2074,EIDSVOLL VERK,3035,EIDSVOLL
2076,DAL,3035,EIDSVOLL
2080,EIDSVOLL,3035,EIDSVOLL
2081,EIDSVOLL,3035,EIDSVOLL
2090,HURDAL,3037,HURDAL
2091,HURDAL,3037,HURDAL
2092,MINNESUND,3035,EIDSVOLL
2093,FEIRING,3035,EIDSVOLL
2094,MINNESUND,3035,EIDSVOLL
2100,SKARNES,3415,SØR-ODAL
2101,SKARNES,3415,SØR-ODAL
2110,SLÅSTAD,3415,SØR-ODAL
2114,DISENÅ,3415,SØR-ODAL
2116,SANDER,3415,SØR-ODAL
2120,SAGSTUA,3414,NORD-ODAL
2121,SAGSTUA,3414,NORD-ODAL
2123,BRUVOLL,3414,NORD-ODAL
2130,KNAPPER,3414,NORD-ODAL
2132,GARDVIK,3414,NORD-ODAL
2133,GARDVIK,3414,NORD-ODAL
2134,AUSTVATN,3414,NORD-ODAL
2150,ÅRNES,3034,NES
2151,ÅRNES,3034,NES
2160,VORMSUND,3034,NES
2161,VORMSUND,3034,NES
2162,BRÅRUD,3034,NES
2163,SKOGBYGDA,3034,NES
2164,SKOGBYGDA,3034,NES
2165,HVAM,3034,NES
2166,OPPAKER,3034,NES
2167,HVAM,3034,NES
2170,FENSTAD,3034,NES
2201,KONGSVINGER,3401,KONGSVINGER
2202,KONGSVINGER,3401,KONGSVINGER
2203,KONGSVINGER,3401,KONGSVINGER
2204,KONGSVINGER,3401,KONGSVINGER
2205,KONGSVINGER,3401,KONGSVINGER
2206,KONGSVINGER,3401,KONGSVINGER
2207,KONGSVINGER,3401,KONGSVINGER
2208,KONGSVINGER,3401,KONGSVINGER
2209,KONGSVINGER,3401,KONGSVINGER
2210,GRANLI,3401,KONGSVINGER
2211,KONGSVINGER,3401,KONGSVINGER
2212,KONGSVINGER,3401,KONGSVINGER
2213,KONGSVINGER,3401,KONGSVINGER
2214,KONGSVINGER,3401,KONGSVINGER
2215,ROVERUD,3401,KONGSVINGER
2216,ROVERUD,3401,KONGSVINGER
2217,HOKKÅSEN,3401,KONGSVINGER
2218,LUNDERSÆTER,3401,KONGSVINGER
2219,BRANDVAL,3401,KONGSVINGER
2220,ÅBOGEN,3416,EIDSKOG
2223,GALTERUD,3415,SØR-ODAL
2224,AUSTMARKA,3401,KONGSVINGER
2225,KONGSVINGER,3401,KONGSVINGER
2226,KONGSVINGER,3401,KONGSVINGER
2227,AUSTMARKA,3401,KONGSVINGER
2230,SKOTTERUD,3416,EIDSKOG
2231,SKOTTERUD,3416,EIDSKOG
2232,TOBØL,3416,EIDSKOG
2233,VESTMARKA,3416,EIDSKOG
2235,MATRAND,3416,EIDSKOG
2240,MAGNOR,3416,EIDSKOG
2241,MAGNOR,3416,EIDSKOG
2251,GRUE FINNSKOG,3417,GRUE
2256,GRUE FINNSKOG,3417,GRUE
2260,KIRKENÆR,3417,GRUE
2261,KIRKENÆR,3417,GRUE
2264,GRINDER,3417,GRUE
2265,NAMNÅ,3417,GRUE
2266,ARNEBERG,3418,ÅSNES
2270,FLISA,3418,ÅSNES
2271,FLISA,3418,ÅSNES
2280,GJESÅSEN,3418,ÅSNES
2283,ÅSNES FINNSKOG,3418,ÅSNES
2301,HAMAR,3403,HAMAR
2302,HAMAR,3403,HAMAR
2303,HAMAR,3403,HAMAR
2304,HAMAR,3403,HAMAR
2305,HAMAR,3403,HAMAR
2306,HAMAR,3403,HAMAR
2307,HAMAR,3403,HAMAR
2308,HAMAR,3403,HAMAR
2309,HAMAR,3403,HAMAR
2311,HAMAR,3403,HAMAR
2312,OTTESTAD,3413,STANGE
2313,OTTESTAD,3413,STANGE
2314,OTTESTAD,3413,STANGE
2315,HAMAR,3403,HAMAR
2316,HAMAR,3403,HAMAR
2317,HAMAR,3403,HAMAR
2318,HAMAR,3403,HAMAR
2319,HAMAR,3403,HAMAR
2320,FURNES,3411,RINGSAKER
2321,HAMAR,3403,HAMAR
2322,RIDABU,3403,HAMAR
2323,INGEBERG,3403,HAMAR
2324,VANG PÅ HEDMARKEN,3403,HAMAR
2325,HAMAR,3403,HAMAR
2326,HAMAR,3403,HAMAR
2327,FURNES,3411,RINGSAKER
2328,RIDABU,3403,HAMAR
2329,VANG PÅ HEDMARKEN,3403,HAMAR
2330,VALLSET,3413,STANGE
2331,VALLSET,3413,STANGE
2332,ÅSVANG,3413,STANGE
2333,ROMEDAL,3413,STANGE
2334,ROMEDAL,3413,STANGE
2335,STANGE,3413,STANGE
2336,STANGE,3413,STANGE
2337,TANGEN,3413,STANGE
2338,ESPA,3413,STANGE
2339,TANGEN,3413,STANGE
2340,LØTEN,3412,LØTEN
2341,LØTEN,3412,LØTEN
2344,ILSENG,3413,STANGE
2345,ÅDALSBRUK,3412,LØTEN
2346,ILSENG,3413,STANGE
2350,NES PÅ HEDMARKEN,3411,RINGSAKER
2351,NES PÅ HEDMARKEN,3411,RINGSAKER
2353,STAVSJØ,3411,RINGSAKER
2355,GAUPEN,3411,RINGSAKER
2360,RUDSHØGDA,3411,RINGSAKER
2361,RUDSHØGDA,3411,RINGSAKER
2364,NÆROSET,3411,RINGSAKER
2365,ÅSMARKA,3411,RINGSAKER
2372,BRØTTUM,3411,RINGSAKER
2373,BRØTTUM,3411,RINGSAKER
2380,BRUMUNDDAL,3411,RINGSAKER
2381,BRUMUNDDAL,3411,RINGSAKER
2382,BRUMUNDDAL,3411,RINGSAKER
2383,BRUMUNDDAL,3411,RINGSAKER
2384,BRUMUNDDAL,3411,RINGSAKER
2385,BRUMUNDDAL,3411,RINGSAKER
2386,BRUMUNDDAL,3411,RINGSAKER
2387,BRUMUNDDAL,3411,RINGSAKER
2388,BRUMUNDDAL,3411,RINGSAKER
2389,BRUMUNDDAL,3411,RINGSAKER
2390,MOELV,3411,RINGSAKER
2391,MOELV,3411,RINGSAKER
2401,ELVERUM,3420,ELVERUM
2402,ELVERUM,3420,ELVERUM
2403,ELVERUM,3420,ELVERUM
2404,ELVERUM,3420,ELVERUM
2405,ELVERUM,3420,ELVERUM
2406,ELVERUM,3420,ELVERUM
2407,ELVERUM,3420,ELVERUM
2408,ELVERUM,3420,ELVERUM
2409,ELVERUM,3420,ELVERUM
2410,HERNES,3420,ELVERUM
2411,ELVERUM,3420,ELVERUM
2412,SØRSKOGBYGDA,3420,ELVERUM
2413,ELVERUM,3420,ELVERUM
2414,ELVERUM,3420,ELVERUM
2415,HERADSBYGD,3420,ELVERUM
2416,JØMNA,3420,ELVERUM
2417,ELVERUM,3420,ELVERUM
2418,ELVERUM,3420,ELVERUM
2419,ELVERUM,3420,ELVERUM
2420,TRYSIL,3421,TRYSIL
2421,TRYSIL,3421,TRYSIL
2422,NYBERGSUND,3421,TRYSIL
2423,ØSTBY,3421,TRYSIL
2424,ØSTBY,3421,TRYSIL
2425,LJØRDALEN,3421,TRYSIL
2426,LJØRDALEN,3421,TRYSIL
2427,PLASSEN,3421,TRYSIL
2428,SØRE OSEN,3421,TRYSIL
2429,TØRBERGET,3421,TRYSIL
2430,JORDET,3421,TRYSIL
2432,SLETTÅS,3421,TRYSIL
2434,BRASKEREIDFOSS,3419,VÅLER (INNLANDET)
2435,BRASKEREIDFOSS,3419,VÅLER (INNLANDET)
2436,VÅLER I SOLØR,3419,VÅLER (INNLANDET)
2437,HASLEMOEN,3419,VÅLER (INNLANDET)
2438,GRAVBERGET,3419,VÅLER (INNLANDET)
2439,VÅLER I SOLØR,3419,VÅLER (INNLANDET)
2440,ENGERDAL,3425,ENGERDAL
2441,ENGERDAL,3425,ENGERDAL
2442,HERADSBYGD,3420,ELVERUM
2443,DREVSJØ,3425,ENGERDAL
2444,DREVSJØ,3425,ENGERDAL
2446,ELGÅ,3425,ENGERDAL
2447,SØRE OSEN,3421,TRYSIL
2448,SØMÅDALEN,3425,ENGERDAL
2450,RENA,3422,ÅMOT
2451,RENA,3422,ÅMOT
2460,OSEN,3422,ÅMOT
2461,OSEN,3422,ÅMOT
2476,ATNA,3423,STOR-ELVDAL
2477,SOLLIA,3423,STOR-ELVDAL
2478,HANESTAD,3424,RENDALEN
2480,KOPPANG,3423,STOR-ELVDAL
2481,KOPPANG,3423,STOR-ELVDAL
2484,RENDALEN,3424,RENDALEN
2485,RENDALEN,3424,RENDALEN
2486,RENDALEN,3424,RENDALEN
2487,RENDALEN,3424,RENDALEN
2488,RENDALEN,3424,RENDALEN
2500,TYNSET,3427,TYNSET
2501,TYNSET,3427,TYNSET
2510,TYLLDALEN,3427,TYNSET
2512,KVIKNE,3427,TYNSET
2513,KVIKNE,3427,TYNSET
2540,TOLGA,3426,TOLGA
2541,TOLGA,3426,TOLGA
2542,VINGELEN,3426,TOLGA
2544,ØVERSJØDALEN,3426,TOLGA
2550,OS I ØSTERDALEN,3430,OS
2551,OS I ØSTERDALEN,3430,OS
2552,DALSBYGDA,3430,OS
2555,TUFSINGDALEN,3430,OS
2560,ALVDAL,3428,ALVDAL
2561,ALVDAL,3428,ALVDAL
2580,FOLLDAL,3429,FOLLDAL
2581,FOLLDAL,3429,FOLLDAL
2582,GRIMSBU,3429,FOLLDAL
2584,DALHOLEN,3429,FOLLDAL
2601,LILLEHAMMER,3405,LILLEHAMMER
2602,LILLEHAMMER,3405,LILLEHAMMER
2603,LILLEHAMMER,3405,LILLEHAMMER
2604,LILLEHAMMER,3405,LILLEHAMMER
2605,LILLEHAMMER,3405,LILLEHAMMER
2606,LILLEHAMMER,3405,LILLEHAMMER
2607,VINGROM,3405,LILLEHAMMER
2608,LILLEHAMMER,3405,LILLEHAMMER
2609,LILLEHAMMER,3405,LILLEHAMMER
2610,MESNALI,3411,RINGSAKER
2611,LILLEHAMMER,3405,LILLEHAMMER
2612,SJUSJØEN,3411,RINGSAKER
2613,LILLEHAMMER,3405,LILLEHAMMER
2614,LILLEHAMMER,3405,LILLEHAMMER
2615,LILLEHAMMER,3405,LILLEHAMMER
2616,LISMARKA,3411,RINGSAKER
2617,LILLEHAMMER,3405,LILLEHAMMER
2618,LILLEHAMMER,3405,LILLEHAMMER
2619,LILLEHAMMER,3405,LILLEHAMMER
2620,MESNALI,3411,RINGSAKER
2621,VINGROM,3405,LILLEHAMMER
2622,LILLEHAMMER,3405,LILLEHAMMER
2623,LILLEHAMMER,3405,LILLEHAMMER
2624,LILLEHAMMER,3405,LILLEHAMMER
2625,FÅBERG,3405,LILLEHAMMER
2626,LILLEHAMMER,3405,LILLEHAMMER
2627,FÅBERG,3405,LILLEHAMMER
2628,SJUSJØEN,3411,RINGSAKER
2629,LILLEHAMMER,3405,LILLEHAMMER
2630,RINGEBU,3439,RINGEBU
2631,RINGEBU,3439,RINGEBU
2632,VENABYGD,3439,RINGEBU
2633,FÅVANG,3439,RINGEBU
2634,FÅVANG,3439,RINGEBU
2635,TRETTEN,3440,ØYER
2636,ØYER,3440,ØYER
2637,ØYER,3440,ØYER
2638,TRETTEN,3440,ØYER
2639,VINSTRA,3436,NORD-FRON
2640,VINSTRA,3436,NORD-FRON
2641,KVAM,3436,NORD-FRON
2642,KVAM,3436,NORD-FRON
2643,SKÅBU,3436,NORD-FRON
2644,SKÅBU,3436,NORD-FRON
2645,SØR-FRON,3438,SØR-FRON
2646,GÅLÅ,3438,SØR-FRON
2647,SØR-FRON,3438,SØR-FRON
2648,SØR-FRON,3438,SØR-FRON
2649,ØSTRE GAUSDAL,3441,GAUSDAL
2651,ØSTRE GAUSDAL,3441,GAUSDAL
2652,SVINGVOLL,3441,GAUSDAL
2653,VESTRE GAUSDAL,3441,GAUSDAL
2654,VESTRE GAUSDAL,3441,GAUSDAL
2656,FOLLEBU,3441,GAUSDAL
2657,SVATSUM,3441,GAUSDAL
2658,ESPEDALEN,3438,SØR-FRON
2659,DOMBÅS,3431,DOVRE
2660,DOMBÅS,3431,DOVRE
2661,HJERKINN,3431,DOVRE
2662,DOVRE,3431,DOVRE
2663,DOVRESKOGEN,3431,DOVRE
2664,DOVRE,3431,DOVRE
2665,LESJA,3432,LESJA
2666,LORA,3432,LESJA
2667,LESJAVERK,3432,LESJA
2668,LESJASKOG,3432,LESJA
2669,BJORLI,3432,LESJA
2670,OTTA,3437,SEL
2671,LESJA,3432,LESJA
2672,SEL,3437,SEL
2673,HØVRINGEN,3437,SEL
2674,MYSUSÆTER,3437,SEL
2675,OTTA,3437,SEL
2676,HEIDAL,3437,SEL
2677,NEDRE HEIDAL,3437,SEL
2678,SEL,3437,SEL
2679,HEIDAL,3437,SEL
2680,VÅGÅ,3435,VÅGÅ
2681,LALM,3435,VÅGÅ
2682,LALM,3435,VÅGÅ
2683,TESSANDEN,3435,VÅGÅ
2684,VÅGÅ,3435,VÅGÅ
2685,GARMO,3434,LOM
2686,LOM,3434,LOM
2687,BØVERDALEN,3434,LOM
2688,LOM,3434,LOM
2690,SKJÅK,3433,SKJÅK
2693,NORDBERG,3433,SKJÅK
2694,SKJÅK,3433,SKJÅK
2695,GROTLI,3433,SKJÅK
2711,GRAN,3446,GRAN
2712,BRANDBU,3446,GRAN
2713,ROA,3054,LUNNER
2714,JAREN,3446,GRAN
2715,LUNNER,3054,LUNNER
2716,HARESTUA,3054,LUNNER
2717,GRUA,3054,LUNNER
2718,BRANDBU,3446,GRAN
2720,GRINDVOLL,3054,LUNNER
2730,LUNNER,3054,LUNNER
2740,ROA,3054,LUNNER
2742,GRUA,3054,LUNNER
2743,HARESTUA,3054,LUNNER
2750,GRAN,3446,GRAN
2760,BRANDBU,3446,GRAN
2770,JAREN,3446,GRAN
2801,GJØVIK,3407,GJØVIK
2802,GJØVIK,3407,GJØVIK
2803,GJØVIK,3407,GJØVIK
2804,GJØVIK,3407,GJØVIK
2805,GJØVIK,3407,GJØVIK
2806,GJØVIK,3407,GJØVIK
2807,HUNNDALEN,3407,GJØVIK
2808,GJØVIK,3407,GJØVIK
2809,GJØVIK,3407,GJØVIK
2810,GJØVIK,3407,GJØVIK
2811,HUNNDALEN,3407,GJØVIK
2812,GJØVIK,3407,GJØVIK
2815,GJØVIK,3407,GJØVIK
2816,GJØVIK,3407,GJØVIK
2817,GJØVIK,3407,GJØVIK
2818,GJØVIK,3407,GJØVIK
2819,GJØVIK,3407,GJØVIK
2820,NORDRE TOTEN,3442,ØSTRE TOTEN
2821,GJØVIK,3407,GJØVIK
2822,BYBRUA,3407,GJØVIK
2825,GJØVIK,3407,GJØVIK
2827,HUNNDALEN,3407,GJØVIK
2830,RAUFOSS,3443,VESTRE TOTEN
2831,RAUFOSS,3443,VESTRE TOTEN
2832,BIRI,3407,GJØVIK
2833,RAUFOSS,3443,VESTRE TOTEN
2834,RAUFOSS,3443,VESTRE TOTEN
2835,RAUFOSS,3443,VESTRE TOTEN
2836,BIRI,3407,GJØVIK
2837,BIRISTRAND,3407,GJØVIK
2838,SNERTINGDAL,3407,GJØVIK
2839,ØVRE SNERTINGDAL,3407,GJØVIK
2840,REINSVOLL,3443,VESTRE TOTEN
2841,SNERTINGDAL,3407,GJØVIK
2843,EINA,3443,VESTRE TOTEN
2844,KOLBU,3442,ØSTRE TOTEN
2845,BØVERBRU,3443,VESTRE TOTEN
2846,BØVERBRU,3443,VESTRE TOTEN
2847,KOLBU,3442,ØSTRE TOTEN
2848,SKREIA,3442,ØSTRE TOTEN
2849,KAPP,3442,ØSTRE TOTEN
2850,LENA,3442,ØSTRE TOTEN
2851,LENA,3442,ØSTRE TOTEN
2853,REINSVOLL,3443,VESTRE TOTEN
2854,EINA,3443,VESTRE TOTEN
2857,SKREIA,3442,ØSTRE TOTEN
2858,KAPP,3442,ØSTRE TOTEN
2860,HOV,3447,SØNDRE LAND
2861,LANDÅSBYGDA,3447,SØNDRE LAND
2862,FLUBERG,3447,SØNDRE LAND
2863,VESTSIDA,3447,SØNDRE LAND
2864,FALL,3447,SØNDRE LAND
2866,ENGER,3447,SØNDRE LAND
2867,HOV,3447,SØNDRE LAND
2870,DOKKA,3448,NORDRE LAND
2879,ODNES,3447,SØNDRE LAND
2880,NORD-TORPA,3448,NORDRE LAND
2881,AUST-TORPA,3448,NORDRE LAND
2882,DOKKA,3448,NORDRE LAND
2890,ETNEDAL,3450,ETNEDAL
2893,ETNEDAL,3450,ETNEDAL
2900,FAGERNES,3451,NORD-AURDAL
2901,FAGERNES,3451,NORD-AURDAL
2907,LEIRA I VALDRES,3451,NORD-AURDAL
2909,AURDAL,3451,NORD-AURDAL
2910,AURDAL,3451,NORD-AURDAL
2917,SKRAUTVÅL,3451,NORD-AURDAL
2918,ULNES,3451,NORD-AURDAL
2920,LEIRA I VALDRES,3451,NORD-AURDAL
2923,TISLEIDALEN,3451,NORD-AURDAL
2929,BAGN,3449,SØR-AURDAL
2930,BAGN,3449,SØR-AURDAL
2933,REINLI,3449,SØR-AURDAL
2936,BEGNADALEN,3449,SØR-AURDAL
2937,BEGNA,3449,SØR-AURDAL
2939,HEGGENES,3453,ØYSTRE SLIDRE
2940,HEGGENES,3453,ØYSTRE SLIDRE
2943,ROGNE,3453,ØYSTRE SLIDRE
2950,SKAMMESTEIN,3453,ØYSTRE SLIDRE
2952,BEITO,3453,ØYSTRE SLIDRE
2953,BEITOSTØLEN,3453,ØYSTRE SLIDRE
2954,BEITOSTØLEN,3453,ØYSTRE SLIDRE
2959,RØN,3452,VESTRE SLIDRE
2960,RØN,3452,VESTRE SLIDRE
2965,SLIDRE,3452,VESTRE SLIDRE
2966,SLIDRE,3452,VESTRE SLIDRE
2967,LOMEN,3452,VESTRE SLIDRE
2972,RYFOSS,3454,VANG
2973,RYFOSS,3454,VANG
2974,VANG I VALDRES,3454,VANG
2975,VANG I VALDRES,3454,VANG
2977,ØYE,3454,VANG
2985,TYINKRYSSET,3454,VANG
3001,DRAMMEN,3005,DRAMMEN
3002,DRAMMEN,3005,DRAMMEN
3003,DRAMMEN,3005,DRAMMEN
3004,DRAMMEN,3005,DRAMMEN
3005,DRAMMEN,3005,DRAMMEN
3006,DRAMMEN,3005,DRAMMEN
3007,DRAMMEN,3005,DRAMMEN
3008,DRAMMEN,3005,DRAMMEN
3009,DRAMMEN,3005,DRAMMEN
3010,DRAMMEN,3005,DRAMMEN
3011,DRAMMEN,3005,DRAMMEN
3012,DRAMMEN,3005,DRAMMEN
3013,DRAMMEN,3005,DRAMMEN
3014,DRAMMEN,3005,DRAMMEN
3015,DRAMMEN,3005,DRAMMEN
3016,DRAMMEN,3005,DRAMMEN
3017,DRAMMEN,3005,DRAMMEN
3018,DRAMMEN,3005,DRAMMEN
3019,DRAMMEN,3005,DRAMMEN
3021,DRAMMEN,3005,DRAMMEN
3022,DRAMMEN,3005,DRAMMEN
3023,DRAMMEN,3005,DRAMMEN
3024,DRAMMEN,3005,DRAMMEN
3025,DRAMMEN,3005,DRAMMEN
3026,DRAMMEN,3005,DRAMMEN
3027,DRAMMEN,3005,DRAMMEN
3028,DRAMMEN,3005,DRAMMEN
3029,DRAMMEN,3005,DRAMMEN
3030,DRAMMEN,3005,DRAMMEN
3031,DRAMMEN,3005,DRAMMEN
3032,DRAMMEN,3005,DRAMMEN
3033,DRAMMEN,3005,DRAMMEN
3034,DRAMMEN,3005,DRAMMEN
3035,DRAMMEN,3005,DRAMMEN
3036,DRAMMEN,3005,DRAMMEN
3037,DRAMMEN,3005,DRAMMEN
3038,DRAMMEN,3005,DRAMMEN
3039,DRAMMEN,3005,DRAMMEN
3040,DRAMMEN,3005,DRAMMEN
3041,DRAMMEN,3005,DRAMMEN
3042,DRAMMEN,3005,DRAMMEN
3043,DRAMMEN,3005,DRAMMEN
3044,DRAMMEN,3005,DRAMMEN
3045,DRAMMEN,3005,DRAMMEN
3046,DRAMMEN,3005,DRAMMEN
3047,DRAMMEN,3005,DRAMMEN
3048,DRAMMEN,3005,DRAMMEN
3050,MJØNDALEN,3005,DRAMMEN
3051,MJØNDALEN,3005,DRAMMEN
3053,STEINBERG,3005,DRAMMEN
3054,KROKSTADELVA,3005,DRAMMEN
3055,KROKSTADELVA,3005,DRAMMEN
3056,SOLBERGELVA,3005,DRAMMEN
3057,SOLBERGELVA,3005,DRAMMEN
3058,SOLBERGMOEN,3005,DRAMMEN
3060,SVELVIK,3005,DRAMMEN
3061,SVELVIK,3005,DRAMMEN
3063,DRAMMEN,3005,DRAMMEN
3064,DRAMMEN,3005,DRAMMEN
3065,DRAMMEN,3005,DRAMMEN
3066,DRAMMEN,3005,DRAMMEN
3070,SANDE I VESTFOLD,3802,HOLMESTRAND
3071,SANDE I VESTFOLD,3802,HOLMESTRAND
3072,SANDE I VESTFOLD,3802,HOLMESTRAND
3073,SANDE I VESTFOLD,3802,HOLMESTRAND
3074,SANDE I VESTFOLD,3802,HOLMESTRAND
3075,BERGER,3005,DRAMMEN
3076,SANDE I VESTFOLD,3802,HOLMESTRAND
3077,SANDE I VESTFOLD,3802,HOLMESTRAND
3080,HOLMESTRAND,3802,HOLMESTRAND
3081,HOLMESTRAND,3802,HOLMESTRAND
3082,HOLMESTRAND,3802,HOLMESTRAND
3083,HOLMESTRAND,3802,HOLMESTRAND
3084,HOLMESTRAND,3802,HOLMESTRAND
3085,HOLMESTRAND,3802,HOLMESTRAND
3086,HOLMESTRAND,3802,HOLMESTRAND
3087,HOLMESTRAND,3802,HOLMESTRAND
3088,HOLMESTRAND,3802,HOLMESTRAND
3089,HOLMESTRAND,3802,HOLMESTRAND
3090,HOF,3802,HOLMESTRAND
3091,HOF,3802,HOLMESTRAND
3092,SUNDBYFOSS,3802,HOLMESTRAND
3095,EIDSFOSS,3802,HOLMESTRAND
3101,TØNSBERG,3803,TØNSBERG
3103,TØNSBERG,3803,TØNSBERG
3104,TØNSBERG,3803,TØNSBERG
3105,TØNSBERG,3803,TØNSBERG
3106,NØTTERØY,3811,FÆRDER
3107,SEM,3803,TØNSBERG
3108,VEAR,3803,TØNSBERG
3109,TØNSBERG,3803,TØNSBERG
3110,TØNSBERG,3803,TØNSBERG
3111,TØNSBERG,3803,TØNSBERG
3112,TØNSBERG,3803,TØNSBERG
3113,TØNSBERG,3803,TØNSBERG
3114,TØNSBERG,3803,TØNSBERG
3115,TØNSBERG,3803,TØNSBERG
3116,TØNSBERG,3803,TØNSBERG
3117,TØNSBERG,3803,TØNSBERG
3118,TØNSBERG,3803,TØNSBERG
3119,TØNSBERG,3803,TØNSBERG
3120,NØTTERØY,3811,FÆRDER
3121,NØTTERØY,3811,FÆRDER
3122,TØNSBERG,3803,TØNSBERG
3123,TØNSBERG,3803,TØNSBERG
3124,TØNSBERG,3803,TØNSBERG
3125,TØNSBERG,3803,TØNSBERG
3126,TØNSBERG,3803,TØNSBERG
3127,TØNSBERG,3803,TØNSBERG
3128,NØTTERØY,3811,FÆRDER
3129,TØNSBERG,3803,TØNSBERG
3131,HUSØYSUND,3811,FÆRDER
3132,HUSØYSUND,3811,FÆRDER
3133,DUKEN,3811,FÆRDER
3134,TØNSBERG,3803,TØNSBERG
3135,TORØD,3811,FÆRDER
3137,TORØD,3811,FÆRDER
3138,SKALLESTAD,3811,FÆRDER
3139,SKALLESTAD,3811,FÆRDER
3140,NØTTERØY,3811,FÆRDER
3141,KJØPMANNSKJÆR,3811,FÆRDER
3142,VESTSKOGEN,3811,FÆRDER
3143,KJØPMANNSKJÆR,3811,FÆRDER
3144,VEIERLAND,3811,FÆRDER
3145,TJØME,3811,FÆRDER
3148,HVASSER,3811,FÆRDER
3150,TOLVSRØD,3803,TØNSBERG
3151,TOLVSRØD,3803,TØNSBERG
3152,TOLVSRØD,3803,TØNSBERG
3153,TOLVSRØD,3803,TØNSBERG
3154,TOLVSRØD,3803,TØNSBERG
3156,MELSOMVIK,3804,SANDEFJORD
3157,BARKÅKER,3803,TØNSBERG
3158,ANDEBU,3804,SANDEFJORD
3159,MELSOMVIK,3804,SANDEFJORD
3160,STOKKE,3804,SANDEFJORD
3161,STOKKE,3804,SANDEFJORD
3162,ANDEBU,3804,SANDEFJORD
3163,NØTTERØY,3811,FÆRDER
3164,REVETAL,3803,TØNSBERG
3165,TJØME,3811,FÆRDER
3166,TOLVSRØD,3803,TØNSBERG
3167,ÅSGÅRDSTRAND,3801,HORTEN
3168,MELSOMVIK,3804,SANDEFJORD
3169,STOKKE,3804,SANDEFJORD
3170,SEM,3803,TØNSBERG
3171,SEM,3803,TØNSBERG
3172,VEAR,3803,TØNSBERG
3173,VEAR,3803,TØNSBERG
3174,REVETAL,3803,TØNSBERG
3175,RAMNES,3803,TØNSBERG
3176,UNDRUMSDAL,3803,TØNSBERG
3177,VÅLE,3803,TØNSBERG
3178,VÅLE,3803,TØNSBERG
3179,ÅSGÅRDSTRAND,3801,HORTEN
3180,NYKIRKE,3801,HORTEN
3181,HORTEN,3801,HORTEN
3182,HORTEN,3801,HORTEN
3183,HORTEN,3801,HORTEN
3184,BORRE,3801,HORTEN
3185,SKOPPUM,3801,HORTEN
3186,HORTEN,3801,HORTEN
3187,HORTEN,3801,HORTEN
3188,HORTEN,3801,HORTEN
3189,HORTEN,3801,HORTEN
3191,HORTEN,3801,HORTEN
3192,HORTEN,3801,HORTEN
3193,HORTEN,3801,HORTEN
3194,HORTEN,3801,HORTEN
3195,SKOPPUM,3801,HORTEN
3196,HORTEN,3801,HORTEN
3197,NYKIRKE,3801,HORTEN
3199,BORRE,3801,HORTEN
3201,SANDEFJORD,3804,SANDEFJORD
3202,SANDEFJORD,3804,SANDEFJORD
3203,SANDEFJORD,3804,SANDEFJORD
3204,SANDEFJORD,3804,SANDEFJORD
3205,SANDEFJORD,3804,SANDEFJORD
3206,SANDEFJORD,3804,SANDEFJORD
3207,SANDEFJORD,3804,SANDEFJORD
3208,SANDEFJORD,3804,SANDEFJORD
3209,SANDEFJORD,3804,SANDEFJORD
3210,SANDEFJORD,3804,SANDEFJORD
3211,SANDEFJORD,3804,SANDEFJORD
3212,SANDEFJORD,3804,SANDEFJORD
3213,SANDEFJORD,3804,SANDEFJORD
3214,SANDEFJORD,3804,SANDEFJORD
3215,SANDEFJORD,3804,SANDEFJORD
3216,SANDEFJORD,3804,SANDEFJORD
3217,SANDEFJORD,3804,SANDEFJORD
3218,SANDEFJORD,3804,SANDEFJORD
3219,SANDEFJORD,3804,SANDEFJORD
3220,SANDEFJORD,3804,SANDEFJORD
3221,SANDEFJORD,3804,SANDEFJORD
3222,SANDEFJORD,3804,SANDEFJORD
3223,SANDEFJORD,3804,SANDEFJORD
3224,SANDEFJORD,3804,SANDEFJORD
3225,SANDEFJORD,3804,SANDEFJORD
3226,SANDEFJORD,3804,SANDEFJORD
3227,SANDEFJORD,3804,SANDEFJORD
3228,SANDEFJORD,3804,SANDEFJORD
3229,SANDEFJORD,3804,SANDEFJORD
3230,SANDEFJORD,3804,SANDEFJORD
3231,SANDEFJORD,3804,SANDEFJORD
3232,SANDEFJORD,3804,SANDEFJORD
3233,SANDEFJORD,3804,SANDEFJORD
3234,SANDEFJORD,3804,SANDEFJORD
3235,SANDEFJORD,3804,SANDEFJORD
3236,SANDEFJORD,3804,SANDEFJORD
3237,SANDEFJORD,3804,SANDEFJORD
3238,SANDEFJORD,3804,SANDEFJORD
3239,SANDEFJORD,3804,SANDEFJORD
3240,SANDEFJORD,3804,SANDEFJORD
3241,SANDEFJORD,3804,SANDEFJORD
3242,SANDEFJORD,3804,SANDEFJORD
3243,KODAL,3804,SANDEFJORD
3244,SANDEFJORD,3804,SANDEFJORD
3245,KODAL,3804,SANDEFJORD
3246,SANDEFJORD,3804,SANDEFJORD
3247,SANDEFJORD,3804,SANDEFJORD
3248,SANDEFJORD,3804,SANDEFJORD
3249,SANDEFJORD,3804,SANDEFJORD
3251,LARVIK,3805,LARVIK
3252,LARVIK,3805,LARVIK
3253,LARVIK,3805,LARVIK
3254,LARVIK,3805,LARVIK
3255,LARVIK,3805,LARVIK
3256,LARVIK,3805,LARVIK
3257,LARVIK,3805,LARVIK
3258,LARVIK,3805,LARVIK
3259,LARVIK,3805,LARVIK
3260,LARVIK,3805,LARVIK
3261,LARVIK,3805,LARVIK
3262,LARVIK,3805,LARVIK
3263,LARVIK,3805,LARVIK
3264,LARVIK,3805,LARVIK
3265,LARVIK,3805,LARVIK
3267,LARVIK,3805,LARVIK
3268,LARVIK,3805,LARVIK
3269,LARVIK,3805,LARVIK
3270,LARVIK,3805,LARVIK
3271,LARVIK,3805,LARVIK
3274,LARVIK,3805,LARVIK
3275,SVARSTAD,3805,LARVIK
3276,SVARSTAD,3805,LARVIK
3277,STEINSHOLT,3805,LARVIK
3280,TJODALYNG,3805,LARVIK
3281,TJODALYNG,3805,LARVIK
3282,KVELDE,3805,LARVIK
3284,KVELDE,3805,LARVIK
3285,LARVIK,3805,LARVIK
3290,STAVERN,3805,LARVIK
3291,STAVERN,3805,LARVIK
3292,STAVERN,3805,LARVIK
3294,STAVERN,3805,LARVIK
3295,HELGEROA,3805,LARVIK
3296,NEVLUNGHAVN,3805,LARVIK
3297,HELGEROA,3805,LARVIK
3300,HOKKSUND,3048,ØVRE EIKER
3301,HOKKSUND,3048,ØVRE EIKER
3302,HOKKSUND,3048,ØVRE EIKER
3303,HOKKSUND,3048,ØVRE EIKER
3320,VESTFOSSEN,3048,ØVRE EIKER
3321,VESTFOSSEN,3048,ØVRE EIKER
3322,FISKUM,3048,ØVRE EIKER
3330,SKOTSELV,3048,ØVRE EIKER
3331,SKOTSELV,3048,ØVRE EIKER
3340,ÅMOT,3047,MODUM
3341,ÅMOT,3047,MODUM
3342,ÅMOT,3047,MODUM
3350,PRESTFOSS,3045,SIGDAL
3351,PRESTFOSS,3045,SIGDAL
3355,SOLUMSMOEN,3045,SIGDAL
3357,EGGEDAL,3045,SIGDAL
3358,NEDRE EGGEDAL,3045,SIGDAL
3359,EGGEDAL,3045,SIGDAL
3360,GEITHUS,3047,MODUM
3361,GEITHUS,3047,MODUM
3370,VIKERSUND,3047,MODUM
3371,VIKERSUND,3047,MODUM
3401,LIER,3049,LIER
3402,LIER,3049,LIER
3403,LIER,3049,LIER
3404,LIER,3049,LIER
3405,LIER,3049,LIER
3406,TRANBY,3049,LIER
3407,TRANBY,3049,LIER
3408,TRANBY,3049,LIER
3409,TRANBY,3049,LIER
3410,SYLLING,3049,LIER
3411,SYLLING,3049,LIER
3412,LIERSTRANDA,3049,LIER
3413,LIER,3049,LIER
3414,LIERSTRANDA,3049,LIER
3420,LIERSKOGEN,3049,LIER
3421,LIERSKOGEN,3049,LIER
3425,REISTAD,3049,LIER
3426,GULLAUG,3049,LIER
3427,GULLAUG,3049,LIER
3428,GULLAUG,3049,LIER
3430,SPIKKESTAD,3025,ASKER
3431,SPIKKESTAD,3025,ASKER
3440,RØYKEN,3025,ASKER
3441,RØYKEN,3025,ASKER
3442,HYGGEN,3025,ASKER
3470,SLEMMESTAD,3025,ASKER
3471,SLEMMESTAD,3025,ASKER
3472,BØDALEN,3025,ASKER
3474,ÅROS,3025,ASKER
3475,SÆTRE,3025,ASKER
3476,SÆTRE,3025,ASKER
3477,BÅTSTØ,3025,ASKER
3478,NÆRSNES,3025,ASKER
3479,NÆRSNES,3025,ASKER
3480,FILTVET,3025,ASKER
3481,TOFTE,3025,ASKER
3482,TOFTE,3025,ASKER
3483,KANA,3025,ASKER
3484,HOLMSBU,3025,ASKER
3485,FILTVET,3025,ASKER
3490,KLOKKARSTUA,3025,ASKER
3501,HØNEFOSS,3007,RINGERIKE
3502,HØNEFOSS,3007,RINGERIKE
3503,HØNEFOSS,3007,RINGERIKE
3504,HØNEFOSS,3007,RINGERIKE
3507,HØNEFOSS,3007,RINGERIKE
3510,HØNEFOSS,3007,RINGERIKE
3511,HØNEFOSS,3007,RINGERIKE
3512,HØNEFOSS,3007,RINGERIKE
3513,HØNEFOSS,3007,RINGERIKE
3514,HØNEFOSS,3007,RINGERIKE
3515,HØNEFOSS,3007,RINGERIKE
3516,HØNEFOSS,3007,RINGERIKE
3517,HØNEFOSS,3007,RINGERIKE
3518,HØNEFOSS,3007,RINGERIKE
3519,HØNEFOSS,3007,RINGERIKE
3520,JEVNAKER,3053,JEVNAKER
3521,JEVNAKER,3053,JEVNAKER
3522,BJONEROA,3446,GRAN
3523,NES I ÅDAL,3007,RINGERIKE
3524,NES I ÅDAL,3007,RINGERIKE
3525,HALLINGBY,3007,RINGERIKE
3526,HALLINGBY,3007,RINGERIKE
3527,BJONEROA,3446,GRAN
3528,HEDALEN,3449,SØR-AURDAL
3529,RØYSE,3038,HOLE
3530,RØYSE,3038,HOLE
3531,KROKKLEIVA,3038,HOLE
3532,TYRISTRAND,3007,RINGERIKE
3533,TYRISTRAND,3007,RINGERIKE
3534,SOKNA,3007,RINGERIKE
3535,KRØDEREN,3046,KRØDSHERAD
3536,NORESUND,3046,KRØDSHERAD
3537,KRØDEREN,3046,KRØDSHERAD
3538,SOLLIHØGDA,3038,HOLE
3539,FLÅ,3039,FLÅ
3540,NESBYEN,3040,NESBYEN
3541,NESBYEN,3040,NESBYEN
3543,NORESUND,3046,KRØDSHERAD
3544,TUNHOVD,3052,NORE OG UVDAL
3545,FLÅ,3039,FLÅ
3550,GOL,3041,GOL
3551,GOL,3041,GOL
3560,HEMSEDAL,3042,HEMSEDAL
3561,HEMSEDAL,3042,HEMSEDAL
3570,ÅL,3043,ÅL
3571,ÅL,3043,ÅL
3575,HOL,3044,HOL
3576,HOL,3044,HOL
3577,HOVET,3044,HOL
3579,TORPO,3043,ÅL
3580,GEILO,3044,HOL
3581,GEILO,3044,HOL
3588,DAGALI,3044,HOL
3593,USTAOSET,3044,HOL
3595,HAUGASTØL,3044,HOL
3601,KONGSBERG,3006,KONGSBERG
3602,KONGSBERG,3006,KONGSBERG
3603,KONGSBERG,3006,KONGSBERG
3604,KONGSBERG,3006,KONGSBERG
3605,KONGSBERG,3006,KONGSBERG
3606,KONGSBERG,3006,KONGSBERG
3607,KONGSBERG,3006,KONGSBERG
3608,HEISTADMOEN,3006,KONGSBERG
3609,KONGSBERG,3006,KONGSBERG
3610,KONGSBERG,3006,KONGSBERG
3611,KONGSBERG,3006,KONGSBERG
3612,KONGSBERG,3006,KONGSBERG
3613,KONGSBERG,3006,KONGSBERG
3614,KONGSBERG,3006,KONGSBERG
3615,KONGSBERG,3006,KONGSBERG
3616,KONGSBERG,3006,KONGSBERG
3617,KONGSBERG,3006,KONGSBERG
3618,SKOLLENBORG,3006,KONGSBERG
3619,SKOLLENBORG,3006,KONGSBERG
3620,FLESBERG,3050,FLESBERG
3621,LAMPELAND,3050,FLESBERG
3622,SVENE,3050,FLESBERG
3623,LAMPELAND,3050,FLESBERG
3624,LYNGDAL I NUMEDAL,3050,FLESBERG
3625,SKOLLENBORG,3006,KONGSBERG
3626,ROLLAG,3051,ROLLAG
3627,VEGGLI,3051,ROLLAG
3628,VEGGLI,3051,ROLLAG
3629,NORE,3052,NORE OG UVDAL
3630,RØDBERG,3052,NORE OG UVDAL
3631,RØDBERG,3052,NORE OG UVDAL
3632,UVDAL,3052,NORE OG UVDAL
3634,NORE,3052,NORE OG UVDAL
3646,HVITTINGFOSS,3006,KONGSBERG
3647,HVITTINGFOSS,3006,KONGSBERG
3648,PASSEBEKK,3006,KONGSBERG
3650,TINN AUSTBYGD,3818,TINN
3652,HOVIN I TELEMARK,3818,TINN
3656,ATRÅ,3818,TINN
3658,MILAND,3818,TINN
3660,RJUKAN,3818,TINN
3661,RJUKAN,3818,TINN
3665,SAULAND,3819,HJARTDAL
3666,ATRÅ,3818,TINN
3671,NOTODDEN,3808,NOTODDEN
3672,NOTODDEN,3808,NOTODDEN
3673,NOTODDEN,3808,NOTODDEN
3674,NOTODDEN,3808,NOTODDEN
3675,NOTODDEN,3808,NOTODDEN
3676,NOTODDEN,3808,NOTODDEN
3677,NOTODDEN,3808,NOTODDEN
3678,NOTODDEN,3808,NOTODDEN
3679,NOTODDEN,3808,NOTODDEN
3680,NOTODDEN,3808,NOTODDEN
3681,NOTODDEN,3808,NOTODDEN
3683,NOTODDEN,3808,NOTODDEN
3684,NOTODDEN,3808,NOTODDEN
3690,HJARTDAL,3819,HJARTDAL
3691,GRANSHERAD,3808,NOTODDEN
3692,SAULAND,3819,HJARTDAL
3697,TUDDAL,3819,HJARTDAL
3701,SKIEN,3807,SKIEN
3702,SKIEN,3807,SKIEN
3703,SKIEN,3807,SKIEN
3704,SKIEN,3807,SKIEN
3705,SKIEN,3807,SKIEN
3707,SKIEN,3807,SKIEN
3710,SKIEN,3807,SKIEN
3711,SKIEN,3807,SKIEN
3712,SKIEN,3807,SKIEN
3713,SKIEN,3807,SKIEN
3714,SKIEN,3807,SKIEN
3715,SKIEN,3807,SKIEN
3716,SKIEN,3807,SKIEN
3717,SKIEN,3807,SKIEN
3718,SKIEN,3807,SKIEN
3719,SKIEN,3807,SKIEN
3720,SKIEN,3807,SKIEN
3721,SKIEN,3807,SKIEN
3722,SKIEN,3807,SKIEN
3723,SKIEN,3807,SKIEN
3724,SKIEN,3807,SKIEN
3725,SKIEN,3807,SKIEN
3726,SKIEN,3807,SKIEN
3727,SKIEN,3807,SKIEN
3728,SKIEN,3807,SKIEN
3729,SKIEN,3807,SKIEN
3730,SKIEN,3807,SKIEN
3731,SKIEN,3807,SKIEN
3732,SKIEN,3807,SKIEN
3733,SKIEN,3807,SKIEN
3734,SKIEN,3807,SKIEN
3735,SKIEN,3807,SKIEN
3736,SKIEN,3807,SKIEN
3737,SKIEN,3807,SKIEN
3738,SKIEN,3807,SKIEN
3739,SKIEN,3807,SKIEN
3740,SKIEN,3807,SKIEN
3741,SKIEN,3807,SKIEN
3742,SKIEN,3807,SKIEN
3743,SKIEN,3807,SKIEN
3744,SKIEN,3807,SKIEN
3746,SKIEN,3807,SKIEN
3747,SKIEN,3807,SKIEN
3748,SILJAN,3812,SILJAN
3749,SILJAN,3812,SILJAN
3750,DRANGEDAL,3815,DRANGEDAL
3753,TØRDAL,3815,DRANGEDAL
3760,NESLANDSVATN,3815,DRANGEDAL
3766,SANNIDAL,3814,KRAGERØ
3770,KRAGERØ,3814,KRAGERØ
3772,KRAGERØ,3814,KRAGERØ
3780,SKÅTØY,3814,KRAGERØ
3781,JOMFRULAND,3814,KRAGERØ
3783,KRAGERØ SKJÆRGÅRD,3814,KRAGERØ
3785,SKIEN,3807,SKIEN
3787,SKIEN,3807,SKIEN
3788,STABBESTAD,3814,KRAGERØ
3789,KRAGERØ,3814,KRAGERØ
3790,HELLE,3814,KRAGERØ
3791,KRAGERØ,3814,KRAGERØ
3792,SKIEN,3807,SKIEN
3793,SANNIDAL,3814,KRAGERØ
3794,HELLE,3814,KRAGERØ
3795,DRANGEDAL,3815,DRANGEDAL
3796,SKIEN,3807,SKIEN
3798,SKIEN,3807,SKIEN
3799,SKIEN,3807,SKIEN
3800,BØ I TELEMARK,3817,MIDT-TELEMARK
3801,BØ I TELEMARK,3817,MIDT-TELEMARK
3802,BØ I TELEMARK,3817,MIDT-TELEMARK
3803,BØ I TELEMARK,3817,MIDT-TELEMARK
3804,BØ I TELEMARK,3817,MIDT-TELEMARK
3805,BØ I TELEMARK,3820,SELJORD
3810,GVARV,3817,MIDT-TELEMARK
3811,HØRTE,3817,MIDT-TELEMARK
3812,AKKERHAUGEN,3817,MIDT-TELEMARK
3820,NORDAGUTU,3817,MIDT-TELEMARK
3825,LUNDE,3816,NOME
3830,ULEFOSS,3816,NOME
3831,ULEFOSS,3816,NOME
3832,LUNDE,3816,NOME
3833,BØ I TELEMARK,3817,MIDT-TELEMARK
3834,GVARV,3817,MIDT-TELEMARK
3835,SELJORD,3820,SELJORD
3836,KVITESEID,3821,KVITESEID
3840,SELJORD,3820,SELJORD
3841,FLATDAL,3820,SELJORD
3844,ÅMOTSDAL,3820,SELJORD
3848,MORGEDAL,3821,KVITESEID
3849,VRÅLIOSEN,3821,KVITESEID
3850,KVITESEID,3821,KVITESEID
3852,VRÅDAL,3821,KVITESEID
3853,VRÅDAL,3821,KVITESEID
3854,NISSEDAL,3822,NISSEDAL
3855,TREUNGEN,3822,NISSEDAL
3864,RAULAND,3825,VINJE
3870,FYRESDAL,3823,FYRESDAL
3880,DALEN,3824,TOKKE
3882,ÅMDALS VERK,3824,TOKKE
3883,TREUNGEN,3822,NISSEDAL
3884,RAULAND,3825,VINJE
3885,FYRESDAL,3823,FYRESDAL
3886,DALEN,3824,TOKKE
3887,VINJE,3825,VINJE
3888,EDLAND,3825,VINJE
3890,VINJE,3825,VINJE
3891,HØYDALSMO,3824,TOKKE
3893,VINJESVINGEN,3825,VINJE
3895,EDLAND,3825,VINJE
3901,PORSGRUNN,3806,PORSGRUNN
3902,PORSGRUNN,3806,PORSGRUNN
3903,PORSGRUNN,3806,PORSGRUNN
3904,PORSGRUNN,3806,PORSGRUNN
3905,PORSGRUNN,3806,PORSGRUNN
3906,PORSGRUNN,3806,PORSGRUNN
3910,PORSGRUNN,3806,PORSGRUNN
3911,PORSGRUNN,3806,PORSGRUNN
3912,PORSGRUNN,3806,PORSGRUNN
3913,PORSGRUNN,3806,PORSGRUNN
3914,PORSGRUNN,3806,PORSGRUNN
3915,PORSGRUNN,3806,PORSGRUNN
3916,PORSGRUNN,3806,PORSGRUNN
3917,PORSGRUNN,3806,PORSGRUNN
3918,PORSGRUNN,3806,PORSGRUNN
3919,PORSGRUNN,3806,PORSGRUNN
3920,PORSGRUNN,3806,PORSGRUNN
3921,PORSGRUNN,3806,PORSGRUNN
3922,PORSGRUNN,3806,PORSGRUNN
3924,PORSGRUNN,3806,PORSGRUNN
3925,PORSGRUNN,3806,PORSGRUNN
3928,PORSGRUNN,3806,PORSGRUNN
3929,PORSGRUNN,3806,PORSGRUNN
3930,PORSGRUNN,3806,PORSGRUNN
3931,PORSGRUNN,3806,PORSGRUNN
3933,PORSGRUNN,3806,PORSGRUNN
3936,PORSGRUNN,3806,PORSGRUNN
3937,PORSGRUNN,3806,PORSGRUNN
3939,PORSGRUNN,3806,PORSGRUNN
3940,PORSGRUNN,3806,PORSGRUNN
3941,PORSGRUNN,3806,PORSGRUNN
3942,PORSGRUNN,3806,PORSGRUNN
3943,PORSGRUNN,3806,PORSGRUNN
3944,PORSGRUNN,3806,PORSGRUNN
3946,PORSGRUNN,3806,PORSGRUNN
3947,LANGANGEN,3806,PORSGRUNN
3948,PORSGRUNN,3806,PORSGRUNN
3949,PORSGRUNN,3806,PORSGRUNN
3950,BREVIK,3806,PORSGRUNN
3960,STATHELLE,3813,BAMBLE
3961,STATHELLE,3813,BAMBLE
3962,STATHELLE,3813,BAMBLE
3965,HERRE,3813,BAMBLE
3966,STATHELLE,3813,BAMBLE
3967,STATHELLE,3813,BAMBLE
3970,LANGESUND,3813,BAMBLE
3991,BREVIK,3806,PORSGRUNN
3993,LANGESUND,3813,BAMBLE
3994,LANGESUND,3813,BAMBLE
3995,STATHELLE,3813,BAMBLE
3996,PORSGRUNN,3806,PORSGRUNN
3997,PORSGRUNN,3806,PORSGRUNN
3998,PORSGRUNN,3806,PORSGRUNN
3999,HERRE,3813,BAMBLE
4001,STAVANGER,1103,STAVANGER
4002,STAVANGER,1103,STAVANGER
4003,STAVANGER,1103,STAVANGER
4004,STAVANGER,1103,STAVANGER
4005,STAVANGER,1103,STAVANGER
4006,STAVANGER,1103,STAVANGER
4007,STAVANGER,1103,STAVANGER
4008,STAVANGER,1103,STAVANGER
4009,STAVANGER,1103,STAVANGER
4010,STAVANGER,1103,STAVANGER
4011,STAVANGER,1103,STAVANGER
4012,STAVANGER,1103,STAVANGER
4013,STAVANGER,1103,STAVANGER
4014,STAVANGER,1103,STAVANGER
4015,STAVANGER,1103,STAVANGER
4016,STAVANGER,1103,STAVANGER
4017,STAVANGER,1103,STAVANGER
4018,STAVANGER,1103,STAVANGER
4019,STAVANGER,1103,STAVANGER
4020,STAVANGER,1103,STAVANGER
4021,STAVANGER,1103,STAVANGER
4022,STAVANGER,1103,STAVANGER
4023,STAVANGER,1103,STAVANGER
4024,STAVANGER,1103,STAVANGER
4025,STAVANGER,1103,STAVANGER
4026,STAVANGER,1103,STAVANGER
4027,STAVANGER,1103,STAVANGER
4028,STAVANGER,1103,STAVANGER
4029,STAVANGER,1103,STAVANGER
4031,STAVANGER,1103,STAVANGER
4032,STAVANGER,1103,STAVANGER
4033,STAVANGER,1103,STAVANGER
4034,STAVANGER,1103,STAVANGER
4035,STAVANGER,1103,STAVANGER
4036,STAVANGER,1103,STAVANGER
4041,HAFRSFJORD,1103,STAVANGER
4042,HAFRSFJORD,1103,STAVANGER
4043,HAFRSFJORD,1103,STAVANGER
4044,HAFRSFJORD,1103,STAVANGER
4045,HAFRSFJORD,1103,STAVANGER
4046,HAFRSFJORD,1103,STAVANGER
4047,HAFRSFJORD,1103,STAVANGER
4048,HAFRSFJORD,1103,STAVANGER
4049,HAFRSFJORD,1103,STAVANGER
4050,SOLA,1124,SOLA
4051,SOLA,1124,SOLA
4052,RØYNEBERG,1124,SOLA
4053,RÆGE,1124,SOLA
4054,TJELTA,1124,SOLA
4055,SOLA,1124,SOLA
4056,TANANGER,1124,SOLA
4057,TANANGER,1124,SOLA
4058,TANANGER,1124,SOLA
4059,RØYNEBERG,1124,SOLA
4063,TJELTA,1124,SOLA
4068,STAVANGER,1103,STAVANGER
4070,RANDABERG,1127,RANDABERG
4071,RANDABERG,1127,RANDABERG
4072,RANDABERG,1127,RANDABERG
4073,RANDABERG,1127,RANDABERG
4076,VASSØY,1103,STAVANGER
4077,HUNDVÅG,1103,STAVANGER
4078,STAVANGER,1103,STAVANGER
4079,STAVANGER,1103,STAVANGER
4081,STAVANGER,1103,STAVANGER
4082,STAVANGER,1103,STAVANGER
4083,HUNDVÅG,1103,STAVANGER
4084,STAVANGER,1103,STAVANGER
4085,HUNDVÅG,1103,STAVANGER
4086,HUNDVÅG,1103,STAVANGER
4087,STAVANGER,1103,STAVANGER
4088,STAVANGER,1103,STAVANGER
4089,HAFRSFJORD,1103,STAVANGER
4090,HAFRSFJORD,1103,STAVANGER
4091,HAFRSFJORD,1103,STAVANGER
4092,STAVANGER,1103,STAVANGER
4093,STAVANGER,1103,STAVANGER
4094,STAVANGER,1103,STAVANGER
4095,STAVANGER,1103,STAVANGER
4096,RANDABERG,1127,RANDABERG
4097,SOLA,1124,SOLA
4098,TANANGER,1124,SOLA
4099,STAVANGER,1103,STAVANGER
4100,JØRPELAND,1130,STRAND
4102,IDSE,1130,STRAND
4103,JØRPELAND,1130,STRAND
4104,JØRPELAND,1130,STRAND
4105,JØRPELAND,1130,STRAND
4110,FORSAND,1108,SANDNES 
4119,FORSAND,1108,SANDNES
4120,TAU,1130,STRAND
4121,TAU,1130,STRAND
4123,SØR-HIDLE,1130,STRAND
4124,TAU,1130,STRAND
4126,JØRPELAND,1130,STRAND
4127,LYSEBOTN,1108,SANDNES
4128,FLØYRLI,1108,SANDNES
4129,SONGESAND,1108,SANDNES
4130,HJELMELAND,1133,HJELMELAND
4134,JØSENFJORDEN,1133,HJELMELAND
4137,ÅRDAL I RYFYLKE,1133,HJELMELAND
4139,FISTER,1133,HJELMELAND
4146,SKIFTUN,1133,HJELMELAND
4148,HJELMELAND,1133,HJELMELAND
4150,RENNESØY,1103,STAVANGER
4152,VESTRE ÅMØY,1103,STAVANGER
4153,BRIMSE,1103,STAVANGER
4154,AUSTRE ÅMØY,1103,STAVANGER
4156,MOSTERØY,1103,STAVANGER
4158,BRU,1103,STAVANGER
4159,RENNESØY,1103,STAVANGER
4160,FINNØY,1103,STAVANGER
4161,FINNØY,1103,STAVANGER
4163,TALGJE,1103,STAVANGER
4164,FOGN,1103,STAVANGER
4167,HELGØY I RYFYLKE,1133,HJELMELAND
4168,BYRE,1103,STAVANGER
4169,SØRBOKN,1103,STAVANGER
4170,SJERNARØY,1103,STAVANGER
4173,NORD-HIDLE,1103,STAVANGER
4174,SJERNARØY,1103,STAVANGER
4180,KVITSØY,1144,KVITSØY
4181,KVITSØY,1144,KVITSØY
4182,SKARTVEIT,1103,STAVANGER
4187,OMBO,1103,STAVANGER
4198,FOLDØY,1134,SULDAL
4200,SAUDA,1135,SAUDA
4201,SAUDA,1135,SAUDA
4208,SAUDASJØEN,1135,SAUDA
4209,VANVIK,1134,SULDAL
4230,SAND,1134,SULDAL
4233,ERFJORD,1134,SULDAL
4234,JELSA,1134,SULDAL
4235,HEBNES,1134,SULDAL
4237,SULDALSOSEN,1134,SULDAL
4239,SAND,1134,SULDAL
4240,SULDALSOSEN,1134,SULDAL
4244,NESFLATEN,1134,SULDAL
4250,KOPERVIK,1149,KARMØY
4260,TORVASTAD,1149,KARMØY
4262,AVALDSNES,1149,KARMØY
4264,KVALAVÅG,1149,KARMØY
4265,HÅVIK,1149,KARMØY
4270,ÅKREHAMN,1149,KARMØY
4272,SANDVE,1149,KARMØY
4274,STOL,1149,KARMØY
4275,SÆVELANDSVIK,1149,KARMØY
4276,VEAVÅGEN,1149,KARMØY
4280,SKUDENESHAVN,1149,KARMØY
4291,KOPERVIK,1149,KARMØY
4294,KOPERVIK,1149,KARMØY
4295,VEAVÅGEN,1149,KARMØY
4296,ÅKREHAMN,1149,KARMØY
4297,SKUDENESHAVN,1149,KARMØY
4298,TORVASTAD,1149,KARMØY
4299,AVALDSNES,1149,KARMØY
4301,SANDNES,1108,SANDNES
4302,SANDNES,1108,SANDNES
4306,SANDNES,1108,SANDNES
4307,SANDNES,1108,SANDNES
4308,SANDNES,1108,SANDNES
4309,SANDNES,1108,SANDNES
4310,HOMMERSÅK,1108,SANDNES
4311,HOMMERSÅK,1108,SANDNES
4312,SANDNES,1108,SANDNES
4313,SANDNES,1108,SANDNES
4314,SANDNES,1108,SANDNES
4315,SANDNES,1108,SANDNES
4316,SANDNES,1108,SANDNES
4317,SANDNES,1108,SANDNES
4318,SANDNES,1108,SANDNES
4319,SANDNES,1108,SANDNES
4320,SANDNES,1108,SANDNES
4321,SANDNES,1108,SANDNES
4322,SANDNES,1108,SANDNES
4323,SANDNES,1108,SANDNES
4324,SANDNES,1108,SANDNES
4325,SANDNES,1108,SANDNES
4326,SANDNES,1108,SANDNES
4327,SANDNES,1108,SANDNES
4328,SANDNES,1108,SANDNES
4329,SANDNES,1108,SANDNES
4330,ÅLGÅRD,1122,GJESDAL
4331,ÅLGÅRD,1122,GJESDAL
4332,FIGGJO,1108,SANDNES
4333,OLTEDAL,1122,GJESDAL
4334,ÅLGÅRD,1122,GJESDAL
4335,DIRDAL,1122,GJESDAL
4336,SANDNES,1108,SANDNES
4337,SANDNES,1108,SANDNES
4338,SANDNES,1108,SANDNES
4339,ÅLGÅRD,1122,GJESDAL
4340,BRYNE,1121,TIME
4341,BRYNE,1120,KLEPP
4342,UNDHEIM,1121,TIME
4343,ORRE,1120,KLEPP
4344,BRYNE,1121,TIME
4345,BRYNE,1121,TIME
4346,BRYNE,1121,TIME
4347,LYE,1121,TIME
4348,LYE,1121,TIME
4349,BRYNE,1121,TIME
4350,KLEPPE,1120,KLEPP
4351,KLEPPE,1120,KLEPP
4352,KLEPPE,1120,KLEPP
4353,KLEPP STASJON,1120,KLEPP
4354,VOLL,1120,KLEPP
4355,KVERNALAND,1121,TIME
4356,KVERNALAND,1121,TIME
4357,KLEPP STASJON,1120,KLEPP
4358,KLEPPE,1120,KLEPP
4360,VARHAUG,1119,HÅ
4361,SIREVÅG,1119,HÅ
4362,VIGRESTAD,1119,HÅ
4363,BRUSAND,1119,HÅ
4364,SIREVÅG,1119,HÅ
4365,NÆRBØ,1119,HÅ
4367,NÆRBØ,1119,HÅ
4368,VARHAUG,1119,HÅ
4369,VIGRESTAD,1119,HÅ
4370,EGERSUND,1101,EIGERSUND
4371,EGERSUND,1101,EIGERSUND
4372,EGERSUND,1101,EIGERSUND
4373,EGERSUND,1101,EIGERSUND
4374,EGERSUND,1101,EIGERSUND
4375,HELLVIK,1101,EIGERSUND
4376,HELLELAND,1101,EIGERSUND
4378,EGERSUND,1101,EIGERSUND
4379,EGERSUND,1101,EIGERSUND
4380,HAUGE I DALANE,1111,SOKNDAL
4381,HAUGE I DALANE,1111,SOKNDAL
4384,VIKESÅ,1114,BJERKREIM
4385,HELLELAND,1101,EIGERSUND
4387,BJERKREIM,1114,BJERKREIM
4389,VIKESÅ,1114,BJERKREIM
4390,OLTEDAL,1122,GJESDAL
4391,SANDNES,1108,SANDNES
4392,SANDNES,1108,SANDNES
4393,SANDNES,1108,SANDNES
4394,SANDNES,1108,SANDNES
4395,HOMMERSÅK,1108,SANDNES
4396,SANDNES,1108,SANDNES
4397,SANDNES,1108,SANDNES
4398,SANDNES,1108,SANDNES
4399,SANDNES,1108,SANDNES
4400,FLEKKEFJORD,4207,FLEKKEFJORD
4401,FLEKKEFJORD,4207,FLEKKEFJORD
4402,FLEKKEFJORD,4207,FLEKKEFJORD
4403,FLEKKEFJORD,4207,FLEKKEFJORD
4404,FLEKKEFJORD,4207,FLEKKEFJORD
4405,FLEKKEFJORD,4207,FLEKKEFJORD
4406,FLEKKEFJORD,4207,FLEKKEFJORD
4407,FLEKKEFJORD,4207,FLEKKEFJORD
4420,ÅNA-SIRA,4207,FLEKKEFJORD
4432,HIDRASUND,4207,FLEKKEFJORD
4434,ANDABELØY,4207,FLEKKEFJORD
4436,GYLAND,4207,FLEKKEFJORD
4438,SIRA,4207,FLEKKEFJORD
4439,SIRA,4207,FLEKKEFJORD
4440,TONSTAD,4228,SIRDAL
4441,TONSTAD,4228,SIRDAL
4443,TJØRHOM,4228,SIRDAL
4460,MOI,1112,LUND
4462,HOVSHERAD,1112,LUND
4463,UALAND,1112,LUND
4465,MOI,1112,LUND
4473,KVINLOG,4227,KVINESDAL
4480,KVINESDAL,4227,KVINESDAL
4484,ØYESTRANDA,4227,KVINESDAL
4485,FEDA,4227,KVINESDAL
4490,KVINESDAL,4227,KVINESDAL
4491,KVINESDAL,4227,KVINESDAL
4492,KVINESDAL,4227,KVINESDAL
4501,MANDAL,4205,LINDESNES
4502,MANDAL,4205,LINDESNES
4503,MANDAL,4205,LINDESNES
4504,MANDAL,4205,LINDESNES
4507,MANDAL,4205,LINDESNES
4508,MANDAL,4205,LINDESNES
4509,MANDAL,4205,LINDESNES
4513,MANDAL,4205,LINDESNES
4514,MANDAL,4205,LINDESNES
4515,MANDAL,4205,LINDESNES
4516,MANDAL,4205,LINDESNES
4517,MANDAL,4205,LINDESNES
4519,HOLUM,4205,LINDESNES
4520,LINDESNES,4205,LINDESNES
4521,LINDESNES,4205,LINDESNES
4522,LINDESNES,4205,LINDESNES
4523,LINDESNES,4205,LINDESNES
4524,LINDESNES,4205,LINDESNES
4525,KONSMO,4225,LYNGDAL
4526,KONSMO,4225,LYNGDAL
4528,KOLLUNGTVEIT,4225,LYNGDAL
4529,BYREMO,4225,LYNGDAL
4532,ØYSLEBØ,4205,LINDESNES
4534,MARNARDAL,4205,LINDESNES
4535,MARNARDAL,4205,LINDESNES
4536,BJELLAND,4205,LINDESNES
4540,ÅSERAL,4224,ÅSERAL
4541,ÅSERAL,4224,ÅSERAL
4544,FOSSDAL,4224,ÅSERAL
4550,FARSUND,4206,FARSUND
4551,FARSUND,4206,FARSUND
4552,FARSUND,4206,FARSUND
4553,FARSUND,4206,FARSUND
4554,FARSUND,4206,FARSUND
4557,VANSE,4206,FARSUND
4558,VANSE,4206,FARSUND
4560,VANSE,4206,FARSUND
4563,BORHAUG,4206,FARSUND
4575,LYNGDAL,4225,LYNGDAL
4576,LYNGDAL,4225,LYNGDAL
4577,LYNGDAL,4225,LYNGDAL
4579,LYNGDAL,4225,LYNGDAL
4580,LYNGDAL,4225,LYNGDAL
4586,KORSHAMN,4225,LYNGDAL
4588,KVÅS,4225,LYNGDAL
4590,SNARTEMO,4226,HÆGEBOSTAD
4595,TINGVATN,4226,HÆGEBOSTAD
4596,EIKEN,4226,HÆGEBOSTAD
4597,EIKEN,4226,HÆGEBOSTAD
4604,KRISTIANSAND S,4204,KRISTIANSAND
4605,KRISTIANSAND S,4204,KRISTIANSAND
4606,KRISTIANSAND S,4204,KRISTIANSAND
4608,KRISTIANSAND S,4204,KRISTIANSAND
4609,KARDEMOMME BY,4204,KRISTIANSAND
4610,KRISTIANSAND S,4204,KRISTIANSAND
4611,KRISTIANSAND S,4204,KRISTIANSAND
4612,KRISTIANSAND S,4204,KRISTIANSAND
4613,KRISTIANSAND S,4204,KRISTIANSAND
4614,KRISTIANSAND S,4204,KRISTIANSAND
4615,KRISTIANSAND S,4204,KRISTIANSAND
4616,KRISTIANSAND S,4204,KRISTIANSAND
4617,KRISTIANSAND S,4204,KRISTIANSAND
4618,KRISTIANSAND S,4204,KRISTIANSAND
4619,MOSBY,4204,KRISTIANSAND
4620,KRISTIANSAND S,4204,KRISTIANSAND
4621,KRISTIANSAND S,4204,KRISTIANSAND
4622,KRISTIANSAND S,4204,KRISTIANSAND
4623,KRISTIANSAND S,4204,KRISTIANSAND
4624,KRISTIANSAND S,4204,KRISTIANSAND
4625,FLEKKERØY,4204,KRISTIANSAND
4626,KRISTIANSAND S,4204,KRISTIANSAND
4628,KRISTIANSAND S,4204,KRISTIANSAND
4629,KRISTIANSAND S,4204,KRISTIANSAND
4630,KRISTIANSAND S,4204,KRISTIANSAND
4631,KRISTIANSAND S,4204,KRISTIANSAND
4632,KRISTIANSAND S,4204,KRISTIANSAND
4633,KRISTIANSAND S,4204,KRISTIANSAND
4634,KRISTIANSAND S,4204,KRISTIANSAND
4635,KRISTIANSAND S,4204,KRISTIANSAND
4636,KRISTIANSAND S,4204,KRISTIANSAND
4637,KRISTIANSAND S,4204,KRISTIANSAND
4638,KRISTIANSAND S,4204,KRISTIANSAND
4639,KRISTIANSAND S,4204,KRISTIANSAND
4640,SØGNE,4204,KRISTIANSAND
4641,SØGNE,4204,KRISTIANSAND
4642,SØGNE,4204,KRISTIANSAND
4643,SØGNE,4204,KRISTIANSAND
4644,SØGNE,4204,KRISTIANSAND
4645,NODELAND,4204,KRISTIANSAND
4646,FINSLAND,4204,KRISTIANSAND
4647,BRENNÅSEN,4204,KRISTIANSAND
4649,FINSLAND,4204,KRISTIANSAND
4656,HAMRESANDEN,4204,KRISTIANSAND
4657,KJEVIK,4204,KRISTIANSAND
4658,TVEIT,4204,KRISTIANSAND
4661,KRISTIANSAND S,4204,KRISTIANSAND
4662,KRISTIANSAND S,4204,KRISTIANSAND
4663,KRISTIANSAND S,4204,KRISTIANSAND
4664,KRISTIANSAND S,4204,KRISTIANSAND
4665,KRISTIANSAND S,4204,KRISTIANSAND
4666,KRISTIANSAND S,4204,KRISTIANSAND
4670,KRISTIANSAND S,4204,KRISTIANSAND
4671,KRISTIANSAND S,4204,KRISTIANSAND
4672,KRISTIANSAND S,4204,KRISTIANSAND
4673,KRISTIANSAND S,4204,KRISTIANSAND
4674,KRISTIANSAND S,4204,KRISTIANSAND
4675,KRISTIANSAND S,4204,KRISTIANSAND
4676,KRISTIANSAND S,4204,KRISTIANSAND
4677,KRISTIANSAND S,4204,KRISTIANSAND
4678,KRISTIANSAND S,4204,KRISTIANSAND
4679,FLEKKERØY,4204,KRISTIANSAND
4681,SØGNE,4204,KRISTIANSAND
4682,SØGNE,4204,KRISTIANSAND
4683,SØGNE,4204,KRISTIANSAND
4684,BRENNÅSEN,4204,KRISTIANSAND
4685,NODELAND,4204,KRISTIANSAND
4686,KRISTIANSAND S,4204,KRISTIANSAND
4687,KRISTIANSAND S,4204,KRISTIANSAND
4688,KRISTIANSAND S,4204,KRISTIANSAND
4689,KRISTIANSAND S,4204,KRISTIANSAND
4691,KRISTIANSAND S,4204,KRISTIANSAND
4693,KRISTIANSAND S,4204,KRISTIANSAND
4694,KRISTIANSAND S,4204,KRISTIANSAND
4695,KRISTIANSAND S,4204,KRISTIANSAND
4696,KRISTIANSAND S,4204,KRISTIANSAND
4697,KRISTIANSAND S,4204,KRISTIANSAND
4698,KRISTIANSAND S,4204,KRISTIANSAND
4699,TVEIT,4204,KRISTIANSAND
4700,VENNESLA,4223,VENNESLA
4701,VENNESLA,4223,VENNESLA
4702,VENNESLA,4223,VENNESLA
4703,VENNESLA,4223,VENNESLA
4705,ØVREBØ,4223,VENNESLA
4706,VENNESLA,4223,VENNESLA
4707,VENNESLA,4223,VENNESLA
4708,VENNESLA,4223,VENNESLA
4715,ØVREBØ,4223,VENNESLA
4720,HÆGELAND,4223,VENNESLA
4721,HÆGELAND,4223,VENNESLA
4724,IVELAND,4218,IVELAND
4725,IVELAND,4218,IVELAND
4730,VATNESTRØM,4218,IVELAND
4733,EVJE,4219,EVJE OG HORNNES
4734,EVJE,4219,EVJE OG HORNNES
4735,EVJE,4219,EVJE OG HORNNES
4737,HORNNES,4219,EVJE OG HORNNES
4741,BYGLANDSFJORD,4220,BYGLAND
4742,GRENDI,4220,BYGLAND
4744,BYGLAND,4220,BYGLAND
4745,BYGLAND,4220,BYGLAND
4746,VALLE,4221,VALLE
4747,VALLE,4221,VALLE
4748,RYSSTAD,4221,VALLE
4749,RYSSTAD,4221,VALLE
4754,BYKLE,4222,BYKLE
4755,HOVDEN I SETESDAL,4222,BYKLE
4756,HOVDEN I SETESDAL,4222,BYKLE
4760,BIRKELAND,4216,BIRKENES
4766,HEREFOSS,4216,BIRKENES
4768,ENGESLAND,4216,BIRKENES
4770,HØVÅG,4215,LILLESAND
4780,BREKKESTØ,4215,LILLESAND
4790,LILLESAND,4215,LILLESAND
4791,LILLESAND,4215,LILLESAND
4792,LILLESAND,4215,LILLESAND
4793,HØVÅG,4215,LILLESAND
4794,LILLESAND,4215,LILLESAND
4795,BIRKELAND,4216,BIRKENES
4801,ARENDAL,4203,ARENDAL
4802,ARENDAL,4203,ARENDAL
4803,ARENDAL,4203,ARENDAL
4804,ARENDAL,4203,ARENDAL
4808,ARENDAL,4203,ARENDAL
4809,ARENDAL,4203,ARENDAL
4810,EYDEHAVN,4203,ARENDAL
4812,KONGSHAVN,4203,ARENDAL
4815,SALTRØD,4203,ARENDAL
4816,KOLBJØRNSVIK,4203,ARENDAL
4817,HIS,4203,ARENDAL
4818,FÆRVIK,4203,ARENDAL
4820,FROLAND,4214,FROLAND
4821,RYKENE,4203,ARENDAL
4822,RYKENE,4203,ARENDAL
4823,NEDENES,4203,ARENDAL
4824,BJORBEKK,4203,ARENDAL
4825,ARENDAL,4203,ARENDAL
4827,FROLANDS VERK,4214,FROLAND
4828,MJÅVATN,4214,FROLAND
4830,HYNNEKLEIV,4214,FROLAND
4832,MYKLAND,4214,FROLAND
4834,RISDAL,4214,FROLAND
4836,ARENDAL,4203,ARENDAL
4838,ARENDAL,4203,ARENDAL
4839,ARENDAL,4203,ARENDAL
4841,ARENDAL,4203,ARENDAL
4842,ARENDAL,4203,ARENDAL
4843,ARENDAL,4203,ARENDAL
4844,ARENDAL,4203,ARENDAL
4846,ARENDAL,4203,ARENDAL
4847,ARENDAL,4203,ARENDAL
4848,ARENDAL,4203,ARENDAL
4849,ARENDAL,4203,ARENDAL
4851,SALTRØD,4203,ARENDAL
4852,FÆRVIK,4203,ARENDAL
4853,HIS,4203,ARENDAL
4854,NEDENES,4203,ARENDAL
4855,FROLAND,4214,FROLAND
4856,ARENDAL,4203,ARENDAL
4857,ARENDAL,4203,ARENDAL
4858,ARENDAL,4203,ARENDAL
4859,ARENDAL,4203,ARENDAL
4862,EYDEHAVN,4203,ARENDAL
4863,NELAUG,4217,ÅMLI
4864,ÅMLI,4217,ÅMLI
4865,ÅMLI,4217,ÅMLI
4868,SELÅSVATN,4217,ÅMLI
4869,DØLEMO,4217,ÅMLI
4870,FEVIK,4202,GRIMSTAD
4876,GRIMSTAD,4202,GRIMSTAD
4877,GRIMSTAD,4202,GRIMSTAD
4878,GRIMSTAD,4202,GRIMSTAD
4879,GRIMSTAD,4202,GRIMSTAD
4884,GRIMSTAD,4202,GRIMSTAD
4885,GRIMSTAD,4202,GRIMSTAD
4886,GRIMSTAD,4202,GRIMSTAD
4887,GRIMSTAD,4202,GRIMSTAD
4888,HOMBORSUND,4202,GRIMSTAD
4889,FEVIK,4202,GRIMSTAD
4891,GRIMSTAD,4202,GRIMSTAD
4892,GRIMSTAD,4202,GRIMSTAD
4893,GRIMSTAD,4202,GRIMSTAD
4894,GRIMSTAD,4202,GRIMSTAD
4896,GRIMSTAD,4202,GRIMSTAD
4898,GRIMSTAD,4202,GRIMSTAD
4900,TVEDESTRAND,4213,TVEDESTRAND
4901,TVEDESTRAND,4213,TVEDESTRAND
4902,TVEDESTRAND,4213,TVEDESTRAND
4903,TVEDESTRAND,4213,TVEDESTRAND
4904,TVEDESTRAND,4213,TVEDESTRAND
4905,TVEDESTRAND,4213,TVEDESTRAND
4909,SONGE,4213,TVEDESTRAND
4910,LYNGØR,4213,TVEDESTRAND
4912,GJEVING,4213,TVEDESTRAND
4915,VESTRE SANDØYA,4213,TVEDESTRAND
4916,BORØY,4213,TVEDESTRAND
4920,STAUBØ,4203,ARENDAL
4921,STAUBØ,4203,ARENDAL
4934,NES VERK,4213,TVEDESTRAND
4950,RISØR,4201,RISØR
4951,RISØR,4201,RISØR
4952,RISØR,4201,RISØR
4953,RISØR,4201,RISØR
4955,RISØR,4201,RISØR
4956,RISØR,4201,RISØR
4957,RISØR,4201,RISØR
4971,SUNDEBRU,4211,GJERSTAD
4972,GJERSTAD,4211,GJERSTAD
4973,VEGÅRSHEI,4212,VEGÅRSHEI
4974,SØNDELED,4201,RISØR
4980,GJERSTAD,4211,GJERSTAD
4985,VEGÅRSHEI,4212,VEGÅRSHEI
4990,SØNDELED,4201,RISØR
4993,SUNDEBRU,4211,GJERSTAD
4994,AKLAND,4201,RISØR
5003,BERGEN,4601,BERGEN
5004,BERGEN,4601,BERGEN
5005,BERGEN,4601,BERGEN
5006,BERGEN,4601,BERGEN
5007,BERGEN,4601,BERGEN
5008,BERGEN,4601,BERGEN
5009,BERGEN,4601,BERGEN
5010,BERGEN,4601,BERGEN
5011,BERGEN,4601,BERGEN
5012,BERGEN,4601,BERGEN
5013,BERGEN,4601,BERGEN
5014,BERGEN,4601,BERGEN
5015,BERGEN,4601,BERGEN
5016,BERGEN,4601,BERGEN
5017,BERGEN,4601,BERGEN
5018,BERGEN,4601,BERGEN
5019,BERGEN,4601,BERGEN
5020,BERGEN,4601,BERGEN
5021,BERGEN,4601,BERGEN
5022,BERGEN,4601,BERGEN
5031,BERGEN,4601,BERGEN
5032,BERGEN,4601,BERGEN
5033,BERGEN,4601,BERGEN
5034,BERGEN,4601,BERGEN
5035,BERGEN,4601,BERGEN
5036,BERGEN,4601,BERGEN
5037,BERGEN,4601,BERGEN
5038,BERGEN,4601,BERGEN
5039,BERGEN,4601,BERGEN
5041,BERGEN,4601,BERGEN
5042,BERGEN,4601,BERGEN
5043,BERGEN,4601,BERGEN
5045,BERGEN,4601,BERGEN
5052,BERGEN,4601,BERGEN
5053,BERGEN,4601,BERGEN
5054,BERGEN,4601,BERGEN
5055,BERGEN,4601,BERGEN
5056,BERGEN,4601,BERGEN
5057,BERGEN,4601,BERGEN
5058,BERGEN,4601,BERGEN
5059,BERGEN,4601,BERGEN
5063,BERGEN,4601,BERGEN
5067,BERGEN,4601,BERGEN
5068,BERGEN,4601,BERGEN
5072,BERGEN,4601,BERGEN
5073,BERGEN,4601,BERGEN
5075,BERGEN,4601,BERGEN
5081,BERGEN,4601,BERGEN
5082,BERGEN,4601,BERGEN
5089,BERGEN,4601,BERGEN
5093,BERGEN,4601,BERGEN
5094,BERGEN,4601,BERGEN
5096,BERGEN,4601,BERGEN
5097,BERGEN,4601,BERGEN
5098,BERGEN,4601,BERGEN
5099,BERGEN,4601,BERGEN
5101,EIDSVÅGNESET,4601,BERGEN
5104,EIDSVÅG I ÅSANE,4601,BERGEN
5105,EIDSVÅG I ÅSANE,4601,BERGEN
5106,ØVRE ERVIK,4601,BERGEN
5107,SALHUS,4601,BERGEN
5108,HORDVIK,4601,BERGEN
5109,HYLKJE,4601,BERGEN
5111,BREISTEIN,4601,BERGEN
5113,TERTNES,4601,BERGEN
5114,TERTNES,4601,BERGEN
5115,ULSET,4601,BERGEN
5116,ULSET,4601,BERGEN
5117,ULSET,4601,BERGEN
5118,ULSET,4601,BERGEN
5119,ULSET,4601,BERGEN
5121,ULSET,4601,BERGEN
5122,MORVIK,4601,BERGEN
5124,MORVIK,4601,BERGEN
5130,NYBORG,4601,BERGEN
5131,NYBORG,4601,BERGEN
5132,NYBORG,4601,BERGEN
5134,FLAKTVEIT,4601,BERGEN
5135,FLAKTVEIT,4601,BERGEN
5136,MJØLKERÅEN,4601,BERGEN
5137,MJØLKERÅEN,4601,BERGEN
5141,FYLLINGSDALEN,4601,BERGEN
5142,FYLLINGSDALEN,4601,BERGEN
5143,FYLLINGSDALEN,4601,BERGEN
5144,FYLLINGSDALEN,4601,BERGEN
5145,FYLLINGSDALEN,4601,BERGEN
5146,FYLLINGSDALEN,4601,BERGEN
5147,FYLLINGSDALEN,4601,BERGEN
5148,FYLLINGSDALEN,4601,BERGEN
5151,STRAUMSGREND,4601,BERGEN
5152,BØNES,4601,BERGEN
5153,BØNES,4601,BERGEN
5154,BØNES,4601,BERGEN
5155,BØNES,4601,BERGEN
5160,LAKSEVÅG,4601,BERGEN
5161,LAKSEVÅG,4601,BERGEN
5162,LAKSEVÅG,4601,BERGEN
5163,LAKSEVÅG,4601,BERGEN
5164,LAKSEVÅG,4601,BERGEN
5165,LAKSEVÅG,4601,BERGEN
5170,BJØRNDALSTRÆ,4601,BERGEN
5171,LODDEFJORD,4601,BERGEN
5172,LODDEFJORD,4601,BERGEN
5173,LODDEFJORD,4601,BERGEN
5174,MATHOPEN,4601,BERGEN
5176,LODDEFJORD,4601,BERGEN
5177,BJØRØYHAMN,4626,ØYGARDEN
5178,LODDEFJORD,4601,BERGEN
5179,GODVIK,4601,BERGEN
5183,OLSVIK,4601,BERGEN
5184,OLSVIK,4601,BERGEN
5200,OS,4624,BJØRNAFJORDEN
5201,OS,4624,BJØRNAFJORDEN
5202,OS,4624,BJØRNAFJORDEN
5203,OS,4624,BJØRNAFJORDEN
5206,OS,4624,BJØRNAFJORDEN
5207,SØFTELAND,4624,BJØRNAFJORDEN
5208,OS,4624,BJØRNAFJORDEN
5209,OS,4624,BJØRNAFJORDEN
5210,OS,4624,BJØRNAFJORDEN
5211,OS,4624,BJØRNAFJORDEN
5212,SØFTELAND,4624,BJØRNAFJORDEN
5213,LEPSØY,4624,BJØRNAFJORDEN
5214,LYSEKLOSTER,4624,BJØRNAFJORDEN
5215,LYSEKLOSTER,4624,BJØRNAFJORDEN
5216,LEPSØY,4624,BJØRNAFJORDEN
5217,HAGAVIK,4624,BJØRNAFJORDEN
5218,NORDSTRØNO,4624,BJØRNAFJORDEN
5221,NESTTUN,4601,BERGEN
5222,NESTTUN,4601,BERGEN
5223,NESTTUN,4601,BERGEN
5224,NESTTUN,4601,BERGEN
5225,NESTTUN,4601,BERGEN
5226,NESTTUN,4601,BERGEN
5227,NESTTUN,4601,BERGEN
5228,NESTTUN,4601,BERGEN
5229,KALANDSEIDET,4601,BERGEN
5230,PARADIS,4601,BERGEN
5231,PARADIS,4601,BERGEN
5232,PARADIS,4601,BERGEN
5235,RÅDAL,4601,BERGEN
5236,RÅDAL,4601,BERGEN
5237,RÅDAL,4601,BERGEN
5238,RÅDAL,4601,BERGEN
5239,RÅDAL,4601,BERGEN
5243,FANA,4601,BERGEN
5244,FANA,4601,BERGEN
5251,SØREIDGREND,4601,BERGEN
5252,SØREIDGREND,4601,BERGEN
5253,SANDSLI,4601,BERGEN
5254,SANDSLI,4601,BERGEN
5257,KOKSTAD,4601,BERGEN
5258,BLOMSTERDALEN,4601,BERGEN
5259,HJELLESTAD,4601,BERGEN
5260,INDRE ARNA,4601,BERGEN
5261,INDRE ARNA,4601,BERGEN
5262,ARNATVEIT,4601,BERGEN
5263,TRENGEREID,4601,BERGEN
5264,GARNES,4601,BERGEN
5265,YTRE ARNA,4601,BERGEN
5267,ESPELAND,4601,BERGEN
5268,HAUKELAND,4601,BERGEN
5281,VALESTRANDSFOSSEN,4630,OSTERØY
5282,LONEVÅG,4630,OSTERØY
5283,FOTLANDSVÅG,4630,OSTERØY
5284,TYSSEBOTNEN,4630,OSTERØY
5285,BRUVIK,4630,OSTERØY
5286,HAUS,4630,OSTERØY
5291,VALESTRANDSFOSSEN,4630,OSTERØY
5293,LONEVÅG,4630,OSTERØY
5299,HAUS,4630,OSTERØY
5300,KLEPPESTØ,4627,ASKØY
5301,KLEPPESTØ,4627,ASKØY
5302,STRUSSHAMN,4627,ASKØY
5303,FOLLESE,4627,ASKØY
5304,HETLEVIK,4627,ASKØY
5305,FLORVÅG,4627,ASKØY
5306,ERDAL,4627,ASKØY
5307,ASK,4627,ASKØY
5308,KLEPPESTØ,4627,ASKØY
5309,KLEPPESTØ,4627,ASKØY
5310,HAUGLANDSHELLA,4627,ASKØY
5311,KJERRGARDEN,4627,ASKØY
5314,KJERRGARDEN,4627,ASKØY
5315,HERDLA,4627,ASKØY
5318,STRUSSHAMN,4627,ASKØY
5319,KLEPPESTØ,4627,ASKØY
5321,KLEPPESTØ,4627,ASKØY
5322,KLEPPESTØ,4627,ASKØY
5323,KLEPPESTØ,4627,ASKØY
5325,FOLLESE,4627,ASKØY
5326,ASK,4627,ASKØY
5327,HAUGLANDSHELLA,4627,ASKØY
5329,FLORVÅG,4627,ASKØY
5331,RONG,4626,ØYGARDEN
5333,TJELDSTØ,4626,ØYGARDEN
5334,HELLESØY,4626,ØYGARDEN
5335,HERNAR,4626,ØYGARDEN
5336,TJELDSTØ,4626,ØYGARDEN
5337,RONG,4626,ØYGARDEN
5341,STRAUME,4626,ØYGARDEN
5342,STRAUME,4626,ØYGARDEN
5343,STRAUME,4626,ØYGARDEN
5345,KNARREVIK,4626,ØYGARDEN
5346,ÅGOTNES,4626,ØYGARDEN
5347,ÅGOTNES,4626,ØYGARDEN
5350,BRATTHOLMEN,4626,ØYGARDEN
5353,STRAUME,4626,ØYGARDEN
5354,STRAUME,4626,ØYGARDEN
5355,KNARREVIK,4626,ØYGARDEN
5357,FJELL,4626,ØYGARDEN
5358,FJELL,4626,ØYGARDEN
5360,KOLLTVEIT,4626,ØYGARDEN
5363,ÅGOTNES,4626,ØYGARDEN
5365,TURØY,4626,ØYGARDEN
5366,MISJE,4626,ØYGARDEN
5371,SKOGSVÅG,4626,ØYGARDEN
5374,STEINSLAND,4626,ØYGARDEN
5378,KLOKKARVIK,4626,ØYGARDEN
5379,STEINSLAND,4626,ØYGARDEN
5380,TÆLAVÅG,4626,ØYGARDEN
5381,GLESVÆR,4626,ØYGARDEN
5382,SKOGSVÅG,4626,ØYGARDEN
5384,TORANGSVÅG,4625,AUSTEVOLL
5385,BAKKASUND,4625,AUSTEVOLL
5387,MØKSTER,4625,AUSTEVOLL
5388,LITLAKALSØY,4625,AUSTEVOLL
5392,STOREBØ,4625,AUSTEVOLL
5393,STOREBØ,4625,AUSTEVOLL
5394,KOLBEINSVIK,4625,AUSTEVOLL
5396,VESTRE VINNESVÅG,4625,AUSTEVOLL
5397,BEKKJARVIK,4625,AUSTEVOLL
5398,STOLMEN,4625,AUSTEVOLL
5399,BEKKJARVIK,4625,AUSTEVOLL
5401,STORD,4614,STORD
5402,STORD,4614,STORD
5403,STORD,4614,STORD
5404,STORD,4614,STORD
5406,STORD,4614,STORD
5407,STORD,4614,STORD
5408,SAGVÅG,4614,STORD
5409,STORD,4614,STORD
5410,SAGVÅG,4614,STORD
5411,STORD,4614,STORD
5412,STORD,4614,STORD
5413,HUGLO,4614,STORD
5414,STORD,4614,STORD
5415,STORD,4614,STORD
5416,STORD,4614,STORD
5417,STORD,4614,STORD
5418,FITJAR,4615,FITJAR
5419,FITJAR,4615,FITJAR
5420,RUBBESTADNESET,4613,BØMLO
5423,BRANDASUND,4613,BØMLO
5427,URANGSVÅG,4613,BØMLO
5428,FOLDRØYHAMN,4613,BØMLO
5430,BREMNES,4613,BØMLO
5437,FINNÅS,4613,BØMLO
5440,MOSTERHAMN,4613,BØMLO
5443,BØMLO,4613,BØMLO
5444,ESPEVÆR,4613,BØMLO
5445,BREMNES,4613,BØMLO
5447,MOSTERHAMN,4613,BØMLO
5449,BØMLO,4613,BØMLO
5450,SUNDE I SUNNHORDLAND,4617,KVINNHERAD
5451,VALEN,4617,KVINNHERAD
5452,SANDVOLL,4617,KVINNHERAD
5453,UTÅKER,4617,KVINNHERAD
5454,SÆBØVIK,4617,KVINNHERAD
5455,HALSNØY KLOSTER,4617,KVINNHERAD
5457,HØYLANDSBYGD,4617,KVINNHERAD
5458,ARNAVIK,4617,KVINNHERAD
5459,FJELBERG,4617,KVINNHERAD
5460,HUSNES,4617,KVINNHERAD
5462,HERØYSUNDET,4617,KVINNHERAD
5463,USKEDALEN,4617,KVINNHERAD
5464,DIMMELSVIK,4617,KVINNHERAD
5465,USKEDALEN,4617,KVINNHERAD
5470,ROSENDAL,4617,KVINNHERAD
5472,SEIMSFOSS,4617,KVINNHERAD
5473,SNILSTVEITØY,4617,KVINNHERAD
5474,LØFALLSTRAND,4617,KVINNHERAD
5475,ÆNES,4617,KVINNHERAD
5476,MAURANGER,4617,KVINNHERAD
5480,HUSNES,4617,KVINNHERAD
5484,SÆBØVIK,4617,KVINNHERAD
5486,ROSENDAL,4617,KVINNHERAD
5498,MATRE,4617,KVINNHERAD
5499,ÅKRA,4617,KVINNHERAD
5501,HAUGESUND,1106,HAUGESUND
5502,HAUGESUND,1106,HAUGESUND
5503,HAUGESUND,1106,HAUGESUND
5504,HAUGESUND,1106,HAUGESUND
5505,HAUGESUND,1106,HAUGESUND
5506,HAUGESUND,1106,HAUGESUND
5507,HAUGESUND,1106,HAUGESUND
5508,KARMSUND,1149,KARMØY
5509,HAUGESUND,1106,HAUGESUND
5511,HAUGESUND,1106,HAUGESUND
5512,HAUGESUND,1106,HAUGESUND
5514,HAUGESUND,1106,HAUGESUND
5515,HAUGESUND,1106,HAUGESUND
5516,HAUGESUND,1106,HAUGESUND
5517,HAUGESUND,1106,HAUGESUND
5518,HAUGESUND,1106,HAUGESUND
5519,HAUGESUND,1106,HAUGESUND
5521,HAUGESUND,1106,HAUGESUND
5522,HAUGESUND,1106,HAUGESUND
5523,HAUGESUND,1106,HAUGESUND
5525,HAUGESUND,1106,HAUGESUND
5527,HAUGESUND,1106,HAUGESUND
5528,HAUGESUND,1106,HAUGESUND
5529,HAUGESUND,1106,HAUGESUND
5531,HAUGESUND,1106,HAUGESUND
5532,HAUGESUND,1106,HAUGESUND
5533,HAUGESUND,1106,HAUGESUND
5534,HAUGESUND,1106,HAUGESUND
5535,HAUGESUND,1106,HAUGESUND
5536,HAUGESUND,1106,HAUGESUND
5537,HAUGESUND,1106,HAUGESUND
5538,HAUGESUND,1106,HAUGESUND
5541,KOLNES,1149,KARMØY
5542,KARMSUND,1149,KARMØY
5544,VORMEDAL,1149,KARMØY
5545,VORMEDAL,1149,KARMØY
5546,RØYKSUND,1149,KARMØY
5547,UTSIRA,1151,UTSIRA
5548,FEØY,1149,KARMØY
5549,RØVÆR,1106,HAUGESUND
5550,SVEIO,4612,SVEIO
5551,AUKLANDSHAMN,4612,SVEIO
5554,VALEVÅG,4612,SVEIO
5555,FØRDE I HORDALAND,4612,SVEIO
5556,FØRDE I HORDALAND,4612,SVEIO
5559,SVEIO,4612,SVEIO
5560,NEDSTRAND,1146,TYSVÆR
5561,BOKN,1145,BOKN
5562,NEDSTRAND,1146,TYSVÆR
5563,FØRRESFJORDEN,1146,TYSVÆR
5565,TYSVÆRVÅG,1146,TYSVÆR
5566,HERVIK,1146,TYSVÆR
5567,SKJOLDASTRAUMEN,1146,TYSVÆR
5568,VIKEBYGD,1160,VINDAFJORD
5569,BOKN,1145,BOKN
5570,AKSDAL,1146,TYSVÆR
5574,SKJOLD,1160,VINDAFJORD
5575,AKSDAL,1146,TYSVÆR
5576,ØVRE VATS,1160,VINDAFJORD
5578,NEDRE VATS,1160,VINDAFJORD
5580,ØLEN,1160,VINDAFJORD
5582,ØLENSVÅG,1160,VINDAFJORD
5583,VIKEDAL,1160,VINDAFJORD
5584,BJOA,1160,VINDAFJORD
5585,SANDEID,1160,VINDAFJORD
5586,VIKEDAL,1160,VINDAFJORD
5588,ØLEN,1160,VINDAFJORD
5589,SANDEID,1160,VINDAFJORD
5590,ETNE,4611,ETNE
5591,ETNE,4611,ETNE
5593,SKÅNEVIK,4611,ETNE
5594,SKÅNEVIK,4611,ETNE
5595,FØRRESFJORDEN,1146,TYSVÆR
5596,MARKHUS,4611,ETNE
5598,FJÆRA,4611,ETNE
5600,NORHEIMSUND,4622,KVAM
5601,NORHEIMSUND,4622,KVAM
5602,NORHEIMSUND,4622,KVAM
5604,ØYSTESE,4622,KVAM
5605,ÅLVIK,4622,KVAM
5610,ØYSTESE,4622,KVAM
5612,STEINSTØ,4622,KVAM
5614,ÅLVIK,4622,KVAM
5620,TØRVIKBYGD,4622,KVAM
5626,KYSNESSTRAND,4618,ULLENSVANG
5627,JONDAL,4618,ULLENSVANG
5628,HERAND,4618,ULLENSVANG
5629,JONDAL,4618,ULLENSVANG
5630,STRANDEBARM,4622,KVAM
5631,STRANDEBARM,4622,KVAM
5632,OMASTRAND,4622,KVAM
5633,OMASTRAND,4622,KVAM
5635,HATLESTRAND,4617,KVINNHERAD
5636,VARALDSØY,4617,KVINNHERAD
5637,ØLVE,4617,KVINNHERAD
5640,EIKELANDSOSEN,4624,BJØRNAFJORDEN
5641,FUSA,4624,BJØRNAFJORDEN
5642,HOLMEFJORD,4624,BJØRNAFJORDEN
5643,STRANDVIK,4624,BJØRNAFJORDEN
5644,SÆVAREID,4624,BJØRNAFJORDEN
5645,SÆVAREID,4624,BJØRNAFJORDEN
5646,NORDTVEITGREND,4624,BJØRNAFJORDEN
5647,BALDERSHEIM,4624,BJØRNAFJORDEN
5648,FUSA,4624,BJØRNAFJORDEN
5649,EIKELANDSOSEN,4624,BJØRNAFJORDEN
5650,TYSSE,4623,SAMNANGER
5651,TYSSE,4623,SAMNANGER
5652,ÅRLAND,4623,SAMNANGER
5653,ÅRLAND,4623,SAMNANGER
5680,TYSNES,4616,TYSNES
5683,REKSTEREN,4616,TYSNES
5685,UGGDAL,4616,TYSNES
5687,FLATRÅKER,4616,TYSNES
5690,LUNDEGREND,4616,TYSNES
5693,ÅRBAKKA,4616,TYSNES
5694,ONARHEIM,4616,TYSNES
5695,UGGDAL,4616,TYSNES
5696,TYSNES,4616,TYSNES
5700,VOSS,4621,VOSS
5701,VOSS,4621,VOSS
5702,VOSS,4621,VOSS
5703,VOSS,4621,VOSS
5704,VOSS,4621,VOSS
5705,VOSS,4621,VOSS
5706,VOSS,4621,VOSS
5707,EVANGER,4621,VOSS
5708,VOSS,4621,VOSS
5709,VOSS,4621,VOSS
5710,SKULESTADMO,4621,VOSS
5711,SKULESTADMO,4621,VOSS
5712,VOSSESTRAND,4621,VOSS
5713,VOSSESTRAND,4621,VOSS
5714,VOSS,4621,VOSS
5715,STALHEIM,4621,VOSS
5718,MYRDAL,4641,AURLAND
5719,FINSE,4620,ULVIK
5720,STANGHELLE,4628,VAKSDAL
5721,DALEKVAM,4628,VAKSDAL
5722,DALEKVAM,4628,VAKSDAL
5723,BOLSTADØYRI,4621,VOSS
5724,STANGHELLE,4628,VAKSDAL
5725,VAKSDAL,4628,VAKSDAL
5726,VAKSDAL,4628,VAKSDAL
5727,STAMNES,4628,VAKSDAL
5728,EIDSLANDET,4628,VAKSDAL
5729,MODALEN,4629,MODALEN
5730,ULVIK,4620,ULVIK
5731,ULVIK,4620,ULVIK
5732,MODALEN,4629,MODALEN
5733,GRANVIN,4621,VOSS
5734,VALLAVIK,4621,VOSS
5736,GRANVIN,4621,VOSS
5741,AURLAND,4641,AURLAND
5742,FLÅM,4641,AURLAND
5743,FLÅM,4641,AURLAND
5745,AURLAND,4641,AURLAND
5746,UNDREDAL,4641,AURLAND
5747,GUDVANGEN,4641,AURLAND
5748,STYVI,4641,AURLAND
5749,GUDVANGEN,4641,AURLAND
5750,ODDA,4618,ULLENSVANG
5751,ODDA,4618,ULLENSVANG
5752,ODDA,4618,ULLENSVANG
5760,RØLDAL,4618,ULLENSVANG
5763,SKARE,4618,ULLENSVANG
5770,TYSSEDAL,4618,ULLENSVANG
5773,HOVLAND,4618,ULLENSVANG
5775,NÅ,4618,ULLENSVANG
5776,NÅ,4618,ULLENSVANG
5777,GRIMO,4618,ULLENSVANG
5778,UTNE,4618,ULLENSVANG
5779,UTNE,4618,ULLENSVANG
5780,KINSARVIK,4618,ULLENSVANG
5781,LOFTHUS,4618,ULLENSVANG
5782,KINSARVIK,4618,ULLENSVANG
5783,EIDFJORD,4619,EIDFJORD
5784,ØVRE EIDFJORD,4619,EIDFJORD
5785,VØRINGSFOSS,4619,EIDFJORD
5786,EIDFJORD,4619,EIDFJORD
5787,LOFTHUS,4618,ULLENSVANG
5788,KINSARVIK,4618,ULLENSVANG
5802,BERGEN,4601,BERGEN
5803,BERGEN,4601,BERGEN
5804,BERGEN,4601,BERGEN
5805,BERGEN,4601,BERGEN
5806,BERGEN,4601,BERGEN
5807,BERGEN,4601,BERGEN
5808,BERGEN,4601,BERGEN
5809,BERGEN,4601,BERGEN
5810,BERGEN,4601,BERGEN
5811,BERGEN,4601,BERGEN
5812,BERGEN,4601,BERGEN
5813,BERGEN,4601,BERGEN
5814,BERGEN,4601,BERGEN
5815,BERGEN,4601,BERGEN
5816,BERGEN,4601,BERGEN
5817,BERGEN,4601,BERGEN
5818,BERGEN,4601,BERGEN
5819,BERGEN,4601,BERGEN
5820,BERGEN,4601,BERGEN
5821,BERGEN,4601,BERGEN
5822,BERGEN,4601,BERGEN
5823,BERGEN,4601,BERGEN
5824,BERGEN,4601,BERGEN
5825,BERGEN,4601,BERGEN
5826,BERGEN,4601,BERGEN
5827,BERGEN,4601,BERGEN
5828,BERGEN,4601,BERGEN
5829,BERGEN,4601,BERGEN
5830,BERGEN,4601,BERGEN
5831,BERGEN,4601,BERGEN
5832,BERGEN,4601,BERGEN
5833,BERGEN,4601,BERGEN
5834,BERGEN,4601,BERGEN
5835,BERGEN,4601,BERGEN
5836,BERGEN,4601,BERGEN
5837,BERGEN,4601,BERGEN
5838,BERGEN,4601,BERGEN
5841,BERGEN,4601,BERGEN
5843,BERGEN,4601,BERGEN
5844,BERGEN,4601,BERGEN
5845,BERGEN,4601,BERGEN
5847,BERGEN,4601,BERGEN
5848,BERGEN,4601,BERGEN
5849,BERGEN,4601,BERGEN
5851,BERGEN,4601,BERGEN
5852,BERGEN,4601,BERGEN
5853,BERGEN,4601,BERGEN
5854,BERGEN,4601,BERGEN
5855,BERGEN,4601,BERGEN
5857,BERGEN,4601,BERGEN
5858,BERGEN,4601,BERGEN
5859,BERGEN,4601,BERGEN
5861,BERGEN,4601,BERGEN
5862,BERGEN,4601,BERGEN
5863,BERGEN,4601,BERGEN
5864,BERGEN,4601,BERGEN
5865,BERGEN,4601,BERGEN
5866,BERGEN,4601,BERGEN
5867,BERGEN,4601,BERGEN
5868,BERGEN,4601,BERGEN
5869,BERGEN,4601,BERGEN
5872,BERGEN,4601,BERGEN
5873,BERGEN,4601,BERGEN
5876,BERGEN,4601,BERGEN
5877,BERGEN,4601,BERGEN
5878,BERGEN,4601,BERGEN
5879,BERGEN,4601,BERGEN
5881,BERGEN,4601,BERGEN
5884,BERGEN,4601,BERGEN
5886,BERGEN,4601,BERGEN
5887,BERGEN,4601,BERGEN
5888,BERGEN,4601,BERGEN
5889,BERGEN,4601,BERGEN
5892,BERGEN,4601,BERGEN
5893,BERGEN,4601,BERGEN
5895,BERGEN,4601,BERGEN
5896,BERGEN,4601,BERGEN
5899,BERGEN,4601,BERGEN
5902,ISDALSTØ,4631,ALVER
5903,ISDALSTØ,4631,ALVER
5904,ISDALSTØ,4631,ALVER
5906,FREKHAUG,4631,ALVER
5907,ALVERSUND,4631,ALVER
5908,ISDALSTØ,4631,ALVER
5911,ALVERSUND,4631,ALVER
5912,SEIM,4631,ALVER
5913,EIKANGERVÅG,4631,ALVER
5914,ISDALSTØ,4631,ALVER
5915,HJELMÅS,4631,ALVER
5916,ISDALSTØ,4631,ALVER
5917,ROSSLAND,4631,ALVER
5918,FREKHAUG,4631,ALVER
5919,FREKHAUG,4631,ALVER
5931,MANGER,4631,ALVER
5935,BØVÅGEN,4631,ALVER
5936,MANGER,4631,ALVER
5937,BØVÅGEN,4631,ALVER
5938,SÆBØVÅGEN,4631,ALVER
5939,SLETTA,4631,ALVER
5941,AUSTRHEIM,4632,AUSTRHEIM
5943,AUSTRHEIM,4632,AUSTRHEIM
5947,FEDJE,4633,FEDJE
5948,FEDJE,4633,FEDJE
5951,LINDÅS,4631,ALVER
5952,FONNES,4632,AUSTRHEIM
5953,FONNES,4632,AUSTRHEIM
5954,MONGSTAD,4631,ALVER
5955,LINDÅS,4631,ALVER
5956,HUNDVIN,4631,ALVER
5957,MYKING,4631,ALVER
5960,DALSØYRA,4635,GULEN
5961,BREKKE,4635,GULEN
5962,BJORDAL,4638,HØYANGER
5963,DALSØYRA,4635,GULEN
5964,BREKKE,4635,GULEN
5965,BJORDAL,4638,HØYANGER
5966,EIVINDVIK,4635,GULEN
5967,EIVINDVIK,4635,GULEN
5970,BYRKNESØY,4635,GULEN
5977,ÅNNELAND,4635,GULEN
5978,MJØMNA,4635,GULEN
5979,BYRKNESØY,4635,GULEN
5981,MASFJORDNES,4634,MASFJORDEN
5982,MASFJORDNES,4634,MASFJORDEN
5983,HAUGSVÆR,4634,MASFJORDEN
5984,MATREDAL,4634,MASFJORDEN
5985,HAUGSVÆR,4634,MASFJORDEN
5986,HOSTELAND,4634,MASFJORDEN
5987,HOSTELAND,4634,MASFJORDEN
5991,OSTEREIDET,4631,ALVER
5993,OSTEREIDET,4631,ALVER
5994,VIKANES,4631,ALVER
6001,ÅLESUND,1507,ÅLESUND
6002,ÅLESUND,1507,ÅLESUND
6003,ÅLESUND,1507,ÅLESUND
6004,ÅLESUND,1507,ÅLESUND
6005,ÅLESUND,1507,ÅLESUND
6006,ÅLESUND,1507,ÅLESUND
6007,ÅLESUND,1507,ÅLESUND
6008,ÅLESUND,1507,ÅLESUND
6009,ÅLESUND,1507,ÅLESUND
6010,ÅLESUND,1507,ÅLESUND
6011,ÅLESUND,1507,ÅLESUND
6012,ÅLESUND,1507,ÅLESUND
6013,ÅLESUND,1507,ÅLESUND
6014,ÅLESUND,1507,ÅLESUND
6015,ÅLESUND,1507,ÅLESUND
6016,ÅLESUND,1507,ÅLESUND
6017,ÅLESUND,1507,ÅLESUND
6018,ÅLESUND,1507,ÅLESUND
6019,ÅLESUND,1507,ÅLESUND
6020,ÅLESUND,1507,ÅLESUND
6021,ÅLESUND,1507,ÅLESUND
6022,ÅLESUND,1507,ÅLESUND
6023,ÅLESUND,1507,ÅLESUND
6024,ÅLESUND,1507,ÅLESUND
6025,ÅLESUND,1507,ÅLESUND
6026,ÅLESUND,1507,ÅLESUND
6028,ÅLESUND,1507,ÅLESUND
6030,LANGEVÅG,1531,SULA
6034,EIDSNES,1531,SULA
6035,FISKARSTRAND,1531,SULA
6036,MAUSEIDVÅG,1531,SULA
6037,EIDSNES,1531,SULA
6038,FISKARSTRAND,1531,SULA
6039,LANGEVÅG,1531,SULA
6040,VIGRA,1532,GISKE
6044,ÅLESUND,1507,ÅLESUND
6045,ÅLESUND,1507,ÅLESUND
6046,ÅLESUND,1507,ÅLESUND
6047,ÅLESUND,1507,ÅLESUND
6048,ÅLESUND,1507,ÅLESUND
6050,VALDERØYA,1532,GISKE
6052,GISKE,1532,GISKE
6054,GODØYA,1532,GISKE
6055,GODØYA,1532,GISKE
6057,ELLINGSØY,1507,ÅLESUND
6058,VALDERØYA,1532,GISKE
6059,VIGRA,1532,GISKE
6060,HAREID,1517,HAREID
6062,BRANDAL,1517,HAREID
6063,HJØRUNGAVÅG,1517,HAREID
6064,HADDAL,1516,ULSTEIN
6065,ULSTEINVIK,1516,ULSTEIN
6067,ULSTEINVIK,1516,ULSTEIN
6068,EIKSUND,1516,ULSTEIN
6069,HAREID,1517,HAREID
6070,TJØRVÅG,1515,HERØY (MØRE OG ROMSDAL)
6075,MOLTUSTRANDA,1515,HERØY (MØRE OG ROMSDAL)
6076,MOLTUSTRANDA,1515,HERØY (MØRE OG ROMSDAL)
6078,GJERDSVIKA,1514,SANDE
6079,GURSKØY,1515,HERØY (MØRE OG ROMSDAL)
6080,GURSKØY,1515,HERØY (MØRE OG ROMSDAL)
6082,GURSKEN,1514,SANDE
6083,GJERDSVIKA,1514,SANDE
6084,LARSNES,1514,SANDE
6085,LARSNES,1514,SANDE
6086,KVAMSØY,1514,SANDE
6087,KVAMSØY,1514,SANDE
6088,SANDSHAMN,1514,SANDE
6089,SANDSHAMN,1514,SANDE
6090,FOSNAVÅG,1515,HERØY (MØRE OG ROMSDAL)
6091,FOSNAVÅG,1515,HERØY (MØRE OG ROMSDAL)
6092,FOSNAVÅG,1515,HERØY (MØRE OG ROMSDAL)
6094,LEINØY,1515,HERØY (MØRE OG ROMSDAL)
6095,BØLANDET,1515,HERØY (MØRE OG ROMSDAL)
6096,RUNDE,1515,HERØY (MØRE OG ROMSDAL)
6098,NERLANDSØY,1515,HERØY (MØRE OG ROMSDAL)
6099,FOSNAVÅG,1515,HERØY (MØRE OG ROMSDAL)
6100,VOLDA,1577,VOLDA
6101,VOLDA,1577,VOLDA
6102,VOLDA,1577,VOLDA
6103,VOLDA,1577,VOLDA
6104,VOLDA,1577,VOLDA
6105,VOLDA,1577,VOLDA
6106,VOLDA,1577,VOLDA
6110,AUSTEFJORDEN,1577,VOLDA
6120,FOLKESTAD,1577,VOLDA
6133,LAUVSTAD,1577,VOLDA
6134,LAUVSTAD,1577,VOLDA
6138,SYVDE,1511,VANYLVEN
6139,FISKÅ,1511,VANYLVEN
6140,SYVDE,1511,VANYLVEN
6141,ROVDE,1511,VANYLVEN
6142,EIDSÅ,1511,VANYLVEN
6143,FISKÅ,1511,VANYLVEN
6144,SYLTE,1511,VANYLVEN
6146,ÅHEIM,1511,VANYLVEN
6147,ÅHEIM,1511,VANYLVEN
6149,ÅRAM,1511,VANYLVEN
6150,ØRSTA,1520,ØRSTA
6151,ØRSTA,1520,ØRSTA
6152,ØRSTA,1520,ØRSTA
6153,ØRSTA,1520,ØRSTA
6154,ØRSTA,1520,ØRSTA
6155,ØRSTA,1520,ØRSTA
6156,ØRSTA,1520,ØRSTA
6160,HOVDEBYGDA,1520,ØRSTA
6161,HOVDEBYGDA,1520,ØRSTA
6165,SÆBØ,1520,ØRSTA
6166,SÆBØ,1520,ØRSTA
6170,VARTDAL,1520,ØRSTA
6171,VARTDAL,1520,ØRSTA
6174,BARSTADVIK,1520,ØRSTA
6183,TRANDAL,1520,ØRSTA
6184,STORESTANDAL,1520,ØRSTA
6190,BJØRKE,1577,VOLDA
6196,NORANGSFJORDEN,1520,ØRSTA
6200,STRANDA,1525,STRANDA
6201,STRANDA,1525,STRANDA
6210,VALLDAL,1578,FJORD
6211,VALLDAL,1578,FJORD
6212,LIABYGDA,1525,STRANDA
6213,TAFJORD,1578,FJORD
6214,NORDDAL,1578,FJORD
6215,EIDSDAL,1578,FJORD
6216,GEIRANGER,1525,STRANDA
6217,GEIRANGER,1525,STRANDA
6218,HELLESYLT,1525,STRANDA
6219,HELLESYLT,1525,STRANDA
6220,STRAUMGJERDE,1528,SYKKYLVEN
6222,IKORNNES,1528,SYKKYLVEN
6223,IKORNNES,1528,SYKKYLVEN
6224,HUNDEIDVIK,1528,SYKKYLVEN
6230,SYKKYLVEN,1528,SYKKYLVEN
6238,STRAUMGJERDE,1528,SYKKYLVEN
6239,SYKKYLVEN,1528,SYKKYLVEN
6240,ØRSKOG,1507,ÅLESUND
6249,ØRSKOG,1507,ÅLESUND
6250,STORDAL,1578,FJORD
6255,EIDSDAL,1578,FJORD
6259,STORDAL,1578,FJORD
6260,SKODJE,1507,ÅLESUND
6263,SKODJE,1507,ÅLESUND
6264,TENNFJORD,1507,ÅLESUND
6265,VATNE,1507,ÅLESUND
6270,BRATTVÅG,1507,ÅLESUND
6272,HILDRE,1507,ÅLESUND
6280,SØVIK,1507,ÅLESUND
6281,SØVIK,1507,ÅLESUND
6282,BRATTVÅG,1507,ÅLESUND
6283,VATNE,1507,ÅLESUND
6285,STOREKALVØY,1507,ÅLESUND
6290,HARAMSØY,1507,ÅLESUND
6291,HARAMSØY,1507,ÅLESUND
6292,KJERSTAD,1507,ÅLESUND
6293,LONGVA,1507,ÅLESUND
6294,FJØRTOFT,1507,ÅLESUND
6300,ÅNDALSNES,1539,RAUMA
6301,ÅNDALSNES,1539,RAUMA
6310,VEBLUNGSNES,1539,RAUMA
6315,INNFJORDEN,1539,RAUMA
6320,ISFJORDEN,1539,RAUMA
6330,VERMA,1539,RAUMA
6331,VERMA,1539,RAUMA
6339,ISFJORDEN,1539,RAUMA
6350,EIDSBYGDA,1539,RAUMA
6360,ÅFARNES,1539,RAUMA
6361,ÅFARNES,1539,RAUMA
6363,MITTET,1539,RAUMA
6364,VISTDAL,1506,MOLDE
6365,VISTDAL,1506,MOLDE
6385,MÅNDALEN,1539,RAUMA
6386,MÅNDALEN,1539,RAUMA
6387,VÅGSTRANDA,1539,RAUMA
6388,VÅGSTRANDA,1539,RAUMA
6389,FIKSDAL,1535,VESTNES
6390,VESTNES,1535,VESTNES
6391,TRESFJORD,1535,VESTNES
6392,VIKEBUKT,1535,VESTNES
6393,TOMREFJORD,1535,VESTNES
6394,FIKSDAL,1535,VESTNES
6395,REKDAL,1535,VESTNES
6396,VIKEBUKT,1535,VESTNES
6397,TRESFJORD,1535,VESTNES
6398,TOMREFJORD,1535,VESTNES
6399,VESTNES,1535,VESTNES
6401,MOLDE,1506,MOLDE
6402,MOLDE,1506,MOLDE
6403,MOLDE,1506,MOLDE
6404,MOLDE,1506,MOLDE
6405,MOLDE,1506,MOLDE
6407,MOLDE,1506,MOLDE
6408,AUREOSEN,1579,HUSTADVIKA
6409,MOLDE,1547,AUKRA
6410,MOLDE,1506,MOLDE
6411,MOLDE,1506,MOLDE
6412,MOLDE,1506,MOLDE
6413,MOLDE,1506,MOLDE
6414,MOLDE,1506,MOLDE
6415,MOLDE,1506,MOLDE
6416,MOLDE,1506,MOLDE
6418,SEKKEN,1506,MOLDE
6419,MOLDE,1506,MOLDE
6421,MOLDE,1506,MOLDE
6422,MOLDE,1506,MOLDE
6423,MOLDE,1506,MOLDE
6425,MOLDE,1506,MOLDE
6429,MOLDE,1506,MOLDE
6430,BUD,1579,HUSTADVIKA
6431,BUD,1579,HUSTADVIKA
6433,HUSTAD,1579,HUSTADVIKA
6434,MOLDE,1506,MOLDE
6435,MOLDE,1506,MOLDE
6436,MOLDE,1506,MOLDE
6440,ELNESVÅGEN,1579,HUSTADVIKA
6443,TORNES I ROMSDAL,1579,HUSTADVIKA
6444,FARSTAD,1579,HUSTADVIKA
6445,MALMEFJORDEN,1579,HUSTADVIKA
6446,FARSTAD,1579,HUSTADVIKA
6447,ELNESVÅGEN,1579,HUSTADVIKA
6450,HJELSET,1506,MOLDE
6452,KLEIVE,1506,MOLDE
6453,KLEIVE,1506,MOLDE
6454,HJELSET,1506,MOLDE
6455,KORTGARDEN,1506,MOLDE
6456,SKÅLA,1506,MOLDE
6457,BOLSØYA,1506,MOLDE
6458,SKÅLA,1506,MOLDE
6460,EIDSVÅG I ROMSDAL,1506,MOLDE
6461,EIDSVÅG I ROMSDAL,1506,MOLDE
6462,RAUDSAND,1506,MOLDE
6470,ERESFJORD,1506,MOLDE
6471,ERESFJORD,1506,MOLDE
6472,EIKESDAL,1506,MOLDE
6475,MIDSUND,1506,MOLDE
6476,MIDSUND,1506,MOLDE
6480,AUKRA,1547,AUKRA
6481,AUKRA,1547,AUKRA
6483,ONA,1507,ÅLESUND
6484,SANDØY,1507,ÅLESUND
6485,HARØY,1507,ÅLESUND
6486,ORTEN,1547,AUKRA
6487,HARØY,1507,ÅLESUND
6488,MYKLEBOST,1507,ÅLESUND
6490,EIDE,1579,HUSTADVIKA
6493,LYNGSTAD,1579,HUSTADVIKA
6494,VEVANG,1579,HUSTADVIKA
6499,EIDE,1579,HUSTADVIKA
6501,KRISTIANSUND N,1505,KRISTIANSUND
6502,KRISTIANSUND N,1505,KRISTIANSUND
6503,KRISTIANSUND N,1505,KRISTIANSUND
6504,KRISTIANSUND N,1505,KRISTIANSUND
6506,KRISTIANSUND N,1505,KRISTIANSUND
6507,KRISTIANSUND N,1505,KRISTIANSUND
6508,KRISTIANSUND N,1505,KRISTIANSUND
6509,KRISTIANSUND N,1505,KRISTIANSUND
6510,KRISTIANSUND N,1505,KRISTIANSUND
6511,KRISTIANSUND N,1505,KRISTIANSUND
6512,KRISTIANSUND N,1505,KRISTIANSUND
6514,KRISTIANSUND N,1505,KRISTIANSUND
6515,KRISTIANSUND N,1505,KRISTIANSUND
6516,KRISTIANSUND N,1505,KRISTIANSUND
6517,KRISTIANSUND N,1505,KRISTIANSUND
6518,KRISTIANSUND N,1505,KRISTIANSUND
6520,FREI,1505,KRISTIANSUND
6521,FREI,1505,KRISTIANSUND
6522,FREI,1505,KRISTIANSUND
6523,FREI,1505,KRISTIANSUND
6524,FREI,1505,KRISTIANSUND
6525,FREI,1505,KRISTIANSUND
6527,FREI,1505,KRISTIANSUND
6528,FREI,1505,KRISTIANSUND
6529,FREI,1505,KRISTIANSUND
6530,AVERØY,1554,AVERØY
6531,AVERØY,1554,AVERØY
6532,AVERØY,1554,AVERØY
6533,AVERØY,1554,AVERØY
6538,AVERØY,1554,AVERØY
6539,AVERØY,1554,AVERØY
6546,KRISTIANSUND N,1505,KRISTIANSUND
6547,KRISTIANSUND N,1505,KRISTIANSUND
6548,KRISTIANSUND N,1505,KRISTIANSUND
6549,KRISTIANSUND N,1505,KRISTIANSUND
6570,SMØLA,1573,SMØLA
6571,SMØLA,1573,SMØLA
6590,TUSTNA,1576,AURE
6591,TUSTNA,1576,AURE
6600,SUNNDALSØRA,1563,SUNNDAL
6601,SUNNDALSØRA,1563,SUNNDAL
6610,ØKSENDAL,1563,SUNNDAL
6611,FURUGRENDA,1563,SUNNDAL
6612,GRØA,1563,SUNNDAL
6613,GJØRA,1563,SUNNDAL
6614,GJØRA,1563,SUNNDAL
6620,ÅLVUNDEID,1563,SUNNDAL
6622,ÅLVUNDFJORD,1563,SUNNDAL
6623,ÅLVUNDFJORD,1563,SUNNDAL
6627,TINGVOLL,1560,TINGVOLL
6628,MEISINGSET,1560,TINGVOLL
6629,TORJULVÅGEN,1560,TINGVOLL
6630,TINGVOLL,1560,TINGVOLL
6631,BATNFJORDSØRA,1557,GJEMNES
6632,BATNFJORDSØRA,1557,GJEMNES
6633,GJEMNES,1557,GJEMNES
6636,ANGVIK,1557,GJEMNES
6637,FLEMMA,1557,GJEMNES
6638,OSMARKA,1557,GJEMNES
6639,TORVIKBUKT,1557,GJEMNES
6640,KVANNE,1566,SURNADAL
6641,TORVIKBUKT,1557,GJEMNES
6642,STANGVIK,1566,SURNADAL
6643,BØFJORDEN,1566,SURNADAL
6644,BÆVERFJORD,1566,SURNADAL
6645,TODALEN,1566,SURNADAL
6650,SURNADAL,1566,SURNADAL
6652,SURNADAL,1566,SURNADAL
6653,ØVRE SURNADAL,1566,SURNADAL
6655,VINDØLA,1566,SURNADAL
6656,SURNADAL,1566,SURNADAL
6657,RINDAL,5061,RINDAL
6658,RINDALSSKOGEN,5061,RINDAL
6659,RINDAL,5061,RINDAL
6670,ØYDEGARD,1560,TINGVOLL
6671,ØYDEGARD,1560,TINGVOLL
6674,KVISVIK,1560,TINGVOLL
6680,HALSANAUSTAN,5055,HEIM
6683,VÅGLAND,5055,HEIM
6686,VALSØYBOTN,5055,HEIM
6687,VALSØYFJORD,5055,HEIM
6688,VÅGLAND,5055,HEIM
6689,AURE,1576,AURE
6690,AURE,1576,AURE
6693,MJOSUNDET,1576,AURE
6694,FOLDFJORDEN,1576,AURE
6697,VIHALS,1576,AURE
6698,LESUND,1576,AURE
6699,KJØRSVIKBUGEN,1576,AURE
6700,MÅLØY,4602,KINN
6701,MÅLØY,4602,KINN
6702,MÅLØY,4602,KINN
6703,MÅLØY,4602,KINN
6704,DEKNEPOLLEN,4602,KINN
6707,RAUDEBERG,4602,KINN
6708,BRYGGJA,4649,STAD
6710,RAUDEBERG,4602,KINN
6711,BRYGGJA,4649,STAD
6713,ALMENNINGEN,4602,KINN
6714,SILDA,4602,KINN
6715,BARMEN,4649,STAD
6716,HUSEVÅG,4602,KINN
6717,FLATRAKET,4649,STAD
6718,DEKNEPOLLEN,4602,KINN
6719,SKATESTRAUMEN,4648,BREMANGER
6721,SVELGEN,4648,BREMANGER
6723,SVELGEN,4648,BREMANGER
6726,BREMANGER,4648,BREMANGER
6727,BREMANGER,4648,BREMANGER
6728,KALVÅG,4648,BREMANGER
6729,KALVÅG,4648,BREMANGER
6730,DAVIK,4648,BREMANGER
6734,RUGSUND,4648,BREMANGER
6737,ÅLFOTEN,4648,BREMANGER
6740,SELJE,4649,STAD
6741,SELJE,4649,STAD
6750,STADLANDET,4649,STAD
6751,STADLANDET,4649,STAD
6761,HORNINDAL,1577,VOLDA
6763,HORNINDAL,1577,VOLDA
6770,NORDFJORDEID,4649,STAD
6771,NORDFJORDEID,4649,STAD
6772,NORDFJORDEID,4649,STAD
6773,NORDFJORDEID,4649,STAD
6774,NORDFJORDEID,4649,STAD
6776,KJØLSDALEN,4649,STAD
6777,STÅRHEIM,4649,STAD
6778,LOTE,4649,STAD
6779,HOLMØYANE,4649,STAD
6781,STRYN,4651,STRYN
6782,STRYN,4651,STRYN
6783,STRYN,4651,STRYN
6784,OLDEN,4651,STRYN
6788,OLDEN,4651,STRYN
6789,LOEN,4651,STRYN
6790,LOEN,4651,STRYN
6791,OLDEDALEN,4651,STRYN
6792,BRIKSDALSBRE,4651,STRYN
6793,INNVIK,4651,STRYN
6794,INNVIK,4651,STRYN
6795,BLAKSÆTER,4651,STRYN
6796,HOPLAND,4651,STRYN
6797,UTVIK,4651,STRYN
6798,HJELLEDALEN,4651,STRYN
6799,OPPSTRYN,4651,STRYN
6800,FØRDE,4647,SUNNFJORD
6801,FØRDE,4647,SUNNFJORD
6802,FØRDE,4647,SUNNFJORD
6803,FØRDE,4647,SUNNFJORD
6804,FØRDE,4647,SUNNFJORD
6805,FØRDE,4647,SUNNFJORD
6806,NAUSTDAL,4647,SUNNFJORD
6807,FØRDE,4647,SUNNFJORD
6808,FØRDE,4647,SUNNFJORD
6809,FØRDE,4647,SUNNFJORD
6810,FØRDE,4647,SUNNFJORD
6811,FØRDE,4647,SUNNFJORD
6812,FØRDE,4647,SUNNFJORD
6813,FØRDE,4647,SUNNFJORD
6814,FØRDE,4647,SUNNFJORD
6815,FØRDE,4647,SUNNFJORD
6817,NAUSTDAL,4647,SUNNFJORD
6818,HAUKEDALEN,4647,SUNNFJORD
6819,FØRDE,4647,SUNNFJORD
6820,FØRDE,4647,SUNNFJORD
6821,SANDANE,4650,GLOPPEN
6822,SANDANE,4650,GLOPPEN
6823,SANDANE,4650,GLOPPEN
6826,BYRKJELO,4650,GLOPPEN
6827,BREIM,4650,GLOPPEN
6828,HESTENESØYRA,4650,GLOPPEN
6829,HYEN,4650,GLOPPEN
6830,BYRKJELO,4650,GLOPPEN
6831,HYEN,4650,GLOPPEN
6841,SKEI I JØLSTER,4647,SUNNFJORD
6843,SKEI I JØLSTER,4647,SUNNFJORD
6844,VASSENDEN,4647,SUNNFJORD
6845,FJÆRLAND,4640,SOGNDAL
6847,VASSENDEN,4647,SUNNFJORD
6848,FJÆRLAND,4640,SOGNDAL
6849,KAUPANGER,4640,SOGNDAL
6851,SOGNDAL,4640,SOGNDAL
6852,SOGNDAL,4640,SOGNDAL
6853,SOGNDAL,4640,SOGNDAL
6854,KAUPANGER,4640,SOGNDAL
6855,FRØNNINGEN,4642,LÆRDAL
6856,SOGNDAL,4640,SOGNDAL
6857,SOGNDAL,4640,SOGNDAL
6858,FARDAL,4640,SOGNDAL
6859,SLINDE,4640,SOGNDAL
6861,LEIKANGER,4640,SOGNDAL
6863,LEIKANGER,4640,SOGNDAL
6866,GAUPNE,4644,LUSTER
6867,HAFSLO,4644,LUSTER
6868,GAUPNE,4644,LUSTER
6869,HAFSLO,4644,LUSTER
6870,ORNES,4644,LUSTER
6871,JOSTEDAL,4644,LUSTER
6872,LUSTER,4644,LUSTER
6873,MARIFJØRA,4644,LUSTER
6874,LUSTER,4644,LUSTER
6875,HØYHEIMSVIK,4644,LUSTER
6876,SKJOLDEN,4644,LUSTER
6877,FORTUN,4644,LUSTER
6878,VEITASTROND,4644,LUSTER
6879,SOLVORN,4644,LUSTER
6881,ÅRDALSTANGEN,4643,ÅRDAL
6882,ØVRE ÅRDAL,4643,ÅRDAL
6884,ØVRE ÅRDAL,4643,ÅRDAL
6885,ÅRDALSTANGEN,4643,ÅRDAL
6886,LÆRDAL,4642,LÆRDAL
6887,LÆRDAL,4642,LÆRDAL
6888,BORGUND,4642,LÆRDAL
6891,VIK I SOGN,4639,VIK
6893,VIK I SOGN,4639,VIK
6894,VANGSNES,4639,VIK
6895,FEIOS,4639,VIK
6896,FRESVIK,4639,VIK
6898,BALESTRAND,4640,SOGNDAL
6899,BALESTRAND,4640,SOGNDAL
6900,FLORØ,4602,KINN
6901,FLORØ,4602,KINN
6902,FLORØ,4602,KINN
6903,FLORØ,4602,KINN
6905,FLORØ,4602,KINN
6906,FLORØ,4602,KINN
6907,FLORØ,4602,KINN
6908,FLORØ,4602,KINN
6909,FLORØ,4602,KINN
6910,FLORØ,4602,KINN
6912,KINN,4602,KINN
6913,FLORØ,4602,KINN
6914,SVANØYBUKT,4602,KINN
6915,ROGNALDSVÅG,4602,KINN
6916,BAREKSTAD,4602,KINN
6917,BATALDEN,4602,KINN
6918,SØR-SKORPA,4602,KINN
6919,TANSØY,4602,KINN
6921,HARDBAKKE,4636,SOLUND
6924,HARDBAKKE,4636,SOLUND
6926,KRAKHELLA,4636,SOLUND
6927,YTRØYGREND,4636,SOLUND
6928,KOLGROV,4636,SOLUND
6929,HERSVIKBYGDA,4636,SOLUND
6940,EIKEFJORD,4602,KINN
6941,EIKEFJORD,4602,KINN
6942,SVORTEVIK,4602,KINN
6944,STAVANG,4602,KINN
6946,LAVIK,4638,HØYANGER
6947,LAVIK,4638,HØYANGER
6951,LEIRVIK I SOGN,4637,HYLLESTAD
6953,LEIRVIK I SOGN,4637,HYLLESTAD
6957,HYLLESTAD,4637,HYLLESTAD
6958,SØRBØVÅG,4637,HYLLESTAD
6959,SØRBØVÅG,4637,HYLLESTAD
6961,DALE I SUNNFJORD,4646,FJALER
6963,DALE I SUNNFJORD,4646,FJALER
6964,KORSSUND,4646,FJALER
6966,GUDDAL,4646,FJALER
6967,HELLEVIK I FJALER,4646,FJALER
6968,FLEKKE,4646,FJALER
6969,STRAUMSNES,4646,FJALER
6971,SANDE I SUNNFJORD,4647,SUNNFJORD
6973,SANDE I SUNNFJORD,4647,SUNNFJORD
6975,SKILBREI,4647,SUNNFJORD
6976,BYGSTAD,4647,SUNNFJORD
6977,BYGSTAD,4647,SUNNFJORD
6978,VIKSDALEN,4647,SUNNFJORD
6980,ASKVOLL,4645,ASKVOLL
6982,HOLMEDAL,4645,ASKVOLL
6983,KVAMMEN,4645,ASKVOLL
6984,STONGFJORDEN,4645,ASKVOLL
6985,ATLØY,4645,ASKVOLL
6986,VÆRLANDET,4645,ASKVOLL
6987,BULANDET,4645,ASKVOLL
6988,ASKVOLL,4645,ASKVOLL
6991,HØYANGER,4638,HØYANGER
6993,HØYANGER,4638,HØYANGER
6994,NESSANE,4638,HØYANGER
6995,KYRKJEBØ,4638,HØYANGER
6996,VADHEIM,4638,HØYANGER
6997,VADHEIM,4638,HØYANGER
7003,TRONDHEIM,5001,TRONDHEIM
7004,TRONDHEIM,5001,TRONDHEIM
7005,TRONDHEIM,5001,TRONDHEIM
7006,TRONDHEIM,5001,TRONDHEIM
7010,TRONDHEIM,5001,TRONDHEIM
7011,TRONDHEIM,5001,TRONDHEIM
7012,TRONDHEIM,5001,TRONDHEIM
7013,TRONDHEIM,5001,TRONDHEIM
7014,TRONDHEIM,5001,TRONDHEIM
7015,TRONDHEIM,5001,TRONDHEIM
7016,TRONDHEIM,5001,TRONDHEIM
7017,TRONDHEIM,5001,TRONDHEIM
7018,TRONDHEIM,5001,TRONDHEIM
7019,TRONDHEIM,5001,TRONDHEIM
7020,TRONDHEIM,5001,TRONDHEIM
7021,TRONDHEIM,5001,TRONDHEIM
7022,TRONDHEIM,5001,TRONDHEIM
7023,TRONDHEIM,5001,TRONDHEIM
7024,TRONDHEIM,5001,TRONDHEIM
7025,TRONDHEIM,5001,TRONDHEIM
7026,TRONDHEIM,5001,TRONDHEIM
7027,TRONDHEIM,5001,TRONDHEIM
7028,TRONDHEIM,5001,TRONDHEIM
7029,TRONDHEIM,5001,TRONDHEIM
7030,TRONDHEIM,5001,TRONDHEIM
7031,TRONDHEIM,5001,TRONDHEIM
7032,TRONDHEIM,5001,TRONDHEIM
7033,TRONDHEIM,5001,TRONDHEIM
7034,TRONDHEIM,5001,TRONDHEIM
7035,TRONDHEIM,5001,TRONDHEIM
7036,TRONDHEIM,5001,TRONDHEIM
7037,TRONDHEIM,5001,TRONDHEIM
7038,TRONDHEIM,5001,TRONDHEIM
7039,TRONDHEIM,5001,TRONDHEIM
7040,TRONDHEIM,5001,TRONDHEIM
7041,TRONDHEIM,5001,TRONDHEIM
7042,TRONDHEIM,5001,TRONDHEIM
7043,TRONDHEIM,5001,TRONDHEIM
7044,TRONDHEIM,5001,TRONDHEIM
7045,TRONDHEIM,5001,TRONDHEIM
7046,TRONDHEIM,5001,TRONDHEIM
7047,TRONDHEIM,5001,TRONDHEIM
7048,TRONDHEIM,5001,TRONDHEIM
7049,TRONDHEIM,5001,TRONDHEIM
7050,TRONDHEIM,5001,TRONDHEIM
7051,TRONDHEIM,5001,TRONDHEIM
7052,TRONDHEIM,5001,TRONDHEIM
7053,RANHEIM,5001,TRONDHEIM
7054,RANHEIM,5001,TRONDHEIM
7055,RANHEIM,5001,TRONDHEIM
7056,RANHEIM,5001,TRONDHEIM
7057,JONSVATNET,5001,TRONDHEIM
7058,JAKOBSLI,5001,TRONDHEIM
7059,JAKOBSLI,5001,TRONDHEIM
7066,TRONDHEIM,5001,TRONDHEIM
7067,TRONDHEIM,5001,TRONDHEIM
7068,TRONDHEIM,5001,TRONDHEIM
7069,TRONDHEIM,5001,TRONDHEIM
7070,BOSBERG,5001,TRONDHEIM
7071,TRONDHEIM,5001,TRONDHEIM
7072,HEIMDAL,5001,TRONDHEIM
7074,SPONGDAL,5001,TRONDHEIM
7075,TILLER,5001,TRONDHEIM
7078,SAUPSTAD,5001,TRONDHEIM
7079,FLATÅSEN,5001,TRONDHEIM
7080,HEIMDAL,5001,TRONDHEIM
7081,SJETNEMARKA,5001,TRONDHEIM
7082,KATTEM,5001,TRONDHEIM
7083,LEINSTRAND,5001,TRONDHEIM
7088,HEIMDAL,5001,TRONDHEIM
7089,HEIMDAL,5001,TRONDHEIM
7091,TILLER,5001,TRONDHEIM
7092,TILLER,5001,TRONDHEIM
7093,TILLER,5001,TRONDHEIM
7097,SAUPSTAD,5001,TRONDHEIM
7098,SAUPSTAD,5001,TRONDHEIM
7099,FLATÅSEN,5001,TRONDHEIM
7100,RISSA,5054,INDRE FOSEN
7101,RISSA,5054,INDRE FOSEN
7105,STADSBYGD,5054,INDRE FOSEN
7110,FEVÅG,5054,INDRE FOSEN
7111,HASSELVIKA,5054,INDRE FOSEN
7112,HASSELVIKA,5054,INDRE FOSEN
7113,HUSBYSJØEN,5054,INDRE FOSEN
7114,RÅKVÅG,5054,INDRE FOSEN
7115,HUSBYSJØEN,5054,INDRE FOSEN
7116,RÅKVÅG,5054,INDRE FOSEN
7119,STADSBYGD,5054,INDRE FOSEN
7120,LEKSVIK,5054,INDRE FOSEN
7121,LEKSVIK,5054,INDRE FOSEN
7125,VANVIKAN,5054,INDRE FOSEN
7126,VANVIKAN,5054,INDRE FOSEN
7127,OPPHAUG,5057,ØRLAND
7129,BREKSTAD,5057,ØRLAND
7130,BREKSTAD,5057,ØRLAND
7140,OPPHAUG,5057,ØRLAND
7142,UTHAUG,5057,ØRLAND
7150,STORFOSNA,5057,ØRLAND
7151,STORFOSNA,5057,ØRLAND
7152,KRÅKVÅG,5057,ØRLAND
7153,GARTEN,5057,ØRLAND
7156,LEKSA,5059,ORKLAND
7159,BJUGN,5057,ØRLAND
7160,BJUGN,5057,ØRLAND
7164,LYSØYSUNDET,5057,ØRLAND
7165,OKSVOLL,5057,ØRLAND
7166,TARVA,5057,ØRLAND
7167,VALLERSUND,5057,ØRLAND
7168,LYSØYSUNDET,5057,ØRLAND
7169,ÅFJORD,5058,ÅFJORD
7170,ÅFJORD,5058,ÅFJORD
7174,REVSNES,5058,ÅFJORD
7175,STOKKØY,5058,ÅFJORD
7176,LINESØYA,5058,ÅFJORD
7177,REVSNES,5058,ÅFJORD
7178,STOKKØY,5058,ÅFJORD
7180,ROAN,5058,ÅFJORD
7181,ROAN,5058,ÅFJORD
7190,BESSAKER,5058,ÅFJORD
7194,BRANDSFJORD,5058,ÅFJORD
7200,KYRKSÆTERØRA,5055,HEIM
7201,KYRKSÆTERØRA,5055,HEIM
7203,VINJEØRA,5055,HEIM
7206,HELLANDSJØEN,5055,HEIM
7211,KORSVEGEN,5028,MELHUS
7212,KORSVEGEN,5028,MELHUS
7213,GÅSBAKKEN,5028,MELHUS
7221,MELHUS,5028,MELHUS
7223,MELHUS,5028,MELHUS
7224,MELHUS,5028,MELHUS
7227,GIMSE,5028,MELHUS
7228,KVÅL,5028,MELHUS
7231,LUNDAMO,5028,MELHUS
7232,LUNDAMO,5028,MELHUS
7234,LER,5028,MELHUS
7235,LER,5028,MELHUS
7236,HOVIN I GAULDAL,5028,MELHUS
7238,HOVIN I GAULDAL,5028,MELHUS
7239,HITRA,5056,HITRA
7240,HITRA,5056,HITRA
7241,ANSNES,5056,HITRA
7242,KNARRLAGSUND,5056,HITRA
7243,KVENVÆR,5056,HITRA
7244,KNARRLAGSUND,5056,HITRA
7245,KVENVÆR,5056,HITRA
7246,SANDSTAD,5056,HITRA
7247,HESTVIKA,5056,HITRA
7250,MELANDSJØ,5056,HITRA
7252,DOLMØY,5056,HITRA
7255,SUNDLANDET,5056,HITRA
7256,HEMNSKJELA,5056,HITRA
7257,SNILLFJORD,5059,ORKLAND
7259,SNILLFJORD,5059,ORKLAND
7260,SISTRANDA,5014,FRØYA
7261,SISTRANDA,5014,FRØYA
7263,HAMARVIK,5014,FRØYA
7264,HAMARVIK,5014,FRØYA
7266,KVERVA,5014,FRØYA
7267,KVERVA,5014,FRØYA
7268,TITRAN,5014,FRØYA
7270,DYRVIK,5014,FRØYA
7273,NORDDYRØY,5014,FRØYA
7274,NORDDYRØY,5014,FRØYA
7280,SULA,5014,FRØYA
7282,BOGØYVÆR,5014,FRØYA
7284,MAUSUND,5014,FRØYA
7285,GJÆSINGEN,5014,FRØYA
7286,SØRBURØY,5014,FRØYA
7287,SAUØY,5014,FRØYA
7288,SOKNEDAL,5027,MIDTRE GAULDAL
7289,SOKNEDAL,5027,MIDTRE GAULDAL
7290,STØREN,5027,MIDTRE GAULDAL
7291,STØREN,5027,MIDTRE GAULDAL
7295,ROGNES,5027,MIDTRE GAULDAL
7298,BUDALEN,5027,MIDTRE GAULDAL
7300,ORKANGER,5059,ORKLAND
7301,ORKANGER,5059,ORKLAND
7302,ORKANGER,5059,ORKLAND
7303,ORKANGER,5059,ORKLAND
7310,GJØLME,5059,ORKLAND
7315,LENSVIK,5059,ORKLAND
7316,LENSVIK,5059,ORKLAND
7318,AGDENES,5059,ORKLAND
7319,AGDENES,5059,ORKLAND
7320,FANNREM,5059,ORKLAND
7321,FANNREM,5059,ORKLAND
7327,SVORKMO,5059,ORKLAND
7329,SVORKMO,5059,ORKLAND
7331,LØKKEN VERK,5059,ORKLAND
7332,LØKKEN VERK,5059,ORKLAND
7333,STORÅS,5059,ORKLAND
7334,STORÅS,5059,ORKLAND
7335,JERPSTAD,5059,ORKLAND
7336,MELDAL,5059,ORKLAND
7338,MELDAL,5059,ORKLAND
7340,OPPDAL,5021,OPPDAL
7341,OPPDAL,5021,OPPDAL
7342,LØNSET,5021,OPPDAL
7343,VOGNILL,5021,OPPDAL
7345,DRIVA,5021,OPPDAL
7350,BUVIKA,5029,SKAUN
7351,BUVIKA,5029,SKAUN
7353,BØRSA,5029,SKAUN
7354,VIGGJA,5029,SKAUN
7355,EGGKLEIVA,5029,SKAUN
7356,SKAUN,5029,SKAUN
7357,SKAUN,5029,SKAUN
7358,BØRSA,5029,SKAUN
7361,RØROS,5025,RØROS
7370,BREKKEBYGD,5025,RØROS
7372,GLÅMOS,5025,RØROS
7374,RØROS,5025,RØROS
7375,RØROS,5025,RØROS
7380,ÅLEN,5026,HOLTÅLEN
7383,HALTDALEN,5026,HOLTÅLEN
7384,ÅLEN,5026,HOLTÅLEN
7386,SINGSÅS,5027,MIDTRE GAULDAL
7387,SINGSÅS,5027,MIDTRE GAULDAL
7388,SINGSÅS,5027,MIDTRE GAULDAL
7391,RENNEBU,5022,RENNEBU
7392,RENNEBU,5022,RENNEBU
7393,RENNEBU,5022,RENNEBU
7397,RENNEBU,5022,RENNEBU
7398,RENNEBU,5022,RENNEBU
7399,RENNEBU,5022,RENNEBU
7400,TRONDHEIM,5001,TRONDHEIM
7401,TRONDHEIM,5001,TRONDHEIM
7402,TRONDHEIM,5001,TRONDHEIM
7403,TRONDHEIM,5001,TRONDHEIM
7404,TRONDHEIM,5001,TRONDHEIM
7405,TRONDHEIM,5001,TRONDHEIM
7406,TRONDHEIM,5001,TRONDHEIM
7407,TRONDHEIM,5001,TRONDHEIM
7408,TRONDHEIM,5001,TRONDHEIM
7409,TRONDHEIM,5001,TRONDHEIM
7410,TRONDHEIM,5001,TRONDHEIM
7411,TRONDHEIM,5001,TRONDHEIM
7412,TRONDHEIM,5001,TRONDHEIM
7413,TRONDHEIM,5001,TRONDHEIM
7414,TRONDHEIM,5001,TRONDHEIM
7415,TRONDHEIM,5001,TRONDHEIM
7416,TRONDHEIM,5001,TRONDHEIM
7417,TRONDHEIM,5001,TRONDHEIM
7418,TRONDHEIM,5001,TRONDHEIM
7419,TRONDHEIM,5001,TRONDHEIM
7420,TRONDHEIM,5001,TRONDHEIM
7421,TRONDHEIM,5001,TRONDHEIM
7422,TRONDHEIM,5001,TRONDHEIM
7424,TRONDHEIM,5001,TRONDHEIM
7425,TRONDHEIM,5001,TRONDHEIM
7426,TRONDHEIM,5001,TRONDHEIM
7427,TRONDHEIM,5001,TRONDHEIM
7428,TRONDHEIM,5001,TRONDHEIM
7429,TRONDHEIM,5001,TRONDHEIM
7430,TRONDHEIM,5001,TRONDHEIM
7431,TRONDHEIM,5001,TRONDHEIM
7432,TRONDHEIM,5001,TRONDHEIM
7433,TRONDHEIM,5001,TRONDHEIM
7434,TRONDHEIM,5001,TRONDHEIM
7435,TRONDHEIM,5001,TRONDHEIM
7436,TRONDHEIM,5001,TRONDHEIM
7437,TRONDHEIM,5001,TRONDHEIM
7438,TRONDHEIM,5001,TRONDHEIM
7439,TRONDHEIM,5001,TRONDHEIM
7440,TRONDHEIM,5001,TRONDHEIM
7441,TRONDHEIM,5001,TRONDHEIM
7442,TRONDHEIM,5001,TRONDHEIM
7443,TRONDHEIM,5001,TRONDHEIM
7444,TRONDHEIM,5001,TRONDHEIM
7445,TRONDHEIM,5001,TRONDHEIM
7446,TRONDHEIM,5001,TRONDHEIM
7447,TRONDHEIM,5001,TRONDHEIM
7448,TRONDHEIM,5001,TRONDHEIM
7449,TRONDHEIM,5001,TRONDHEIM
7450,TRONDHEIM,5001,TRONDHEIM
7451,TRONDHEIM,5001,TRONDHEIM
7452,TRONDHEIM,5001,TRONDHEIM
7453,TRONDHEIM,5001,TRONDHEIM
7454,TRONDHEIM,5001,TRONDHEIM
7455,TRONDHEIM,5001,TRONDHEIM
7456,TRONDHEIM,5001,TRONDHEIM
7457,TRONDHEIM,5001,TRONDHEIM
7458,TRONDHEIM,5001,TRONDHEIM
7459,TRONDHEIM,5001,TRONDHEIM
7462,TRONDHEIM,5001,TRONDHEIM
7463,TRONDHEIM,5001,TRONDHEIM
7464,TRONDHEIM,5001,TRONDHEIM
7465,TRONDHEIM,5001,TRONDHEIM
7466,TRONDHEIM,5001,TRONDHEIM
7467,TRONDHEIM,5001,TRONDHEIM
7468,TRONDHEIM,5001,TRONDHEIM
7469,TRONDHEIM,5001,TRONDHEIM
7470,TRONDHEIM,5001,TRONDHEIM
7471,TRONDHEIM,5001,TRONDHEIM
7472,TRONDHEIM,5001,TRONDHEIM
7473,TRONDHEIM,5001,TRONDHEIM
7474,TRONDHEIM,5001,TRONDHEIM
7475,TRONDHEIM,5001,TRONDHEIM
7476,TRONDHEIM,5001,TRONDHEIM
7477,TRONDHEIM,5001,TRONDHEIM
7478,TRONDHEIM,5001,TRONDHEIM
7479,TRONDHEIM,5001,TRONDHEIM
7480,TRONDHEIM,5001,TRONDHEIM
7481,TRONDHEIM,5001,TRONDHEIM
7482,TRONDHEIM,5001,TRONDHEIM
7483,TRONDHEIM,5001,TRONDHEIM
7484,TRONDHEIM,5001,TRONDHEIM
7485,TRONDHEIM,5001,TRONDHEIM
7486,TRONDHEIM,5001,TRONDHEIM
7487,TRONDHEIM,5001,TRONDHEIM
7488,TRONDHEIM,5001,TRONDHEIM
7489,TRONDHEIM,5001,TRONDHEIM
7490,TRONDHEIM,5001,TRONDHEIM
7491,TRONDHEIM,5001,TRONDHEIM
7492,TRONDHEIM,5001,TRONDHEIM
7493,TRONDHEIM,5001,TRONDHEIM
7494,TRONDHEIM,5001,TRONDHEIM
7495,TRONDHEIM,5001,TRONDHEIM
7496,TRONDHEIM,5001,TRONDHEIM
7497,TRONDHEIM,5001,TRONDHEIM
7498,TRONDHEIM,5001,TRONDHEIM
7500,STJØRDAL,5035,STJØRDAL
7501,STJØRDAL,5035,STJØRDAL
7502,STJØRDAL,5035,STJØRDAL
7503,STJØRDAL,5035,STJØRDAL
7504,STJØRDAL,5035,STJØRDAL
7505,STJØRDAL,5035,STJØRDAL
7506,STJØRDAL,5035,STJØRDAL
7507,STJØRDAL,5035,STJØRDAL
7508,STJØRDAL,5035,STJØRDAL
7509,STJØRDAL,5035,STJØRDAL
7510,SKATVAL,5035,STJØRDAL
7511,SKATVAL,5035,STJØRDAL
7512,STJØRDAL,5035,STJØRDAL
7513,STJØRDAL,5035,STJØRDAL
7514,STJØRDAL,5035,STJØRDAL
7517,HELL,5035,STJØRDAL
7519,ELVARLI,5035,STJØRDAL
7520,HEGRA,5035,STJØRDAL
7525,FLORNES,5035,STJØRDAL
7529,HEGRA,5035,STJØRDAL
7530,MERÅKER,5034,MERÅKER
7531,MERÅKER,5034,MERÅKER
7533,KOPPERÅ,5034,MERÅKER
7540,KLÆBU,5001,TRONDHEIM
7541,KLÆBU,5001,TRONDHEIM
7549,TANEM,5001,TRONDHEIM
7550,HOMMELVIK,5031,MALVIK
7551,HOMMELVIK,5031,MALVIK
7560,VIKHAMMER,5031,MALVIK
7562,SAKSVIK,5031,MALVIK
7563,MALVIK,5031,MALVIK
7566,VIKHAMMER,5031,MALVIK
7570,HELL,5035,STJØRDAL
7580,SELBU,5032,SELBU
7581,SELBU,5032,SELBU
7583,SELBU,5032,SELBU
7584,SELBUSTRAND,5032,SELBU
7590,TYDAL,5033,TYDAL
7591,TYDAL,5033,TYDAL
7596,FLAKNAN,5032,SELBU
7600,LEVANGER,5037,LEVANGER
7601,LEVANGER,5037,LEVANGER
7602,LEVANGER,5037,LEVANGER
7603,LEVANGER,5037,LEVANGER
7604,LEVANGER,5037,LEVANGER
7605,LEVANGER,5037,LEVANGER
7606,LEVANGER,5037,LEVANGER
7607,LEVANGER,5037,LEVANGER
7608,LEVANGER,5037,LEVANGER
7609,LEVANGER,5037,LEVANGER
7610,LEVANGER,5037,LEVANGER
7619,SKOGN,5037,LEVANGER
7620,SKOGN,5037,LEVANGER
7622,MARKABYGDA,5037,LEVANGER
7623,RONGLAN,5037,LEVANGER
7624,EKNE,5037,LEVANGER
7629,YTTERØY,5037,LEVANGER
7630,ÅSEN,5037,LEVANGER
7631,ÅSEN,5037,LEVANGER
7632,ÅSENFJORD,5037,LEVANGER
7633,FROSTA,5036,FROSTA
7634,FROSTA,5036,FROSTA
7650,VERDAL,5038,VERDAL
7651,VERDAL,5038,VERDAL
7652,VERDAL,5038,VERDAL
7653,VERDAL,5038,VERDAL
7654,VERDAL,5038,VERDAL
7655,VERDAL,5038,VERDAL
7656,VERDAL,5038,VERDAL
7657,VERDAL,5038,VERDAL
7658,VERDAL,5038,VERDAL
7660,VUKU,5038,VERDAL
7661,VUKU,5038,VERDAL
7670,INDERØY,5053,INDERØY
7671,INDERØY,5053,INDERØY
7672,INDERØY,5053,INDERØY
7690,MOSVIK,5053,INDERØY
7691,MOSVIK,5053,INDERØY
7701,STEINKJER,5006,STEINKJER
7702,STEINKJER,5006,STEINKJER
7703,STEINKJER,5006,STEINKJER
7704,STEINKJER,5006,STEINKJER
7705,STEINKJER,5006,STEINKJER
7707,STEINKJER,5006,STEINKJER
7708,STEINKJER,5006,STEINKJER
7709,STEINKJER,5006,STEINKJER
7710,SPARBU,5006,STEINKJER
7711,STEINKJER,5006,STEINKJER
7712,STEINKJER,5006,STEINKJER
7713,STEINKJER,5006,STEINKJER
7714,STEINKJER,5006,STEINKJER
7715,STEINKJER,5006,STEINKJER
7716,STEINKJER,5006,STEINKJER
7717,STEINKJER,5006,STEINKJER
7718,STEINKJER,5006,STEINKJER
7724,STEINKJER,5006,STEINKJER
7725,STEINKJER,5006,STEINKJER
7726,STEINKJER,5006,STEINKJER
7729,STEINKJER,5006,STEINKJER
7730,BEITSTAD,5006,STEINKJER
7732,STEINKJER,5006,STEINKJER
7733,SPARBU,5006,STEINKJER
7734,STEINKJER,5006,STEINKJER
7735,STEINKJER,5006,STEINKJER
7736,STEINKJER,5006,STEINKJER
7737,STEINKJER,5006,STEINKJER
7738,STEINKJER,5006,STEINKJER
7739,BEITSTAD,5006,STEINKJER
7740,STEINSDALEN,5020,OSEN
7741,STEINSDALEN,5020,OSEN
7742,YTTERVÅG,5020,OSEN
7744,HEPSØY,5020,OSEN
7745,OPPLAND,5049,FLATANGER
7746,HASVÅG,5049,FLATANGER
7748,SETER,5020,OSEN
7750,NAMDALSEID,5007,NAMSOS
7751,NAMDALSEID,5007,NAMSOS
7760,SNÅSA,5041,SNÅSA
7761,SNÅSA,5041,SNÅSA
7770,FLATANGER,5049,FLATANGER
7771,FLATANGER,5049,FLATANGER
7777,NORD-STATLAND,5007,NAMSOS
7790,MALM,5006,STEINKJER
7791,MALM,5006,STEINKJER
7795,FOLLAFOSS,5006,STEINKJER
7796,FOLLAFOSS,5006,STEINKJER
7797,VERRABOTN,5054,INDRE FOSEN
7800,NAMSOS,5007,NAMSOS
7801,NAMSOS,5007,NAMSOS
7802,NAMSOS,5007,NAMSOS
7803,NAMSOS,5007,NAMSOS
7804,NAMSOS,5007,NAMSOS
7805,NAMSOS,5007,NAMSOS
7808,NAMSOS,5007,NAMSOS
7810,NAMSOS,5007,NAMSOS
7817,SALSNES,5007,NAMSOS
7818,LUND,5007,NAMSOS
7819,FOSSLANDSOSEN,5007,NAMSOS
7820,SPILLUM,5007,NAMSOS
7821,SPILLUM,5007,NAMSOS
7822,BANGSUND,5007,NAMSOS
7823,BANGSUND,5007,NAMSOS
7856,JØA,5007,NAMSOS
7860,SKAGE I NAMDALEN,5047,OVERHALLA
7863,OVERHALLA,5047,OVERHALLA
7864,OVERHALLA,5047,OVERHALLA
7869,SKAGE I NAMDALEN,5047,OVERHALLA
7870,GRONG,5045,GRONG
7871,GRONG,5045,GRONG
7873,HARRAN,5045,GRONG
7874,HARRAN,5045,GRONG
7876,KONGSMOEN,5046,HØYLANDET
7877,HØYLANDET,5046,HØYLANDET
7878,HØYLANDET,5046,HØYLANDET
7881,NORDLI,5042,LIERNE
7882,NORDLI,5042,LIERNE
7884,SØRLI,5042,LIERNE
7885,SØRLI,5042,LIERNE
7890,NAMSSKOGAN,5044,NAMSSKOGAN
7891,NAMSSKOGAN,5044,NAMSSKOGAN
7892,TRONES,5044,NAMSSKOGAN
7893,SKOROVATN,5044,NAMSSKOGAN
7896,BREKKVASSELV,5044,NAMSSKOGAN
7897,LIMINGEN,5043,RØYRVIK
7898,LIMINGEN,5043,RØYRVIK
7900,RØRVIK,5060,NÆRØYSUND
7901,RØRVIK,5060,NÆRØYSUND
7902,RØRVIK,5060,NÆRØYSUND
7940,OTTERSØY,5060,NÆRØYSUND
7941,OTTERSØY,5060,NÆRØYSUND
7944,INDRE NÆRØY,5060,NÆRØYSUND
7950,ABELVÆR,5060,NÆRØYSUND
7960,SALSBRUKET,5060,NÆRØYSUND
7970,KOLVEREID,5060,NÆRØYSUND
7971,KOLVEREID,5060,NÆRØYSUND
7973,GJERDINGA,5060,NÆRØYSUND
7979,TERRÅK,1811,BINDAL
7980,TERRÅK,1811,BINDAL
7981,HARANGSFJORD,1811,BINDAL
7982,BINDALSEIDET,1811,BINDAL
7983,BINDALSEIDET,1811,BINDAL
7985,FOLDEREID,5060,NÆRØYSUND
7986,FOLDEREID,5060,NÆRØYSUND
7990,NAUSTBUKTA,5060,NÆRØYSUND
7993,GUTVIK,5052,LEKA
7994,LEKA,5052,LEKA
7995,LEKA,5052,LEKA
8001,BODØ,1804,BODØ
8002,BODØ,1804,BODØ
8003,BODØ,1804,BODØ
8004,BODØ,1804,BODØ
8005,BODØ,1804,BODØ
8006,BODØ,1804,BODØ
8007,BODØ,1804,BODØ
8008,BODØ,1804,BODØ
8009,BODØ,1804,BODØ
8010,BODØ,1804,BODØ
8011,BODØ,1804,BODØ
8012,BODØ,1804,BODØ
8013,BODØ,1804,BODØ
8014,BODØ,1804,BODØ
8015,BODØ,1804,BODØ
8016,BODØ,1804,BODØ
8019,BODØ,1804,BODØ
8020,BODØ,1804,BODØ
8021,BODØ,1804,BODØ
8022,BODØ,1804,BODØ
8023,BODØ,1804,BODØ
8026,BODØ,1804,BODØ
8027,BODØ,1804,BODØ
8028,BODØ,1804,BODØ
8029,BODØ,1804,BODØ
8030,BODØ,1804,BODØ
8031,BODØ,1804,BODØ
8037,BODØ,1804,BODØ
8038,BODØ,1804,BODØ
8041,BODØ,1804,BODØ
8047,BODØ,1804,BODØ
8048,BODØ,1804,BODØ
8049,BODØ,1804,BODØ
8050,TVERLANDET,1804,BODØ
8056,SALTSTRAUMEN,1804,BODØ
8057,SALTSTRAUMEN,1804,BODØ
8058,TVERLANDET,1804,BODØ
8062,VÆRØY,1857,VÆRØY
8063,VÆRØY,1857,VÆRØY
8064,RØST,1856,RØST
8065,RØST,1856,RØST
8070,BODØ,1804,BODØ
8071,BODØ,1804,BODØ
8072,BODØ,1804,BODØ
8073,BODØ,1804,BODØ
8074,BODØ,1804,BODØ
8075,BODØ,1804,BODØ
8076,BODØ,1804,BODØ
8079,BODØ,1804,BODØ
8084,BODØ,1804,BODØ
8086,BODØ,1804,BODØ
8087,BODØ,1804,BODØ
8088,BODØ,1804,BODØ
8089,BODØ,1804,BODØ
8091,BODØ,1804,BODØ
8092,BODØ,1804,BODØ
8093,KJERRINGØY,1804,BODØ
8094,FLEINVÆR,1838,GILDESKÅL
8095,HELLIGVÆR,1804,BODØ
8096,BLIKSVÆR,1804,BODØ
8097,GIVÆR,1804,BODØ
8098,LANDEGODE,1804,BODØ
8099,JAN MAYEN,2211,JAN MAYEN
8100,MISVÆR,1804,BODØ
8102,SKJERSTAD,1804,BODØ
8103,BREIVIK I SALTEN,1804,BODØ
8108,MISVÆR,1804,BODØ
8110,MOLDJORD,1839,BEIARN
8114,TOLLÅ,1839,BEIARN
8118,MOLDJORD,1839,BEIARN
8120,NYGÅRDSJØEN,1838,GILDESKÅL
8128,YTRE BEIARN,1839,BEIARN
8130,SANDHORNØY,1838,GILDESKÅL
8134,SØRARNØY,1838,GILDESKÅL
8135,SØRARNØY,1838,GILDESKÅL
8136,NORDARNØY,1838,GILDESKÅL
8138,INNDYR,1838,GILDESKÅL
8140,INNDYR,1838,GILDESKÅL
8145,STORVIK,1838,GILDESKÅL
8146,REIPÅ,1837,MELØY
8149,NEVERDAL,1837,MELØY
8150,ØRNES,1837,MELØY
8151,ØRNES,1837,MELØY
8157,MELØY,1837,MELØY
8158,BOLGA,1837,MELØY
8159,STØTT,1837,MELØY
8160,GLOMFJORD,1837,MELØY
8161,GLOMFJORD,1837,MELØY
8168,ENGAVÅGEN,1837,MELØY
8170,ENGAVÅGEN,1837,MELØY
8178,HALSA,1837,MELØY
8179,HALSA,1837,MELØY
8181,MYKEN,1836,RØDØY
8182,MELFJORDBOTN,1836,RØDØY
8183,VÅGAHOLMEN,1836,RØDØY
8184,ÅGSKARDET,1837,MELØY
8185,VÅGAHOLMEN,1836,RØDØY
8186,TJONGSFJORDEN,1836,RØDØY
8187,JEKTVIK,1836,RØDØY
8188,NORDVERNES,1836,RØDØY
8189,GJERSVIKGRENDA,1836,RØDØY
8190,SØRFJORDEN,1836,RØDØY
8193,RØDØY,1836,RØDØY
8195,GJERØY,1836,RØDØY
8196,SELSØYVIK,1836,RØDØY
8197,STORSELSØY,1836,RØDØY
8198,NORDNESØY,1836,RØDØY
8200,FAUSKE,1841,FAUSKE
8201,FAUSKE,1841,FAUSKE
8202,FAUSKE,1841,FAUSKE
8203,FAUSKE,1841,FAUSKE
8205,FAUSKE,1841,FAUSKE
8206,FAUSKE,1841,FAUSKE
8207,FAUSKE,1841,FAUSKE
8208,FAUSKE,1841,FAUSKE
8209,FAUSKE,1841,FAUSKE
8210,FAUSKE,1841,FAUSKE
8211,FAUSKE,1841,FAUSKE
8214,FAUSKE,1841,FAUSKE
8215,VALNESFJORD,1841,FAUSKE
8218,FAUSKE,1841,FAUSKE
8219,FAUSKE,1841,FAUSKE
8220,RØSVIK,1845,SØRFOLD
8226,STRAUMEN,1845,SØRFOLD
8230,SULITJELMA,1841,FAUSKE
8231,SULITJELMA,1841,FAUSKE
8232,STRAUMEN,1845,SØRFOLD
8233,VALNESFJORD,1841,FAUSKE
8250,ROGNAN,1840,SALTDAL
8251,ROGNAN,1840,SALTDAL
8252,ROGNAN,1840,SALTDAL
8253,ROGNAN,1840,SALTDAL
8255,RØKLAND,1840,SALTDAL
8256,RØKLAND,1840,SALTDAL
8260,INNHAVET,1875,HAMARØY
8261,INNHAVET,1875,HAMARØY
8264,ENGAN,1845,SØRFOLD
8266,MØRSVIKBOTN,1845,SØRFOLD
8270,DRAG,1875,HAMARØY
8271,DRAG,1875,HAMARØY
8273,NEVERVIK,1875,HAMARØY
8274,MUSKEN,1875,HAMARØY
8275,STORJORD I TYSFJORD,1875,HAMARØY
8276,ULVSVÅG,1875,HAMARØY
8278,STORÅ,1806,NARVIK
8281,LEINESFJORD,1848,STEIGEN
8283,LEINESFJORD,1848,STEIGEN
8285,LEINES,1848,STEIGEN
8286,NORDFOLD,1848,STEIGEN
8287,ENGELØYA,1848,STEIGEN
8288,BOGØY,1848,STEIGEN
8289,ENGELØYA,1848,STEIGEN
8290,SKUTVIK,1875,HAMARØY
8294,HAMARØY,1875,HAMARØY
8297,TRANØY,1875,HAMARØY
8298,HAMARØY,1875,HAMARØY
8300,SVOLVÆR,1865,VÅGAN
8301,SVOLVÆR,1865,VÅGAN
8305,SVOLVÆR,1865,VÅGAN
8309,KABELVÅG,1865,VÅGAN
8310,KABELVÅG,1865,VÅGAN
8311,HENNINGSVÆR,1865,VÅGAN
8312,HENNINGSVÆR,1865,VÅGAN
8313,KLEPPSTAD,1865,VÅGAN
8314,GIMSØYSAND,1865,VÅGAN
8315,LAUKVIK,1865,VÅGAN
8316,LAUPSTAD,1865,VÅGAN
8317,STRØNSTAD,1866,HADSEL
8320,SKROVA,1865,VÅGAN
8322,BRETTESNES,1865,VÅGAN
8323,STORFJELL,1865,VÅGAN
8324,DIGERMULEN,1865,VÅGAN
8325,TENGELFJORD,1866,HADSEL
8326,MYRLAND,1866,HADSEL
8328,STORMOLLA,1865,VÅGAN
8340,STAMSUND,1860,VESTVÅGØY
8352,SENNESVIK,1860,VESTVÅGØY
8357,VALBERG,1860,VESTVÅGØY
8360,BØSTAD,1860,VESTVÅGØY
8361,BØSTAD,1860,VESTVÅGØY
8370,LEKNES,1860,VESTVÅGØY
8372,GRAVDAL,1860,VESTVÅGØY
8373,BALLSTAD,1860,VESTVÅGØY
8374,BALLSTAD,1860,VESTVÅGØY
8376,LEKNES,1860,VESTVÅGØY
8377,GRAVDAL,1860,VESTVÅGØY
8378,STAMSUND,1860,VESTVÅGØY
8380,RAMBERG,1859,FLAKSTAD
8382,NAPP,1859,FLAKSTAD
8384,SUND I LOFOTEN,1859,FLAKSTAD
8387,FREDVANG,1859,FLAKSTAD
8388,RAMBERG,1859,FLAKSTAD
8390,REINE,1874,MOSKENES
8392,SØRVÅGEN,1874,MOSKENES
8393,SØRVÅGEN,1874,MOSKENES
8398,REINE,1874,MOSKENES
8400,SORTLAND,1870,SORTLAND
8401,SORTLAND,1870,SORTLAND
8402,SORTLAND,1870,SORTLAND
8403,SORTLAND,1870,SORTLAND
8404,SORTLAND,1870,SORTLAND
8405,SORTLAND,1870,SORTLAND
8406,SORTLAND,1870,SORTLAND
8407,SORTLAND,1870,SORTLAND
8408,SORTLAND,1868,ØKSNES
8409,GULLESFJORD,5411,KVÆFJORD
8410,LØDINGEN,1851,LØDINGEN
8411,LØDINGEN,1851,LØDINGEN
8412,VESTBYGD,1851,LØDINGEN
8413,KVITNES,1866,HADSEL
8414,HENNES,1866,HADSEL
8415,SORTLAND,1870,SORTLAND
8416,SORTLAND,1870,SORTLAND
8419,SORTLAND,1870,SORTLAND
8426,BARKESTAD,1868,ØKSNES
8428,TUNSTAD,1868,ØKSNES
8430,MYRE,1868,ØKSNES
8432,ALSVÅG,1868,ØKSNES
8438,STØ,1868,ØKSNES
8439,MYRE,1868,ØKSNES
8445,MELBU,1866,HADSEL
8447,LONKAN,1866,HADSEL
8450,STOKMARKNES,1866,HADSEL
8455,STOKMARKNES,1866,HADSEL
8459,MELBU,1866,HADSEL
8465,STRAUMSJØEN,1867,BØ
8469,BØ I VESTERÅLEN,1867,BØ
8470,BØ I VESTERÅLEN,1867,BØ
8475,STRAUMSJØEN,1867,BØ
8480,ANDENES,1871,ANDØY
8481,BLEIK,1871,ANDØY
8483,ANDENES,1871,ANDØY
8484,RISØYHAMN,1871,ANDØY
8485,DVERBERG,1871,ANDØY
8488,NØSS,1871,ANDØY
8489,NORDMELA,1871,ANDØY
8493,RISØYHAMN,1871,ANDØY
8501,NARVIK,1806,NARVIK
8502,NARVIK,1806,NARVIK
8503,NARVIK,1806,NARVIK
8504,NARVIK,1806,NARVIK
8505,NARVIK,1806,NARVIK
8506,NARVIK,1806,NARVIK
8507,NARVIK,1806,NARVIK
8508,NARVIK,1806,NARVIK
8509,NARVIK,1806,NARVIK
8510,NARVIK,1806,NARVIK
8512,NARVIK,1806,NARVIK
8513,ANKENES,1806,NARVIK
8514,NARVIK,1806,NARVIK
8515,NARVIK,1806,NARVIK
8516,NARVIK,1806,NARVIK
8517,NARVIK,1806,NARVIK
8518,NARVIK,1806,NARVIK
8519,NARVIK,1806,NARVIK
8520,ANKENES,1806,NARVIK
8521,ANKENES,1806,NARVIK
8522,BEISFJORD,1806,NARVIK
8523,SKJOMEN,1806,NARVIK
8530,BJERKVIK,1806,NARVIK
8531,BJERKVIK,1806,NARVIK
8533,BOGEN I OFOTEN,1853,EVENES
8534,LILAND,1853,EVENES
8535,TÅRSTAD,1853,EVENES
8536,EVENES,1853,EVENES
8539,BOGEN I OFOTEN,1853,EVENES
8540,BALLANGEN,1806,NARVIK
8543,KJELDEBOTN,1806,NARVIK
8546,BALLANGEN,1806,NARVIK
8590,KJØPSVIK,1806,NARVIK
8591,KJØPSVIK,1806,NARVIK
8601,MO I RANA,1833,RANA
8602,MO I RANA,1833,RANA
8603,MO I RANA,1833,RANA
8604,MO I RANA,1833,RANA
8607,MO I RANA,1833,RANA
8608,MO I RANA,1833,RANA
8609,MO I RANA,1833,RANA
8610,MO I RANA,1833,RANA
8613,MO I RANA,1833,RANA
8614,MO I RANA,1833,RANA
8615,SKONSENG,1833,RANA
8616,MO I RANA,1833,RANA
8617,DALSGRENDA,1833,RANA
8618,MO I RANA,1833,RANA
8619,MO I RANA,1833,RANA
8622,MO I RANA,1833,RANA
8624,MO I RANA,1833,RANA
8626,MO I RANA,1833,RANA
8630,STORFORSHEI,1833,RANA
8634,MO I RANA,1833,RANA
8638,STORFORSHEI,1833,RANA
8640,HEMNESBERGET,1832,HEMNES
8641,HEMNESBERGET,1832,HEMNES
8642,FINNEIDFJORD,1832,HEMNES
8643,BJERKA,1832,HEMNES
8644,BJERKA,1832,HEMNES
8646,KORGEN,1832,HEMNES
8647,BLEIKVASSLIA,1832,HEMNES
8648,KORGEN,1832,HEMNES
8651,MOSJØEN,1824,VEFSN
8652,MOSJØEN,1824,VEFSN
8654,MOSJØEN,1824,VEFSN
8655,MOSJØEN,1824,VEFSN
8656,MOSJØEN,1824,VEFSN
8657,MOSJØEN,1824,VEFSN
8658,MOSJØEN,1824,VEFSN
8659,MOSJØEN,1824,VEFSN
8660,MOSJØEN,1824,VEFSN
8661,MOSJØEN,1824,VEFSN
8663,MOSJØEN,1824,VEFSN
8664,MOSJØEN,1824,VEFSN
8665,MOSJØEN,1824,VEFSN
8666,MOSJØEN,1824,VEFSN
8672,ELSFJORD,1824,VEFSN
8680,TROFORS,1825,GRANE
8681,TROFORS,1825,GRANE
8690,HATTFJELLDAL,1826,HATTFJELLDAL
8691,HATTFJELLDAL,1826,HATTFJELLDAL
8700,NESNA,1828,NESNA
8701,NESNA,1828,NESNA
8720,VIKHOLMEN,1828,NESNA
8723,HUSBY,1828,NESNA
8724,SAURA,1828,NESNA
8725,UTSKARPEN,1833,RANA
8730,BRATLAND,1834,LURØY
8732,ALDRA,1834,LURØY
8733,STUVLAND,1834,LURØY
8735,STOKKVÅGEN,1834,LURØY
8740,NORD-SOLVÆR,1834,LURØY
8742,SELVÆR,1835,TRÆNA
8743,INDRE KVARØY,1834,LURØY
8750,TONNES,1834,LURØY
8752,KONSVIKOSEN,1834,LURØY
8753,KONSVIKOSEN,1834,LURØY
8754,ØRESVIK,1836,RØDØY
8762,SLENESET,1834,LURØY
8764,LOVUND,1834,LURØY
8766,LURØY,1834,LURØY
8767,LURØY,1834,LURØY
8770,TRÆNA,1835,TRÆNA
8800,SANDNESSJØEN,1820,ALSTAHAUG
8801,SANDNESSJØEN,1820,ALSTAHAUG
8802,SANDNESSJØEN,1820,ALSTAHAUG
8803,SANDNESSJØEN,1820,ALSTAHAUG
8804,SANDNESSJØEN,1820,ALSTAHAUG
8805,SANDNESSJØEN,1820,ALSTAHAUG
8809,SANDNESSJØEN,1820,ALSTAHAUG
8813,LØKTA,1827,DØNNA
8820,DØNNA,1827,DØNNA
8827,DØNNA,1827,DØNNA
8830,VANDVE,1827,DØNNA
8842,BRASØY,1818,HERØY (NORDLAND)
8844,SANDVÆR,1818,HERØY (NORDLAND)
8850,HERØY,1818,HERØY (NORDLAND)
8851,HERØY,1818,HERØY (NORDLAND)
8852,HERØY,1818,HERØY (NORDLAND)
8854,AUSTBØ,1820,ALSTAHAUG
8860,TJØTTA,1820,ALSTAHAUG
8861,TJØTTA,1820,ALSTAHAUG
8865,TRO,1820,ALSTAHAUG
8870,VISTHUS,1816,VEVELSTAD
8880,BÆRØYVÅGEN,1820,ALSTAHAUG
8890,LEIRFJORD,1822,LEIRFJORD
8891,LEIRFJORD,1822,LEIRFJORD
8892,SUNDØY,1822,LEIRFJORD
8897,BARDAL,1822,LEIRFJORD
8900,BRØNNØYSUND,1813,BRØNNØY
8901,BRØNNØYSUND,1813,BRØNNØY
8902,BRØNNØYSUND,1813,BRØNNØY
8904,BRØNNØYSUND,1813,BRØNNØY
8905,BRØNNØYSUND,1813,BRØNNØY
8906,BRØNNØYSUND,1813,BRØNNØY
8907,BRØNNØYSUND,1813,BRØNNØY
8908,BRØNNØYSUND,1813,BRØNNØY
8909,BRØNNØYSUND,1813,BRØNNØY
8910,BRØNNØYSUND,1813,BRØNNØY
8920,SØMNA,1812,SØMNA
8921,SØMNA,1812,SØMNA
8922,SØMNA,1812,SØMNA
8960,VELFJORD,1813,BRØNNØY
8961,VELFJORD,1813,BRØNNØY
8976,VEVELSTAD,1816,VEVELSTAD
8977,VEVELSTAD,1816,VEVELSTAD
8980,VEGA,1815,VEGA
8981,VEGA,1815,VEGA
8985,YLVINGEN,1815,VEGA
9006,TROMSØ,5401,TROMSØ
9007,TROMSØ,5401,TROMSØ
9008,TROMSØ,5401,TROMSØ
9009,TROMSØ,5401,TROMSØ
9010,TROMSØ,5401,TROMSØ
9011,TROMSØ,5401,TROMSØ
9012,TROMSØ,5401,TROMSØ
9013,TROMSØ,5401,TROMSØ
9014,TROMSØ,5401,TROMSØ
9015,TROMSØ,5401,TROMSØ
9016,TROMSØ,5401,TROMSØ
9017,TROMSØ,5401,TROMSØ
9018,TROMSØ,5401,TROMSØ
9019,TROMSØ,5401,TROMSØ
9020,TROMSDALEN,5401,TROMSØ
9021,TROMSDALEN,5401,TROMSØ
9022,KROKELVDALEN,5401,TROMSØ
9023,KROKELVDALEN,5401,TROMSØ
9024,TOMASJORD,5401,TROMSØ
9027,RAMFJORDBOTN,5401,TROMSØ
9029,TROMSDALEN,5401,TROMSØ
9030,SJURSNES,5401,TROMSØ
9034,OLDERVIK,5401,TROMSØ
9037,TROMSØ,5401,TROMSØ
9038,TROMSØ,5401,TROMSØ
9040,NORDKJOSBOTN,5422,BALSFJORD
9042,LAKSVATN,5422,BALSFJORD
9043,JØVIK,5401,TROMSØ
9046,OTEREN,5425,STORFJORD
9049,NORDKJOSBOTN,5422,BALSFJORD
9050,STORSTEINNES,5422,BALSFJORD
9055,MEISTERVIK,5422,BALSFJORD
9056,MORTENHALS,5422,BALSFJORD
9057,VIKRAN,5401,TROMSØ
9059,STORSTEINNES,5422,BALSFJORD
9060,LYNGSEIDET,5424,LYNGEN
9062,FURUFLATEN,5424,LYNGEN
9064,SVENSBY,5424,LYNGEN
9068,NORD-LENANGEN,5424,LYNGEN
9069,LYNGSEIDET,5424,LYNGEN
9100,KVALØYSLETTA,5401,TROMSØ
9101,KVALØYSLETTA,5401,TROMSØ
9102,KVALØYSLETTA,5401,TROMSØ
9103,KVALØYA,5401,TROMSØ
9104,KVALØYA,5401,TROMSØ
9105,KVALØYA,5401,TROMSØ
9106,STRAUMSBUKTA,5401,TROMSØ
9107,KVALØYA,5401,TROMSØ
9108,KVALØYA,5401,TROMSØ
9110,SOMMARØY,5401,TROMSØ
9118,BRENSHOLMEN,5401,TROMSØ
9119,SOMMARØY,5401,TROMSØ
9120,VENGSØY,5401,TROMSØ
9128,TUSSØY,5401,TROMSØ
9130,HANSNES,5423,KARLSØY
9131,KÅRVIK,5401,TROMSØ
9132,STAKKVIK,5423,KARLSØY
9134,HANSNES,5423,KARLSØY
9135,VANNVÅG,5423,KARLSØY
9136,VANNAREID,5423,KARLSØY
9137,VANNVÅG,5423,KARLSØY
9138,KARLSØY,5423,KARLSØY
9140,REBBENES,5423,KARLSØY
9141,MJØLVIK,5401,TROMSØ
9142,SKIBOTN,5425,STORFJORD
9143,SKIBOTN,5425,STORFJORD
9144,SAMUELSBERG,5426,GÁIVUOTNA KÅFJORD
9145,SAMUELSBERG,5426,GÁIVUOTNA KÅFJORD
9146,OLDERDALEN,5426,GÁIVUOTNA KÅFJORD
9147,BIRTAVARRE,5426,GÁIVUOTNA KÅFJORD
9148,OLDERDALEN,5426,GÁIVUOTNA KÅFJORD
9149,BIRTAVARRE,5426,GÁIVUOTNA KÅFJORD
9151,STORSLETT,5428,NORDREISA
9152,SØRKJOSEN,5428,NORDREISA
9153,ROTSUND,5428,NORDREISA
9154,STORSLETT,5428,NORDREISA
9155,SØRKJOSEN,5428,NORDREISA
9156,STORSLETT,5428,NORDREISA
9157,STORSLETT,5428,NORDREISA
9158,STORSLETT,5428,NORDREISA
9159,HAVNNES,5428,NORDREISA
9161,BURFJORD,5429,KVÆNANGEN
9162,SØRSTRAUMEN,5429,KVÆNANGEN
9163,JØKELFJORD,5429,KVÆNANGEN
9169,BURFJORD,5429,KVÆNANGEN
9170,LONGYEARBYEN,2100,SVALBARD
9171,LONGYEARBYEN,2100,SVALBARD
9173,NY-ÅLESUND,2100,SVALBARD
9174,HOPEN,2100,SVALBARD
9175,SVEAGRUVA,2100,SVALBARD
9176,BJØRNØYA,2100,SVALBARD
9178,BARENTSBURG,2100,SVALBARD
9180,SKJERVØY,5427,SKJERVØY
9181,HAMNEIDET,5428,NORDREISA
9182,SEGLVIK,5429,KVÆNANGEN
9184,REINFJORD,5429,KVÆNANGEN
9185,SPILDRA,5429,KVÆNANGEN
9186,ANDSNES,5432,LOPPA
9187,VALANHAMN,5429,KVÆNANGEN
9189,SKJERVØY,5427,SKJERVØY
9190,AKKARVIK,5427,SKJERVØY
9192,ARNØYHAMN,5427,SKJERVØY
9193,NIKKEBY,5427,SKJERVØY
9194,LAUKSLETTA,5427,SKJERVØY
9195,ÅRVIKSAND,5427,SKJERVØY
9197,ULØYBUKT,5427,SKJERVØY
9240,TROMSØ,5401,TROMSØ
9251,TROMSØ,5401,TROMSØ
9252,TROMSØ,5401,TROMSØ
9253,TROMSØ,5401,TROMSØ
9254,TROMSØ,5401,TROMSØ
9255,TROMSØ,5401,TROMSØ
9256,TROMSØ,5401,TROMSØ
9257,TROMSØ,5401,TROMSØ
9258,TROMSØ,5401,TROMSØ
9259,TROMSØ,5401,TROMSØ
9260,TROMSØ,5401,TROMSØ
9261,TROMSØ,5401,TROMSØ
9262,TROMSØ,5401,TROMSØ
9263,TROMSØ,5401,TROMSØ
9265,TROMSØ,5401,TROMSØ
9266,TROMSØ,5401,TROMSØ
9267,TROMSØ,5401,TROMSØ
9268,TROMSØ,5401,TROMSØ
9269,TROMSØ,5401,TROMSØ
9270,TROMSØ,5401,TROMSØ
9271,TROMSØ,5401,TROMSØ
9272,TROMSØ,5401,TROMSØ
9273,TROMSØ,5401,TROMSØ
9274,TROMSØ,5401,TROMSØ
9275,TROMSØ,5401,TROMSØ
9276,TROMSØ,5401,TROMSØ
9277,TROMSØ,5401,TROMSØ
9278,TROMSØ,5401,TROMSØ
9279,TROMSØ,5401,TROMSØ
9280,TROMSØ,5401,TROMSØ
9281,TROMSØ,5401,TROMSØ
9282,TROMSØ,5401,TROMSØ
9283,TROMSØ,5401,TROMSØ
9284,TROMSØ,5401,TROMSØ
9285,TROMSØ,5401,TROMSØ
9286,TROMSØ,5401,TROMSØ
9287,TROMSØ,5401,TROMSØ
9288,TROMSØ,5401,TROMSØ
9290,TROMSØ,5401,TROMSØ
9291,TROMSØ,5401,TROMSØ
9292,TROMSØ,5401,TROMSØ
9293,TROMSØ,5401,TROMSØ
9294,TROMSØ,5401,TROMSØ
9296,TROMSØ,5401,TROMSØ
9298,TROMSØ,5401,TROMSØ
9299,TROMSØ,5401,TROMSØ
9300,FINNSNES,5421,SENJA
9302,ROSSFJORDSTRAUMEN,5421,SENJA
9303,SILSAND,5421,SENJA
9304,VANGSVIK,5421,SENJA
9305,FINNSNES,5421,SENJA
9306,FINNSNES,5421,SENJA
9307,FINNSNES,5421,SENJA
9308,FINNSNES,5421,SENJA
9309,FINNSNES,5421,SENJA
9310,SØRREISA,5419,SØRREISA
9311,BRØSTADBOTN,5420,DYRØY
9315,SØRREISA,5419,SØRREISA
9316,BRØSTADBOTN,5420,DYRØY
9321,MOEN,5418,MÅLSELV
9322,KARLSTAD,5418,MÅLSELV
9325,BARDUFOSS,5418,MÅLSELV
9326,BARDUFOSS,5418,MÅLSELV
9329,MOEN,5418,MÅLSELV
9334,ØVERBYGD,5418,MÅLSELV
9335,ØVERBYGD,5418,MÅLSELV
9336,RUNDHAUG,5418,MÅLSELV
9350,SJØVEGAN,5417,SALANGEN
9355,SJØVEGAN,5417,SALANGEN
9357,TENNEVOLL,5415,LAVANGEN
9358,TENNEVOLL,5415,LAVANGEN
9360,BARDU,5416,BARDU
9365,BARDU,5416,BARDU
9370,SILSAND,5421,SENJA
9372,GIBOSTAD,5421,SENJA
9373,BOTNHAMN,5421,SENJA
9376,SKATVIK,5421,SENJA
9379,GRYLLEFJORD,5421,SENJA
9380,GRYLLEFJORD,5421,SENJA
9381,TORSKEN,5421,SENJA
9382,GIBOSTAD,5421,SENJA
9384,SKALAND,5421,SENJA
9385,SKALAND,5421,SENJA
9386,SENJAHOPEN,5421,SENJA
9387,SENJAHOPEN,5421,SENJA
9388,FJORDGARD,5421,SENJA
9389,HUSØY I SENJA,5421,SENJA
9391,STONGLANDSEIDET,5421,SENJA
9392,STONGLANDSEIDET,5421,SENJA
9393,FLAKSTADVÅG,5421,SENJA
9395,KALDFARNES,5421,SENJA
9402,HARSTAD,5402,HARSTAD
9403,HARSTAD,5402,HARSTAD
9404,HARSTAD,5402,HARSTAD
9405,HARSTAD,5402,HARSTAD
9406,HARSTAD,5402,HARSTAD
9407,HARSTAD,5402,HARSTAD
9408,HARSTAD,5402,HARSTAD
9409,HARSTAD,5402,HARSTAD
9411,HARSTAD,5402,HARSTAD
9414,HARSTAD,5402,HARSTAD
9415,HARSTAD,5402,HARSTAD
9416,HARSTAD,5402,HARSTAD
9419,SØRVIK,5402,HARSTAD
9420,LUNDENES,5402,HARSTAD
9423,GRØTAVÆR,5402,HARSTAD
9424,KJØTTA,5402,HARSTAD
9425,SANDSØY,5402,HARSTAD
9426,BJARKØY,5402,HARSTAD
9427,MELØYVÆR,5402,HARSTAD
9430,SANDTORG,5402,HARSTAD
9436,KONGSVIK,5412,TJELDSUND
9439,EVENSKJER,5412,TJELDSUND
9440,EVENSKJER,5412,TJELDSUND
9441,FJELLDAL,5412,TJELDSUND
9442,RAMSUND,5412,TJELDSUND
9443,MYKLEBOSTAD,5412,TJELDSUND
9444,HOL I TJELDSUND,5412,TJELDSUND
9445,TOVIK,5412,TJELDSUND
9446,GROVFJORD,5412,TJELDSUND
9447,GROVFJORD,5412,TJELDSUND
9448,RAMSUND,5412,TJELDSUND
9450,HAMNVIK,5413,IBESTAD
9451,HAMNVIK,5413,IBESTAD
9453,KRÅKRØHAMN,5413,IBESTAD
9454,ÅNSTAD,5413,IBESTAD
9455,ENGENES,5413,IBESTAD
9456,ENGENES,5413,IBESTAD
9470,GRATANGEN,5414,GRATANGEN
9471,GRATANGEN,5414,GRATANGEN
9475,BORKENES,5411,KVÆFJORD
9476,BORKENES,5411,KVÆFJORD
9479,HARSTAD,5402,HARSTAD
9480,HARSTAD,5402,HARSTAD
9481,HARSTAD,5402,HARSTAD
9482,HARSTAD,5402,HARSTAD
9483,HARSTAD,5402,HARSTAD
9484,HARSTAD,5402,HARSTAD
9485,HARSTAD,5402,HARSTAD
9486,HARSTAD,5402,HARSTAD
9487,HARSTAD,5402,HARSTAD
9488,HARSTAD,5402,HARSTAD
9489,HARSTAD,5402,HARSTAD
9496,HARSTAD,5402,HARSTAD
9497,HARSTAD,5402,HARSTAD
9498,HARSTAD,5402,HARSTAD
9501,ALTA,5403,ALTA
9502,ALTA,5403,ALTA
9503,ALTA,5403,ALTA
9504,ALTA,5403,ALTA
9505,ALTA,5403,ALTA
9506,ALTA,5403,ALTA
9507,ALTA,5403,ALTA
9508,ALTA,5403,ALTA
9509,ALTA,5403,ALTA
9510,ALTA,5403,ALTA
9511,ALTA,5403,ALTA
9512,ALTA,5403,ALTA
9513,ALTA,5403,ALTA
9514,ALTA,5403,ALTA
9515,ALTA,5403,ALTA
9516,ALTA,5403,ALTA
9517,ALTA,5403,ALTA
9518,ALTA,5403,ALTA
9519,KVIBY,5403,ALTA
9520,KAUTOKEINO,5430,GUOVDAGEAIDNU KAUTOKEINO
9521,KAUTOKEINO,5430,GUOVDAGEAIDNU KAUTOKEINO
9525,MAZE,5430,GUOVDAGEAIDNU KAUTOKEINO
9531,KVALFJORD,5403,ALTA
9532,HAKKSTABBEN,5403,ALTA
9533,KONGSHUS,5403,ALTA
9536,KORSFJORDEN,5403,ALTA
9540,TALVIK,5403,ALTA
9545,LANGFJORDBOTN,5403,ALTA
9550,ØKSFJORD,5432,LOPPA
9580,BERGSFJORD,5432,LOPPA
9582,NUVSVÅG,5432,LOPPA
9583,LANGFJORDHAMN,5432,LOPPA
9584,SØR-TVERRFJORD,5432,LOPPA
9585,SANDLAND,5432,LOPPA
9586,LOPPA,5432,LOPPA
9587,SKAVNAKK,5432,LOPPA
9590,HASVIK,5433,HASVIK
9591,HASVIK,5433,HASVIK
9593,BREIVIKBOTN,5433,HASVIK
9595,SØRVÆR,5433,HASVIK
9600,HAMMERFEST,5406,HAMMERFEST
9601,HAMMERFEST,5406,HAMMERFEST
9602,HAMMERFEST,5406,HAMMERFEST
9603,HAMMERFEST,5406,HAMMERFEST
9609,NORDRE SEILAND,5406,HAMMERFEST
9610,RYPEFJORD,5406,HAMMERFEST
9611,RYPEFJORD,5406,HAMMERFEST
9612,FORSØL,5406,HAMMERFEST
9615,HAMMERFEST,5406,HAMMERFEST
9616,HAMMERFEST,5406,HAMMERFEST
9620,KVALSUND,5406,HAMMERFEST
9621,KVALSUND,5406,HAMMERFEST
9624,REVSNESHAMN,5406,HAMMERFEST
9650,AKKARFJORD,5406,HAMMERFEST
9651,LANGSTRAND,5406,HAMMERFEST
9657,KÅRHAMN,5406,HAMMERFEST
9664,SANDØYBOTN,5406,HAMMERFEST
9670,TUFJORD,5434,MÅSØY
9672,INGØY,5434,MÅSØY
9690,HAVØYSUND,5434,MÅSØY
9691,HAVØYSUND,5434,MÅSØY
9692,MÅSØY,5434,MÅSØY
9700,LAKSELV,5436,PORSANGER PORSÁNGU PORSANKI
9709,PORSANGMOEN,5436,PORSANGER PORSÁNGU PORSAN,G
9710,INDRE BILLEFJORD,5436,PORSANGER PORSÁNGU PSANKI,G
9711,LAKSELV,5436,PORSANGER PORSÁNGU PORSANKI
9712,LAKSELV,5436,PORSANGER PORSÁNGU PORSANKI
9713,RUSSENES,5436,PORSANGER PORSÁNGU PORSANKI
9714,SNEFJORD,5434,MÅSØY
9715,KOKELV,5406,HAMMERFEST
9716,BØRSELV,5436,PORSANGER PORSÁNGU PORSANKI
9717,VEIDNESKLUBBEN,5438,LEBESBY
9722,SKOGANVARRE,5436,PORSANGER PORSÁNGU PORSAN,G
9730,KARASJOK,5437,KARASJOHKA KARASJOK
9735,KARASJOK,5437,KARASJOHKA KARASJOK
9740,LEBESBY,5438,LEBESBY
9742,KUNES,5438,LEBESBY
9750,HONNINGSVÅG,5435,NORDKAPP
9751,HONNINGSVÅG,5435,NORDKAPP
9760,NORDVÅGEN,5435,NORDKAPP
9763,SKARSVÅG,5435,NORDKAPP
9764,NORDKAPP,5435,NORDKAPP
9765,GJESVÆR,5435,NORDKAPP
9768,REPVÅG,5435,NORDKAPP
9770,MEHAMN,5439,GAMVIK
9771,SKJÅNES,5439,GAMVIK
9772,LANGFJORDNES,5439,GAMVIK
9773,NERVEI,5439,GAMVIK
9775,GAMVIK,5439,GAMVIK
9782,DYFJORD,5438,LEBESBY
9790,KJØLLEFJORD,5438,LEBESBY
9800,VADSØ,5405,VADSØ
9802,VESTRE JAKOBSELV,5405,VADSØ
9810,VESTRE JAKOBSELV,5405,VADSØ
9811,VADSØ,5405,VADSØ
9815,VADSØ,5405,VADSØ
9820,VARANGERBOTN,5442,UNJARGGA NESSEBY
9826,SIRMA,5441,DEATNU TANA
9840,VARANGERBOTN,5442,UNJARGGA NESSEBY
9845,TANA,5441,DEATNU TANA
9846,TANA,5441,DEATNU TANA
9900,KIRKENES,5444,SØR-VARANGER
9901,KIRKENES,5444,SØR-VARANGER
9910,BJØRNEVATN,5444,SØR-VARANGER
9911,JARFJORD,5444,SØR-VARANGER
9912,HESSENG,5444,SØR-VARANGER
9914,BJØRNEVATN,5444,SØR-VARANGER
9915,KIRKENES,5444,SØR-VARANGER
9916,HESSENG,5444,SØR-VARANGER
9917,KIRKENES,5444,SØR-VARANGER
9925,SVANVIK,5444,SØR-VARANGER
9930,NEIDEN,5444,SØR-VARANGER
9935,BUGØYNES,5444,SØR-VARANGER
9950,VARDØ,5404,VARDØ
9951,VARDØ,5404,VARDØ
9960,KIBERG,5404,VARDØ
9980,BERLEVÅG,5440,BERLEVÅG
9981,BERLEVÅG,5440,BERLEVÅG
9982,KONGSFJORD,5440,BERLEVÅG
9990,BÅTSFJORD,5443,BÅTSFJORD
9991,BÅTSFJORD,5443,BÅTSFJORD
